{"version": 0.6, "generator": "Overpass API 0.7.62.4 2390de5a", "osm3s": {"timestamp_osm_base": "2025-02-01T22:35:01Z", "copyright": "The data included in this document is from www.openstreetmap.org. The data is made available under ODbL."}, "elements": [{"type": "node", "id": 45006508, "lat": 1.3833, "lon": 38.2166, "tags": {"created_by": "JOSM", "is_in": "Isiolo,Kenya", "name": "Barchuma Guda", "place": "village"}}, {"type": "node", "id": 424313903, "lat": 1.4419683, "lon": 38.4313975, "tags": {"ISO3166-1:alpha2": "KE", "capital_city": "Nairobi", "country_code_fips": "KE", "geonames:id": "192950", "int_name": "Kenya", "name": "Kenya", "name:ace": "Kenya", "name:af": "Kenia", "name:ak": "K\u025bnya", "name:als": "Kenia", "name:am": "\u12ac\u1295\u12eb", "name:an": "Kenia", "name:ang": "Cenia", "name:ar": "\u0643\u064a\u0646\u064a\u0627", "name:arz": "\u0643\u064a\u0646\u064a\u0627", "name:ast": "Kenia", "name:az": "Keniya", "name:ba": "\u041a\u0435\u043d\u0438\u044f", "name:bat-smg": "K\u0117n\u0117j\u0117", "name:bcl": "Kenya", "name:be": "\u041a\u0435\u043d\u0456\u044f", "name:be-tarask": "\u041a\u0435\u043d\u0456\u044f", "name:bg": "\u041a\u0435\u043d\u0438\u044f", "name:bjn": "Kenya", "name:bm": "Keniya", "name:bn": "\u0995\u09c7\u09a8\u09bf\u09af\u09bc\u09be", "name:bo": "\u0f41\u0f7a\u0f53\u0f0b\u0f49\u0f72\u0f0b\u0f61\u0f0d", "name:bpy": "\u0995\u09c7\u09a8\u09bf\u09af\u09bc\u09be", "name:br": "Kenya", "name:bs": "Kenija", "name:bxr": "\u041a\u0435\u043d\u0438", "name:ca": "Kenya", "name:ce": "\u041a\u0435\u043d\u0438", "name:ceb": "Kenya", "name:chr": "\u13a8\u13c2\u13ef", "name:ckb": "\u06a9\u06cc\u0646\u06cc\u0627", "name:crh": "Keniya", "name:cs": "Ke\u0148a", "name:cv": "\u041a\u0435\u043d\u0438", "name:cy": "Cenia", "name:da": "Kenya", "name:de": "Kenia", "name:diq": "Kenya", "name:dsb": "Kenia", "name:dv": "\u0786\u07ac\u0782\u07b0\u0794\u07a7", "name:dz": "\u0f40\u0f7a\u0f53\u0f0b\u0f61", "name:ee": "Kenya nutome", "name:el": "\u039a\u03ad\u03bd\u03c5\u03b1", "name:en": "Kenya", "name:eo": "Kenjo", "name:es": "Kenia", "name:et": "Keenia", "name:eu": "Kenia", "name:ext": "Qu\u00e9nia", "name:fa": "\u06a9\u0646\u06cc\u0627", "name:ff": "Ke\u00f1aa", "name:fi": "Kenia", "name:fo": "Kenja", "name:fr": "Kenya", "name:frp": "Kenia", "name:frr": "Keenia", "name:fy": "Kenya", "name:ga": "An Ch\u00e9inia", "name:gag": "Keniya", "name:gd": "A' Cheinia", "name:gl": "Quenia", "name:gu": "\u0a95\u0ac7\u0aa8\u0acd\u0aaf\u0abe", "name:gv": "Yn Cheinney", "name:ha": "Kenya", "name:haw": "Kenia", "name:he": "\u05e7\u05e0\u05d9\u05d4", "name:hi": "\u0915\u0947\u0928\u094d\u092f\u093e", "name:hif": "Kenya", "name:hr": "Kenija", "name:hsb": "Kenija", "name:ht": "Kenya", "name:hu": "Kenya", "name:hy": "\u0554\u0565\u0576\u056b\u0561", "name:ia": "Kenya", "name:id": "Kenya", "name:ie": "Kenia", "name:ilo": "Kenia", "name:io": "Kenia", "name:is": "Ken\u00fda", "name:it": "Kenya", "name:ja": "\u30b1\u30cb\u30a2", "name:jbo": "kenias", "name:jv": "K\u00e9nya", "name:ka": "\u10d9\u10d4\u10dc\u10d8\u10d0", "name:kaa": "Keniya", "name:kab": "Kinya", "name:kg": "Kenya", "name:ki": "Kenya", "name:kk": "\u041a\u0435\u043d\u0438\u044f", "name:kl": "Kenya", "name:km": "\u1780\u17c1\u1793\u1799\u17c9\u17b6", "name:kn": "\u0c95\u0cc0\u0ca8\u0ccd\u0caf\u0cbe", "name:ko": "\ucf00\ub0d0", "name:ks": "\u06a9\u0650\u0646\u065b\u06cc\u0627", "name:ksh": "Keenija", "name:ku": "Kenya", "name:kw": "Kenya", "name:la": "Kenia", "name:lb": "Kenia", "name:lfn": "Cenia", "name:lg": "Kenya", "name:li": "Kenia", "name:lij": "Kenya", "name:lmo": "Kenya", "name:ln": "K\u00e9nya", "name:lo": "\u0ec0\u0e84\u0eb1\u0e99\u0ea2\u0ec9\u0eb2", "name:lt": "Kenija", "name:ltg": "Keneja", "name:lv": "Kenija", "name:mg": "Kenia", "name:mi": "K\u0113nia", "name:mk": "\u041a\u0435\u043d\u0438\u0458\u0430", "name:ml": "\u0d15\u0d46\u0d28\u0d3f\u0d2f", "name:mn": "\u041a\u0435\u043d\u0438", "name:mr": "\u0915\u0947\u0928\u093f\u092f\u093e", "name:mrj": "\u041a\u0435\u043d\u0438", "name:ms": "Kenya", "name:mt": "Kenja", "name:my": "\u1000\u1004\u103a\u100a\u102c", "name:na": "Keniya", "name:nah": "Quenia", "name:nan": "Kenya", "name:nap": "Kenya", "name:nds": "Kenia", "name:ne": "\u0915\u0947\u0928\u094d\u092f\u093e", "name:nl": "Kenia", "name:nn": "Kenya", "name:no": "Kenya", "name:nov": "Kenya", "name:nso": "Kenya", "name:nv": "K\u00e9nya", "name:oc": "Kenya", "name:om": "Keeniyaa", "name:or": "\u0b15\u0b47\u0b28\u0b3f\u0b5f\u0b3e", "name:os": "\u041a\u0435\u043d\u0438", "name:pa": "\u0a15\u0a40\u0a28\u0a40\u0a06", "name:pag": "Kenia", "name:pam": "Kenya", "name:pap": "Kenia", "name:pih": "Keniia", "name:pl": "Kenia", "name:pms": "Kenya", "name:pnb": "\u06a9\u06cc\u0646\u06cc\u0627", "name:ps": "\u06a9\u06d0\u0646\u064a\u0627", "name:pt": "Qu\u00eania", "name:qu": "Kinya", "name:rm": "Kenia", "name:ro": "Kenya", "name:ru": "\u041a\u0435\u043d\u0438\u044f", "name:rw": "Kenya", "name:sa": "\u0915\u0947\u0928\u094d\u092f\u093e", "name:sah": "\u041a\u0435\u043d\u0438\u044f", "name:sc": "K\u00e8nya", "name:scn": "Kenya", "name:sco": "Kenyae", "name:se": "Kenia", "name:sg": "Keny\u00e4a", "name:sh": "Kenija", "name:si": "\u0d9a\u0dd9\u0db1\u0dca\u0dba\u0dcf\u0dc0", "name:sk": "Ke\u0148a", "name:sl": "Kenija", "name:smn": "Kenia", "name:sms": "Kenia", "name:sn": "Kenya", "name:so": "Kiiniya", "name:sq": "Kenia", "name:sr": "\u041a\u0435\u043d\u0438\u0458\u0430", "name:ss": "IKheniya", "name:stq": "Kenia", "name:su": "K\u00e9nya", "name:sv": "Kenya", "name:sw": "Kenya", "name:szl": "Ky\u0144ijo", "name:ta": "\u0b95\u0bc6\u0ba9\u0bcd\u0baf\u0bbe", "name:te": "\u0c15\u0c46\u0c28\u0c4d\u0c2f\u0c3e", "name:tg": "\u041a\u0435\u043d\u0438\u044f", "name:th": "\u0e1b\u0e23\u0e30\u0e40\u0e17\u0e28\u0e40\u0e04\u0e19\u0e22\u0e32", "name:ti": "\u12ac\u1295\u12eb", "name:tk": "Keni\u00fda", "name:tl": "Kenya", "name:to": "Kenia", "name:tok": "ma Kenja", "name:tr": "Kenya", "name:ts": "Kenya", "name:tt": "\u041a\u0435\u043d\u0438\u044f", "name:tzl": "Kenia", "name:ug": "\u0643\u06d0\u0646\u0649\u064a\u06d5", "name:uk": "\u041a\u0435\u043d\u0456\u044f", "name:ur": "\u06a9\u06cc\u0646\u06cc\u0627", "name:uz": "Keniya", "name:vec": "Kenya", "name:vi": "Kenya", "name:vo": "Keny\u00e4n", "name:vro": "Kenya", "name:war": "Kenya", "name:wo": "Kee\u00f1aa", "name:wuu": "\u80af\u5c3c\u4e9a", "name:xal": "\u041a\u0435\u043d\u0438\u043c\u0443\u0434\u0438\u043d \u041e\u0440\u043d", "name:yi": "\u05e7\u05e2\u05e0\u05d9\u05e2", "name:yo": "Or\u00edl\u1eb9\u0301\u00e8de Kenya", "name:yue": "\u80af\u96c5", "name:zh": "\u80af\u5c3c\u4e9a / \u80af\u4e9e", "name:zh-Hans": "\u80af\u5c3c\u4e9a", "name:zh-Hant": "\u80af\u4e9e", "name:zh-Hant-CN": "\u80af\u5c3c\u4e9e", "name:zh-Hant-HK": "\u80af\u5c3c\u4e9e", "name:zh-Hant-TW": "\u80af\u4e9e", "name:zh-Latn-pinyin": "K\u011bnn\u00edy\u00e0", "name:zu": "i-Kenya", "official_name": "Republic of Kenya;Jamhuri ya Kenya", "official_name:be": "\u0420\u044d\u0441\u043f\u0443\u0431\u043b\u0456\u043a\u0430 \u041a\u0435\u043d\u0456\u044f", "official_name:el": "\u0394\u03b7\u03bc\u03bf\u03ba\u03c1\u03b1\u03c4\u03af\u03b1 \u03c4\u03b7\u03c2 \u039a\u03ad\u03bd\u03c5\u03b1\u03c2", "official_name:id": "Republik Kenya", "official_name:ja": "\u30b1\u30cb\u30a2\u5171\u548c\u56fd", "official_name:lb": "Republik Kenia", "official_name:lt": "Kenijos Respublika", "official_name:lv": "Kenijas Republika", "official_name:no": "Republikken Kenya", "official_name:ru": "\u0420\u0435\u0441\u043f\u0443\u0431\u043b\u0438\u043a\u0430 \u041a\u0435\u043d\u0438\u044f", "official_name:sv": "Republiken Kenya", "official_name:tl": "Republika ng Kenya", "official_name:vi": "C\u1ed9ng h\u00f2a Kenya", "place": "country", "population": "38610097", "source:sqkm": "CIA World Factbook", "sqkm": "580367", "wikidata": "Q114", "wikipedia": "en:Kenya"}}, {"type": "node", "id": 12471972987, "lat": 1.5752754, "lon": 38.2570508, "tags": {"name": "Barchuma Dika", "place": "locality"}}, {"type": "node", "id": 12471972988, "lat": 1.4514032, "lon": 38.171871, "tags": {"name": "Parchuma", "place": "locality"}}, {"type": "node", "id": 12471972989, "lat": 1.5960013, "lon": 38.2926355, "tags": {"name": "Noongishu", "place": "locality"}}, {"type": "node", "id": 12486630384, "lat": 1.613017, "lon": 38.3377618, "tags": {"name": "Barchuma", "place": "locality"}}]}