{"version": 0.6, "generator": "Overpass API 0.7.62.1 084b4234", "osm3s": {"timestamp_osm_base": "2024-09-30T19:31:59Z", "copyright": "The data included in this document is from www.openstreetmap.org. The data is made available under ODbL."}, "elements": [{"type": "node", "id": 43527984, "lat": 10.5000045, "lon": 43.4999956, "tags": {"name": "\u0639\u062f\u0644 Awdal", "name:ar": "\u0639\u062f\u0644", "name:en": "Awdal", "name:fr": "Awdal", "name:hu": "Awdal", "name:ko": "\uc544\uc6b0\ub2ec", "place": "region", "wikidata": "Q791667", "wikipedia": "so:Awdal"}}, {"type": "node", "id": 1404222589, "lat": 10.7519366, "lon": 43.5906497, "tags": {"alt_name": "Karure", "name": "Karuure", "pcode": "NC-3806-F03-001", "place": "village", "source": "UNDP - 2006, GTZ - 2002, UNDP - 1997", "wikidata": "Q15526369"}}, {"type": "node", "id": 1404223809, "lat": 10.4874689, "lon": 43.4708154, "tags": {"name": "Xoog Faras", "pcode": "NC-3805-N33-001", "place": "village", "source": "UNDP - 2006, GTZ - 2002"}}, {"type": "node", "id": 1404226108, "lat": 10.46964, "lon": 43.68917, "tags": {"name": "Caro-Weyne", "pcode": "NC-3806-N05-001", "place": "locality", "source": "UNDP - 2006"}}, {"type": "node", "id": 1404226463, "lat": 10.7142, "lon": 43.82382, "tags": {"name": "Garaaca", "pcode": "NC-3806-G08-001", "place": "village", "source": "UNDP - 2006, GTZ - 2002"}}, {"type": "node", "id": 1404226657, "lat": 10.4376075, "lon": 43.7054559, "tags": {"alt_name": "Osoli", "name": "Qsali", "pcode": "NC-3806-P05-001", "place": "village", "source": "UNDP - 2006, GTZ - 2002"}}, {"type": "node", "id": 1404232264, "lat": 10.42133, "lon": 43.59811, "tags": {"name": "Beeyo Kulul", "pcode": "NC-3806-P03-001", "place": "locality", "source": "UNDP - 2006"}}, {"type": "node", "id": 1404232376, "lat": 10.442267, "lon": 43.6562738, "tags": {"name": "Dacawaley", "pcode": "NC-3806-P04-001", "place": "locality", "source": "UNDP - 2006"}}, {"type": "node", "id": 2208319017, "lat": 10.6951152, "lon": 43.4904963, "tags": {"name": "Awdal \u0639\u062f\u0644", "name:ar": "\u0639\u062f\u0644", "name:en": "Awdal", "name:fr": "Awdal", "name:hu": "Awdal", "name:ru": "\u0410\u0443\u0434\u0430\u043b\u044c", "place": "state", "ref": "AD", "state_code": "AD"}}]}