{"version": 0.6, "generator": "Overpass API 0.7.62.1 084b4234", "osm3s": {"timestamp_osm_base": "2024-09-30T21:16:29Z", "copyright": "The data included in this document is from www.openstreetmap.org. The data is made available under ODbL."}, "elements": [{"type": "node", "id": 44922220, "lat": -1.15, "lon": 41.0166, "tags": {"name": "Rigmio", "place": "village", "wikidata": "Q7333824"}}, {"type": "node", "id": 45002500, "lat": -1.150418, "lon": 41.200319, "tags": {"alt_name": "Kolbio", "name": "Colbio", "place": "village", "wikidata": "Q5141952"}}, {"type": "node", "id": 1404221562, "lat": -1.0985655, "lon": 41.2697974, "tags": {"name": "Lalofto", "pcode": "SA-3708-C17-001", "place": "hamlet", "source": "UNDP - 1997"}}, {"type": "node", "id": 1404222211, "lat": -0.9805, "lon": 41.199299, "tags": {"name": "Bora", "pcode": "SA-3704-Z16-001", "place": "hamlet", "source": "UNDP - 1997"}}, {"type": "node", "id": 1404223387, "lat": -0.8196, "lon": 41.021702, "tags": {"name": "Sara", "pcode": "SA-3704-V12-001", "place": "village", "source": "UNDP - 1997"}}, {"type": "node", "id": 1404223724, "lat": -0.8995, "lon": 41.0784, "tags": {"name": "Hida Haro Mare \u0647\u064a\u062f\u0627 \u0647\u0627\u0631\u0648 \u0645\u0627\u0631", "name:ar": "\u0647\u064a\u062f\u0627 \u0647\u0627\u0631\u0648 \u0645\u0627\u0631", "name:en": "Hida Haro Mare", "name:fr": "Hida Haro Mare", "name:so": "Hida Haro Mare", "pcode": "SA-3704-X13-001", "place": "village", "source": "UNDP - 1997"}}, {"type": "node", "id": 1404223948, "lat": -1.1711, "lon": 41.368301, "tags": {"name": "Iach Ari", "pcode": "SA-3708-E20-001", "place": "village", "source": "UNDP - 1997"}}, {"type": "node", "id": 1404224150, "lat": -0.9321, "lon": 41.131401, "tags": {"name": "Ulaaul", "pcode": "SA-3704-Y14-001", "place": "village", "source": "UNDP - 1997"}}, {"type": "node", "id": 1404224662, "lat": -1.0188, "lon": 41.147999, "tags": {"name": "Doola \u062f\u0648\u0644\u0627", "name:ar": "\u062f\u0648\u0644\u0627", "name:so": "Doola", "pcode": "SA-3708-A15-001", "place": "hamlet", "source": "UNDP - 1997"}}, {"type": "node", "id": 1404224709, "lat": -0.8715, "lon": 41.07, "tags": {"name": "Tita \u062a\u064a\u062a\u0627", "name:ar": "\u062a\u064a\u062a\u0627", "name:en": "Tita", "name:fr": "Tita", "name:so": "Tita", "pcode": "SA-3704-W13-001", "place": "village", "source": "UNDP - 1997"}}, {"type": "node", "id": 1404225400, "lat": -1.1362262, "lon": 41.2223976, "tags": {"name": "Diriye \u062f\u064a\u0631\u064a\u064a", "name:ar": "\u062f\u064a\u0631\u064a\u064a", "name:en": "Diriye", "name:fr": "Diriye", "name:so": "Diriye", "pcode": "SA-3708-D16-001", "place": "village", "source": "FSAU"}}, {"type": "node", "id": 1404225734, "lat": -0.8829, "lon": 41.401699, "tags": {"name": "Guba Madaro", "pcode": "SA-3704-X20-001", "place": "village", "source": "UNDP - 1997"}}, {"type": "node", "id": 1404226357, "lat": -1.0513, "lon": 41.250702, "tags": {"name": "Tulic Naghessariga", "pcode": "SA-3708-B17-001", "place": "village", "source": "UNDP - 1997"}}, {"type": "node", "id": 1404226738, "lat": -1.1685, "lon": 41.318001, "tags": {"name": "Navava", "pcode": "SA-3708-E18-002", "place": "village", "source": "UNDP - 1997"}}, {"type": "node", "id": 1404228740, "lat": -0.93765, "lon": 41.0697, "tags": {"name": "Z Kolbio", "pcode": "SA-3704-Y13-001", "place": "village", "source": "FSAU"}}, {"type": "node", "id": 1404230425, "lat": -0.9590799, "lon": 41.0973768, "tags": {"name": "Dambala \u062f\u0627\u0645\u0628\u0627\u0644\u0627", "name:ar": "\u062f\u0627\u0645\u0628\u0627\u0644\u0627", "name:so": "Dambala", "pcode": "SA-3704-Z14-001", "place": "village", "source": "FSAU"}}, {"type": "node", "id": 1404230496, "lat": -1.0806, "lon": 41.332699, "tags": {"name": "Dhunfa", "pcode": "SA-3708-B19-001", "place": "village", "source": "UNDP - 1997"}}, {"type": "node", "id": 1404231100, "lat": -1.1697, "lon": 41.2775, "tags": {"name": "Fiila \u0641\u064a\u0644\u0627", "name:ar": "\u0641\u064a\u0644\u0627", "name:fr": "Fiila", "name:so": "Fiila", "pcode": "SA-3708-E18-001", "place": "hamlet", "source": "UNDP - 1997"}}]}