{"version": 0.6, "generator": "Overpass API 0.7.62.1 084b4234", "osm3s": {"timestamp_osm_base": "2024-09-30T19:01:00Z", "copyright": "The data included in this document is from www.openstreetmap.org. The data is made available under ODbL."}, "elements": [{"type": "node", "id": 10863748372, "lat": 3.103078, "lon": 35.5447314}, {"type": "node", "id": 10863748373, "lat": 3.1033012, "lon": 35.5452024}, {"type": "node", "id": 10863748374, "lat": 3.1027612, "lon": 35.5454835}, {"type": "node", "id": 10863748375, "lat": 3.1025271, "lon": 35.544987}, {"type": "node", "id": 10863749611, "lat": 3.1027622, "lon": 35.5449669, "tags": {"addr:city": "Lodwar", "addr:postcode": "30500", "addr:street": "Lodwar Lorugum Road", "leisure": "resort", "name": "The Chambers Parkplace"}}, {"type": "node", "id": 10882022479, "lat": 3.1031352, "lon": 35.5446314}, {"type": "node", "id": 10882022480, "lat": 3.1034136, "lon": 35.5452438}, {"type": "node", "id": 10882022481, "lat": 3.1027512, "lon": 35.5456024}, {"type": "node", "id": 10882022482, "lat": 3.1024525, "lon": 35.5449528}, {"type": "way", "id": 1168147162, "nodes": [10863748372, 10863748373, 10863748374, 10863748375, 10863748372], "tags": {"access": "customers", "addr:city": "Lodwar", "addr:postcode": "30500", "addr:street": "Lodwar Lorugum Road", "fixme": "I submitted this rough drawing. Aerial imagery is very outdate here.", "leisure": "park", "operator": "The Chambers Parkplace"}}, {"type": "way", "id": 1171011117, "nodes": [10882022479, 10882022480, 10882022481, 10882022482, 10882022479], "tags": {"landuse": "commercial", "leisure": "resort", "name": "The Chambers Parkplace"}}]}