{"version": 0.6, "generator": "Overpass API 0.7.62.1 084b4234", "osm3s": {"timestamp_osm_base": "2024-09-30T20:26:26Z", "copyright": "The data included in this document is from www.openstreetmap.org. The data is made available under ODbL."}, "elements": [{"type": "node", "id": 34684808, "lat": 2.0349312, "lon": 45.3419183, "tags": {"admin_level": "2", "alt_name": "Xamar", "alt_name:ar": "\u0645\u0642\u062f\u0634\u0648;\u0645\u064e\u0642\u0652\u062f\u064e\u0634\u064f\u0648", "capital": "yes", "ele": "9", "name": "Muqdisho \u0645\u0642\u062f\u064a\u0634\u0648", "name:ace": "Mogadishu", "name:af": "Mogadisjoe", "name:am": "\u121e\u1243\u12f2\u123e", "name:an": "Mogadixo", "name:ar": "\u0645\u0642\u062f\u064a\u0634\u0648", "name:az": "Moqadi\u015fo", "name:azb": "\u0645\u0648\u0642\u0627\u062f\u06cc\u0634\u0648", "name:bcl": "Mogadishu", "name:be": "\u041c\u0430\u0433\u0430\u0434\u044b\u0448\u0430", "name:be-tarask": "\u041c\u0430\u0433\u0430\u0434\u0437\u0456\u0448\u0443", "name:bg": "\u041c\u043e\u0433\u0430\u0434\u0438\u0448\u0443", "name:bn": "\u09ae\u09cb\u0997\u09be\u09a6\u09bf\u09b6\u09c1", "name:bo": "\u0f58\u0f7c\u0f0b\u0f42\u0f0b\u0f51\u0f72\u0f0b\u0f64\u0f74\u0f0d", "name:br": "Muqdisho", "name:bs": "Mogadi\u0161", "name:ca": "Mogadixo", "name:ckb": "\u0645\u06c6\u06af\u0627\u062f\u06cc\u0634\u0648", "name:cs": "Mogadi\u0161u", "name:cy": "Mogadishu", "name:da": "Mogadishu", "name:de": "Mogadischu", "name:el": "\u039c\u03bf\u03b3\u03ba\u03b1\u03bd\u03c4\u03af\u03c3\u03bf\u03c5", "name:en": "Mogadishu", "name:eo": "Mogadi\u015do", "name:es": "Mogadiscio", "name:et": "Muqdisho", "name:eu": "Muqdisho", "name:fa": "\u0645\u0648\u06af\u0627\u062f\u06cc\u0634\u0648", "name:fi": "Mogadishu", "name:fo": "Mogadishu", "name:fr": "Mogadiscio", "name:fy": "Mogadisj\u00fb", "name:ga": "Mogaidisi\u00fa", "name:gd": "Mogadishu", "name:gl": "Mogadixo", "name:grc": "\u039c\u03bf\u03b3\u03b1\u03b4\u03b9\u03c3\u03bf\u03c5\u0390\u03b1", "name:he": "\u05de\u05d5\u05d2\u05d3\u05d9\u05e9\u05d5", "name:hi": "\u092e\u094b\u0917\u093e\u0926\u0940\u0936\u0942", "name:hif": "Mogadishu", "name:hr": "Mogadi\u0161u", "name:ht": "Moukdicho", "name:hu": "Mogadishu", "name:hy": "\u0544\u0578\u0563\u0561\u0564\u056b\u0577\u0578", "name:id": "Mogadishu", "name:ie": "Mogadishu", "name:io": "Mogadishu", "name:is": "M\u00f3gadisj\u00fa", "name:it": "Mogadiscio", "name:ja": "\u30e2\u30ac\u30c7\u30a3\u30b7\u30e5", "name:jv": "Mogadishu", "name:ka": "\u10db\u10dd\u10d2\u10d0\u10d3\u10d8\u10e8\u10dd", "name:kab": "Mugadiccu", "name:kk": "\u041c\u043e\u0433\u0430\u0434\u0438\u0448\u043e \u049b\u0430\u043b\u0430\u0441\u044b", "name:kn": "\u0cae\u0cca\u0c97\u0ca6\u0cbf\u0cb6\u0cc1", "name:ko": "\ubaa8\uac00\ub514\uc288", "name:ku": "Mogad\u00ee\u015fu", "name:ky": "\u041c\u043e\u0433\u0430\u0434\u0438\u0448\u043e", "name:la": "Mogadiscio", "name:lij": "Mogadiscio", "name:lmo": "Mugadiss", "name:lt": "Mogadi\u0161as", "name:lv": "Mogad\u012b\u0161o", "name:mk": "\u041c\u043e\u0433\u0430\u0434\u0438\u0448\u0443", "name:ml": "\u0d2e\u0d4a\u0d17\u0d3e\u0d26\u0d3f\u0d37\u0d41", "name:mr": "\u092e\u094b\u0917\u093e\u0926\u093f\u0936\u0942", "name:ms": "Mogadishu", "name:nan": "Mogadishu", "name:nl": "Mogadishu", "name:nn": "Mogadishu", "name:no": "Mogadishu", "name:nov": "Mogadishu", "name:oc": "Mogadisho", "name:pa": "\u0a2e\u0a15\u0a26\u0a40\u0a38\u0a3c\u0a42", "name:pap": "Mogadishu", "name:pl": "Mogadiszu", "name:pms": "Mogadiss", "name:pnb": "\u0645\u0648\u06af\u0627\u062f\u06cc\u0634\u0648", "name:pt": "Mogad\u00edscio", "name:ro": "Mogadishu", "name:ru": "\u041c\u043e\u0433\u0430\u0434\u0438\u0448\u043e", "name:ru:word_stress": "\u041c\u043e\u0433\u0430\u0434\u0438\u0301\u0448\u043e", "name:rw": "Mogadishu", "name:sco": "Mogadishu", "name:sh": "Mogadishu", "name:simple": "Mogadishu", "name:sk": "Mogadi\u0161o", "name:sl": "Mogadi\u0161", "name:so": "Muqdisho", "name:sr": "\u041c\u043e\u0433\u0430\u0434\u0438\u0448\u0443", "name:sv": "Mogadishu", "name:sw": "Mogadishu", "name:ta": "\u0bae\u0bca\u0b95\u0b9f\u0bbf\u0b9a\u0bc1", "name:tg": "\u041c\u043e\u0433\u0430\u0434\u0438\u0448\u043e", "name:th": "\u0e42\u0e21\u0e01\u0e32\u0e14\u0e34\u0e0a\u0e39", "name:tl": "Mogadishu", "name:tr": "Mogadi\u015fu", "name:udm": "\u041c\u043e\u0433\u0430\u0434\u0438\u0448\u043e", "name:uk": "\u041c\u043e\u0491\u0430\u0434\u0456\u0448\u043e", "name:ur": "\u0645\u0648\u063a\u0627\u062f\u06cc\u0634\u0648", "name:vec": "Mogadiscio", "name:vi": "Mogadishu", "name:war": "Mogadishu", "name:wo": "Mogadisu", "name:yo": "Mogadishu", "name:zh": "\u6469\u52a0\u8fea\u6c99", "place": "city", "population": "2610000", "population:date": "2023", "wikidata": "Q2449", "wikipedia": "ar:\u0645\u0642\u062f\u064a\u0634\u0648"}}, {"type": "node", "id": 43528267, "lat": 5.5355913, "lon": 46.3831085, "tags": {"name": "Dhuusamareeb \u062f\u0648\u0633\u0645\u0631\u064a\u0628", "name:ar": "\u062f\u0648\u0633\u0645\u0631\u064a\u0628", "name:ca": "Dhusa Mareb", "name:de": "Dhuusamarreeb", "name:en": "Dusmareb", "name:fa": "\u0637\u0648\u0633 \u0645\u0631\u06cc\u0628", "name:fi": "Dhuusamarreeb", "name:fr": "Dusmareb", "name:it": "Dusa Mareb", "name:ja": "\u30c9\u30a5\u30b5\u30de\u30ec\u30d6", "name:ko": "\ub450\uc0ac\ub9c8\ub819", "name:nl": "Dhuusa Marreeb", "name:pl": "Dhuusamarreeb", "name:pt": "Dusa Mareb", "name:ro": "Dhuusamarreeb", "name:ru": "\u0414\u0443\u0441\u0430\u043c\u0430\u0440\u0435\u0431", "name:so": "Dhuusamareeb", "name:tr": "Dusamareb", "name:uk": "\u0414\u0443\u0441\u0430\u043c\u0430\u0440\u0435\u0431", "name:ur": "\u062f\u06be\u0648\u0633\u0627 \u0645\u0627\u0631\u0628", "name:zh": "\u675c\u85a9\u99ac\u96f7\u535c", "name:zu": "Dusmareb", "place": "town", "population": "10500", "source:population": "Wikipedia (2000)", "wikidata": "Q634063", "wikipedia": "ar:\u0637\u0648\u0633 \u0645\u0631\u064a\u0628"}}, {"type": "node", "id": 43528320, "lat": 6.769726, "lon": 47.430826, "tags": {"name": "Gaalkacyo \u062c\u0627\u0644\u0643\u0639\u064a\u0648", "name:ar": "\u062c\u0627\u0644\u0643\u0639\u064a\u0648", "name:de": "Gaalkacyo", "name:en": "Galkayo", "name:es": "Gaalkacyo", "name:fr": "Gaalkacyo", "name:it": "Galcaio", "name:ko": "\uac08\uce74\uc694", "name:ru": "\u0413\u0430\u043b\u044c\u043a\u0430\u0439\u043e", "name:uk": "\u0413\u0430\u043b\u044c\u043a\u0430\u0439\u043e", "place": "city", "wikidata": "Q865586", "wikipedia": "ar:\u062c\u0627\u0644\u0643\u0639\u064a\u0648"}}, {"type": "node", "id": 313943293, "lat": 5.349526, "lon": 48.526366, "tags": {"name": "Hobyo", "name:ar": "\u0647\u0628\u064a\u0648", "name:it": "Obbia", "place": "town", "population": "11800", "wikipedia": "ar:\u0647\u0628\u064a\u0648"}}, {"type": "node", "id": 348310832, "lat": 10.997222, "lon": 42.967222}, {"type": "node", "id": 348310837, "lat": 10.98441, "lon": 42.96164}, {"type": "node", "id": 348312243, "lat": 11.4119034, "lon": 43.2280068}, {"type": "node", "id": 348353044, "lat": 10.9468917, "lon": 42.929985}, {"type": "node", "id": 348353050, "lat": 10.9128443, "lon": 42.9093387}, {"type": "node", "id": 348353054, "lat": 10.8704813, "lon": 42.875213}, {"type": "node", "id": 348353060, "lat": 10.8607731, "lon": 42.8693292}, {"type": "node", "id": 348353068, "lat": 10.836944, "lon": 42.8549141}, {"type": "node", "id": 348353073, "lat": 10.8219404, "lon": 42.8407931}, {"type": "node", "id": 348353078, "lat": 10.7628088, "lon": 42.7972534}, {"type": "node", "id": 348353083, "lat": 10.7216226, "lon": 42.7657753}, {"type": "node", "id": 348353090, "lat": 10.6763177, "lon": 42.7384159}, {"type": "node", "id": 348353094, "lat": 10.6510176, "lon": 42.7219414}, {"type": "node", "id": 348353099, "lat": 10.6474874, "lon": 42.7189996}, {"type": "node", "id": 348353105, "lat": 10.6221873, "lon": 42.7098797}, {"type": "node", "id": 348353111, "lat": 10.5780592, "lon": 42.708703}, {"type": "node", "id": 348353117, "lat": 10.5336369, "lon": 42.7198821}, {"type": "node", "id": 348353122, "lat": 10.5287063, "lon": 42.7230358}, {"type": "node", "id": 348353128, "lat": 10.5266353, "lon": 42.7324498}, {"type": "node", "id": 348353133, "lat": 10.5207986, "lon": 42.7403575}, {"type": "node", "id": 348353141, "lat": 10.5119494, "lon": 42.7471356}, {"type": "node", "id": 348353148, "lat": 10.4720341, "lon": 42.7569262}, {"type": "node", "id": 348353155, "lat": 10.4564069, "lon": 42.7631394}, {"type": "node", "id": 348353159, "lat": 10.4036885, "lon": 42.7921345}, {"type": "node", "id": 348353161, "lat": 10.3517233, "lon": 42.8051258}, {"type": "node", "id": 348353163, "lat": 10.3238579, "lon": 42.8156695}, {"type": "node", "id": 348353165, "lat": 10.2779176, "lon": 42.832803}, {"type": "node", "id": 348353174, "lat": 10.2396968, "lon": 42.8552083}, {"type": "node", "id": 348353178, "lat": 10.2289648, "lon": 42.859727}, {"type": "node", "id": 348353180, "lat": 10.1896995, "lon": 42.8873443}, {"type": "node", "id": 348353182, "lat": 10.1618743, "lon": 42.9125309}, {"type": "node", "id": 348353185, "lat": 10.1333295, "lon": 42.9417953}, {"type": "node", "id": 348353187, "lat": 10.1143796, "lon": 42.9576269}, {"type": "node", "id": 348353193, "lat": 10.1021461, "lon": 42.9698603}, {"type": "node", "id": 348353202, "lat": 10.0932708, "lon": 42.9736983}, {"type": "node", "id": 348353209, "lat": 10.0836759, "lon": 42.9974456}, {"type": "node", "id": 348353217, "lat": 10.0721621, "lon": 43.0084798}, {"type": "node", "id": 348353228, "lat": 10.0601684, "lon": 43.0161557}, {"type": "node", "id": 348353231, "lat": 10.0510533, "lon": 43.0247911}, {"type": "node", "id": 348353233, "lat": 10.0404989, "lon": 43.0293487}, {"type": "node", "id": 348353235, "lat": 10.0337825, "lon": 43.0358252}, {"type": "node", "id": 348353237, "lat": 9.9663784, "lon": 43.062451}, {"type": "node", "id": 348353239, "lat": 9.9611012, "lon": 43.0655694}, {"type": "node", "id": 348353242, "lat": 9.9080894, "lon": 43.0861984}, {"type": "node", "id": 348353244, "lat": 9.9042515, "lon": 43.0902762}, {"type": "node", "id": 348353246, "lat": 9.8951363, "lon": 43.1022698}, {"type": "node", "id": 348353250, "lat": 9.8886598, "lon": 43.1161824}, {"type": "node", "id": 348353252, "lat": 9.8862864, "lon": 43.1291604}, {"type": "node", "id": 348353253, "lat": 9.8862864, "lon": 43.138341}, {"type": "node", "id": 348353254, "lat": 9.8928889, "lon": 43.1445662}, {"type": "node", "id": 348353255, "lat": 9.8989255, "lon": 43.1453208}, {"type": "node", "id": 348353256, "lat": 9.8992399, "lon": 43.1500369}, {"type": "node", "id": 348353257, "lat": 9.890751, "lon": 43.1623616}, {"type": "node", "id": 348353258, "lat": 9.8824411, "lon": 43.1825041}, {"type": "node", "id": 348353259, "lat": 9.8428969, "lon": 43.2569505}, {"type": "node", "id": 348353280, "lat": 9.5930577, "lon": 43.3433117}, {"type": "node", "id": 348353282, "lat": 9.5864787, "lon": 43.3520908}, {"type": "node", "id": 348353284, "lat": 9.5815895, "lon": 43.3600646}, {"type": "node", "id": 348353287, "lat": 9.5740585, "lon": 43.3700058}, {"type": "node", "id": 348353290, "lat": 9.5647246, "lon": 43.3786606}, {"type": "node", "id": 348353292, "lat": 9.5520162, "lon": 43.3997997}, {"type": "node", "id": 348353294, "lat": 9.5450315, "lon": 43.4056579}, {"type": "node", "id": 348353296, "lat": 9.5324139, "lon": 43.4101642}, {"type": "node", "id": 348353298, "lat": 9.5125862, "lon": 43.4139945}, {"type": "node", "id": 348353300, "lat": 9.4718043, "lon": 43.432245}, {"type": "node", "id": 348353303, "lat": 9.447098, "lon": 43.4392087}, {"type": "node", "id": 348353305, "lat": 9.4355116, "lon": 43.4500666}, {"type": "node", "id": 348353308, "lat": 9.4277782, "lon": 43.4551203}, {"type": "node", "id": 348353310, "lat": 9.4157664, "lon": 43.4635587}, {"type": "node", "id": 348353313, "lat": 9.4058824, "lon": 43.4805029}, {"type": "node", "id": 348353315, "lat": 9.396336, "lon": 43.4944735}, {"type": "node", "id": 348353318, "lat": 9.3815052, "lon": 43.5156989}, {"type": "node", "id": 348353320, "lat": 9.3787856, "lon": 43.5318606}, {"type": "node", "id": 348353323, "lat": 9.3766773, "lon": 43.5436577}, {"type": "node", "id": 348353326, "lat": 9.3724717, "lon": 43.551497}, {"type": "node", "id": 348353330, "lat": 9.3686609, "lon": 43.5685938}, {"type": "node", "id": 348353332, "lat": 9.3651592, "lon": 43.5795704}, {"type": "node", "id": 348353334, "lat": 9.3625123, "lon": 43.5857757}, {"type": "node", "id": 348353336, "lat": 9.3577062, "lon": 43.5999138}, {"type": "node", "id": 348353338, "lat": 9.3567242, "lon": 43.61538}, {"type": "node", "id": 348353341, "lat": 9.3561059, "lon": 43.6319099}, {"type": "node", "id": 348353343, "lat": 9.3567568, "lon": 43.6429276}, {"type": "node", "id": 348353345, "lat": 9.3404881, "lon": 43.6598095}, {"type": "node", "id": 348353347, "lat": 9.3309322, "lon": 43.6686286}, {"type": "node", "id": 348353350, "lat": 9.313407, "lon": 43.6858295}, {"type": "node", "id": 348353352, "lat": 9.2972897, "lon": 43.7024615}, {"type": "node", "id": 348353384, "lat": 9.2541263, "lon": 43.7446118}, {"type": "node", "id": 348353390, "lat": 9.2340978, "lon": 43.7645835}, {"type": "node", "id": 348353405, "lat": 9.2227324, "lon": 43.7765133}, {"type": "node", "id": 348353414, "lat": 9.1954818, "lon": 43.8034343}, {"type": "node", "id": 348353424, "lat": 9.1768204, "lon": 43.8220081}, {"type": "node", "id": 348353435, "lat": 9.1583358, "lon": 43.8405811}, {"type": "node", "id": 348353441, "lat": 9.134172, "lon": 43.8622099}, {"type": "node", "id": 348353445, "lat": 9.1170622, "lon": 43.8805992}, {"type": "node", "id": 348353456, "lat": 9.1010904, "lon": 43.8960953}, {"type": "node", "id": 348353470, "lat": 9.0516324, "lon": 43.9440309}, {"type": "node", "id": 348353472, "lat": 9.026278, "lon": 43.971644}, {"type": "node", "id": 348353475, "lat": 8.999778, "lon": 43.9966517}, {"type": "node", "id": 348353477, "lat": 8.9937649, "lon": 44.0161782}, {"type": "node", "id": 348353479, "lat": 8.9890437, "lon": 44.0326734}, {"type": "node", "id": 348353482, "lat": 8.9818599, "lon": 44.0539709}, {"type": "node", "id": 348353487, "lat": 8.9788762, "lon": 44.0629811}, {"type": "node", "id": 348353489, "lat": 8.9587537, "lon": 44.1238136}, {"type": "node", "id": 348353492, "lat": 8.9501931, "lon": 44.1501284}, {"type": "node", "id": 348353496, "lat": 8.9220376, "lon": 44.235265}, {"type": "node", "id": 348353498, "lat": 8.9114478, "lon": 44.270414}, {"type": "node", "id": 348353500, "lat": 8.8943873, "lon": 44.3210078}, {"type": "node", "id": 348353502, "lat": 8.874995, "lon": 44.3802386}, {"type": "node", "id": 348404507, "lat": 8.7726398, "lon": 44.689684}, {"type": "node", "id": 348404512, "lat": 8.5794232, "lon": 45.267553}, {"type": "node", "id": 348404516, "lat": 8.262866, "lon": 46.2247272}, {"type": "node", "id": 348404520, "lat": 8.0015542, "lon": 46.9931464}, {"type": "node", "id": 348404524, "lat": 8.0006638, "lon": 47.0136256}, {"type": "node", "id": 348404527, "lat": 7.9997734, "lon": 47.9823797}, {"type": "node", "id": 348404531, "lat": 7.5627685, "lon": 47.5588163}, {"type": "node", "id": 348404535, "lat": 7.3606344, "lon": 47.316366}, {"type": "node", "id": 348404559, "lat": 4.9458237, "lon": 44.9983473}, {"type": "node", "id": 348404564, "lat": 3.8928602, "lon": 41.8454774}, {"type": "node", "id": 348404568, "lat": 3.158622, "lon": 41.3244709}, {"type": "node", "id": 348404572, "lat": 3.1412366, "lon": 41.3120527}, {"type": "node", "id": 348404576, "lat": 2.8282984, "lon": 40.98918}, {"type": "node", "id": 348404585, "lat": -0.833591, "lon": 40.99344}, {"type": "node", "id": 348404589, "lat": -1.5985737, "lon": 41.5589115}, {"type": "node", "id": 348404593, "lat": 4.9233834, "lon": 44.9780113}, {"type": "node", "id": 348404596, "lat": 4.9267003, "lon": 44.9325221}, {"type": "node", "id": 348404600, "lat": 4.9229096, "lon": 44.9012482}, {"type": "node", "id": 348404603, "lat": 4.9290695, "lon": 44.7297159}, {"type": "node", "id": 348404610, "lat": 4.9233834, "lon": 44.6775928}, {"type": "node", "id": 348404620, "lat": 4.9328603, "lon": 44.6249959}, {"type": "node", "id": 348404623, "lat": 4.9257994, "lon": 44.5899236}, {"type": "node", "id": 348404625, "lat": 4.9257994, "lon": 44.5491729}, {"type": "node", "id": 348404628, "lat": 4.9409624, "lon": 44.3852221}, {"type": "node", "id": 348404630, "lat": 4.942384, "lon": 44.2018436}, {"type": "node", "id": 348404632, "lat": 4.9504394, "lon": 44.1539852}, {"type": "node", "id": 348404634, "lat": 4.9471224, "lon": 44.1227113}, {"type": "node", "id": 348404636, "lat": 4.9400147, "lon": 44.0786436}, {"type": "node", "id": 348404638, "lat": 4.9433317, "lon": 44.0317329}, {"type": "node", "id": 348404641, "lat": 4.9253255, "lon": 43.9379113}, {"type": "node", "id": 348404643, "lat": 4.9163224, "lon": 43.8900529}, {"type": "node", "id": 348404645, "lat": 4.9087409, "lon": 43.8455113}, {"type": "node", "id": 348404647, "lat": 4.9021071, "lon": 43.8090252}, {"type": "node", "id": 348404650, "lat": 4.8888394, "lon": 43.7895975}, {"type": "node", "id": 348404652, "lat": 4.8864701, "lon": 43.7559544}, {"type": "node", "id": 348404654, "lat": 4.8665686, "lon": 43.6825083}, {"type": "node", "id": 348404657, "lat": 4.8424024, "lon": 43.5811052}, {"type": "node", "id": 348404660, "lat": 4.8357686, "lon": 43.5702067}, {"type": "node", "id": 348404662, "lat": 4.8352947, "lon": 43.5522006}, {"type": "node", "id": 348404666, "lat": 4.794544, "lon": 43.4346867}, {"type": "node", "id": 348404668, "lat": 4.6950363, "lon": 43.2318806}, {"type": "node", "id": 348404670, "lat": 4.6523901, "lon": 43.1570129}, {"type": "node", "id": 348404675, "lat": 4.6263286, "lon": 43.1153144}, {"type": "node", "id": 348404678, "lat": 4.6021624, "lon": 43.0793021}, {"type": "node", "id": 348404681, "lat": 4.572784, "lon": 43.0451852}, {"type": "node", "id": 348404683, "lat": 4.5590424, "lon": 43.0347606}, {"type": "node", "id": 348404685, "lat": 4.5415101, "lon": 43.0257575}, {"type": "node", "id": 348404687, "lat": 4.5206609, "lon": 43.0200713}, {"type": "node", "id": 348404690, "lat": 4.4832271, "lon": 43.0124898}, {"type": "node", "id": 348404692, "lat": 4.4681208, "lon": 43.007467}, {"type": "node", "id": 348404694, "lat": 4.4496219, "lon": 42.9965496}, {"type": "node", "id": 348404696, "lat": 4.4359751, "lon": 42.9895746}, {"type": "node", "id": 348404697, "lat": 4.4220251, "lon": 42.9804767}, {"type": "node", "id": 348404698, "lat": 4.4029196, "lon": 42.9692561}, {"type": "node", "id": 348404699, "lat": 4.3804783, "lon": 42.9519702}, {"type": "node", "id": 348404702, "lat": 4.347726, "lon": 42.9249799}, {"type": "node", "id": 348404703, "lat": 4.3180064, "lon": 42.8973831}, {"type": "node", "id": 348404704, "lat": 4.3058759, "lon": 42.8828265}, {"type": "node", "id": 348404705, "lat": 4.2876802, "lon": 42.8600819}, {"type": "node", "id": 348404706, "lat": 4.2797954, "lon": 42.848558}, {"type": "node", "id": 348404707, "lat": 4.2710008, "lon": 42.8324851}, {"type": "node", "id": 348404709, "lat": 4.2667552, "lon": 42.8249036}, {"type": "node", "id": 348404711, "lat": 4.2652389, "lon": 42.8155025}, {"type": "node", "id": 348404713, "lat": 4.2646324, "lon": 42.7606121}, {"type": "node", "id": 348404715, "lat": 4.2643291, "lon": 42.7357447}, {"type": "node", "id": 348404717, "lat": 4.2628128, "lon": 42.7184588}, {"type": "node", "id": 348404720, "lat": 4.2603867, "lon": 42.7029924}, {"type": "node", "id": 348404722, "lat": 4.2543215, "lon": 42.6829772}, {"type": "node", "id": 348404724, "lat": 4.2494693, "lon": 42.6690272}, {"type": "node", "id": 348404727, "lat": 4.2349127, "lon": 42.637488}, {"type": "node", "id": 348404729, "lat": 4.2158072, "lon": 42.5868433}, {"type": "node", "id": 348404731, "lat": 4.2121681, "lon": 42.5719835}, {"type": "node", "id": 348404733, "lat": 4.2067094, "lon": 42.554091}, {"type": "node", "id": 348404735, "lat": 4.2024637, "lon": 42.5255844}, {"type": "node", "id": 348404737, "lat": 4.2030703, "lon": 42.494955}, {"type": "node", "id": 348404739, "lat": 4.202767, "lon": 42.4746365}, {"type": "node", "id": 348404741, "lat": 4.1930626, "lon": 42.4042798}, {"type": "node", "id": 348404743, "lat": 4.1894235, "lon": 42.3700113}, {"type": "node", "id": 348404746, "lat": 4.1821452, "lon": 42.2517393}, {"type": "node", "id": 348404748, "lat": 4.1791126, "lon": 42.1941196}, {"type": "node", "id": 348404750, "lat": 4.1791126, "lon": 42.0873715}, {"type": "node", "id": 348404753, "lat": 4.1750392, "lon": 42.0796541}, {"type": "node", "id": 348404755, "lat": 4.1677415, "lon": 42.0689405}, {"type": "node", "id": 348404757, "lat": 4.1612202, "lon": 42.0607112}, {"type": "node", "id": 348404759, "lat": 4.1506618, "lon": 42.0504634}, {"type": "node", "id": 348404762, "lat": 4.1310978, "lon": 42.0343153}, {"type": "node", "id": 348404764, "lat": 4.101286, "lon": 42.008851}, {"type": "node", "id": 348404765, "lat": 4.0935225, "lon": 42.0003112}, {"type": "node", "id": 348404766, "lat": 4.0953857, "lon": 41.978884}, {"type": "node", "id": 348404767, "lat": 4.0812562, "lon": 41.9743811}, {"type": "node", "id": 348404768, "lat": 4.0795482, "lon": 41.9717415}, {"type": "node", "id": 348404769, "lat": 4.0798945, "lon": 41.9668584}, {"type": "node", "id": 348404770, "lat": 4.0554814, "lon": 41.9462773}, {"type": "node", "id": 348404774, "lat": 4.0444572, "lon": 41.9459667}, {"type": "node", "id": 348404776, "lat": 4.0281539, "lon": 41.9487616}, {"type": "node", "id": 348404777, "lat": 4.0166639, "lon": 41.9430166}, {"type": "node", "id": 348404779, "lat": 4.0022238, "lon": 41.9262475}, {"type": "node", "id": 348404781, "lat": 3.9952522, "lon": 41.9219223}, {"type": "node", "id": 348404783, "lat": 3.9914027, "lon": 41.912052}, {"type": "node", "id": 348404785, "lat": 3.9826897, "lon": 41.9073271}, {"type": "node", "id": 348404788, "lat": 3.9826836, "lon": 41.9067502}, {"type": "node", "id": 348404793, "lat": 3.9362341, "lon": 41.8725241}, {"type": "node", "id": 348404795, "lat": 3.918873, "lon": 41.8574597}, {"type": "node", "id": 348404799, "lat": 3.8735044, "lon": 41.829641}, {"type": "node", "id": 348520903, "lat": 3.5245883, "lon": 41.5749254}, {"type": "node", "id": 348520916, "lat": 3.355146, "lon": 41.4578561}, {"type": "node", "id": 348520932, "lat": 3.715596, "lon": 41.7166407}, {"type": "node", "id": 348520945, "lat": 2.9854537, "lon": 41.1466985}, {"type": "node", "id": 348521017, "lat": 0.9305275, "lon": 40.9946012}, {"type": "node", "id": 348521030, "lat": 0.1819857, "lon": 40.994148}, {"type": "node", "id": 348521059, "lat": -0.9948997, "lon": 41.11281}, {"type": "node", "id": 348521068, "lat": -1.2165809, "lon": 41.2767301}, {"type": "node", "id": 348521080, "lat": -1.4168646, "lon": 41.4250699}, {"type": "node", "id": 357059272, "lat": 0.5163514, "lon": 40.9944436}, {"type": "node", "id": 357060538, "lat": 2.1762583, "lon": 40.9915471}, {"type": "node", "id": 377819849, "lat": 3.9327414, "lon": 41.8705576}, {"type": "node", "id": 424317039, "lat": 8.3676771, "lon": 49.083416, "tags": {"ISO3166-1:alpha2": "SO", "alt_name:eo": "Somalujo", "capital_city": "Mogadishu", "country_code_fips": "SO", "name": "\u0627\u0644\u0635\u0648\u0645\u0627\u0644", "name:ace": "Somalia", "name:af": "Somali\u00eb", "name:ak": "Somalia", "name:als": "Somalia", "name:am": "\u1231\u121b\u120c", "name:an": "Somalia", "name:ang": "S\u014dmalia", "name:ar": "\u0627\u0644\u0635\u0648\u0645\u0627\u0644", "name:arz": "\u0627\u0644\u0635\u0648\u0645\u0627\u0644", "name:ast": "Somalia", "name:az": "Somaliya", "name:ba": "\u0421\u043e\u043c\u0430\u043b\u0438", "name:bat-smg": "Suomalis", "name:bcl": "Somalya", "name:be": "\u0421\u0430\u043c\u0430\u043b\u0456", "name:be-tarask": "\u0421\u0430\u043c\u0430\u043b\u0456", "name:bg": "\u0421\u043e\u043c\u0430\u043b\u0438\u044f", "name:bjn": "Somalia", "name:bm": "Somali", "name:bn": "\u09b8\u09cb\u09ae\u09be\u09b2\u09bf", "name:bo": "\u0f66\u0f7c\u0f0b\u0f58\u0f71\u0f63\u0f72\u0f0b\u0f61\u0f0d", "name:bpy": "\u09b8\u09cb\u09ae\u09be\u09b2\u09bf\u09af\u09bc\u09be", "name:br": "Somalia", "name:bs": "Somalija", "name:bxr": "\u0421\u043e\u043c\u0430\u043b\u0438", "name:ca": "Som\u00e0lia", "name:ce": "\u0421\u043e\u043c\u0430\u043b\u0438", "name:ceb": "Somalia", "name:ckb": "\u0633\u06c6\u0645\u0627\u06b5\u06cc\u0627", "name:crh": "Somaliya", "name:cs": "Som\u00e1lsko", "name:cy": "Somalia", "name:da": "Somalia", "name:de": "Somalia", "name:diq": "Somalya", "name:dsb": "Somalija", "name:dv": "\u0790\u07af\u0789\u07a7\u078d\u07a8\u0787\u07a7", "name:dz": "\u0f66\u0f7c\u0f0b\u0f58\u0f0b\u0f63\u0f72\u0f0b\u0f61", "name:ee": "Somalia nutome", "name:el": "\u03a3\u03bf\u03bc\u03b1\u03bb\u03af\u03b1", "name:en": "Somalia", "name:eo": "Somalio", "name:es": "Somalia", "name:et": "Somaalia", "name:eu": "Somalia", "name:ext": "Som\u00e1lia", "name:fa": "\u0633\u0648\u0645\u0627\u0644\u06cc", "name:ff": "Somalii", "name:fi": "Somalia", "name:fo": "Somalia", "name:fr": "Somalie", "name:frp": "Somalie", "name:fur": "Somalie", "name:fy": "Somaalje", "name:ga": "An tSom\u00e1il", "name:gag": "Somali", "name:gd": "Som\u00e0ilia", "name:gl": "Somalia", "name:gu": "\u0ab8\u0acb\u0aae\u0abe\u0ab2\u0abf\u0aaf\u0abe", "name:gv": "Yn Tomaal", "name:ha": "Somaliya", "name:haw": "Somalia", "name:he": "\u05e1\u05d5\u05de\u05dc\u05d9\u05d4", "name:hi": "\u0938\u094b\u092e\u093e\u0932\u093f\u092f\u093e", "name:hif": "Somalia", "name:hr": "Somalija", "name:hsb": "Somalija", "name:ht": "Somali", "name:hu": "Szom\u00e1lia", "name:hy": "\u054d\u0578\u0574\u0561\u056c\u056b", "name:ia": "Somalia", "name:id": "Somalia", "name:ie": "Somalia", "name:ilo": "Somalia", "name:io": "Somalia", "name:is": "S\u00f3mal\u00eda", "name:it": "Somalia", "name:ja": "\u30bd\u30de\u30ea\u30a2", "name:jbo": "somalias", "name:jv": "Somalia", "name:ka": "\u10e1\u10dd\u10db\u10d0\u10da\u10d8", "name:kab": "\u1e62umal", "name:kg": "S\u00f4m\u00e2lia", "name:ki": "Somaria", "name:kk": "\u0421\u043e\u043c\u0430\u043b\u0438", "name:kl": "Somalia", "name:km": "\u179f\u17bc\u1798\u17c9\u17b6\u179b\u17b8", "name:kn": "\u0cb8\u0cca\u0cae\u0cbe\u0cb2\u0cbf\u0caf\u0cbe", "name:ko": "\uc18c\ub9d0\ub9ac\uc544", "name:ks": "\u0633\u0648\u0645\u0627\u0644\u0650\u06cc\u0627", "name:ksh": "Somaalije", "name:ku": "Somalya", "name:kw": "Somali", "name:la": "Somalia", "name:lb": "Somalia", "name:lfn": "Somalia", "name:lg": "Somaliya", "name:li": "Somali\u00eb", "name:lij": "Somalia", "name:lmo": "Sumalia", "name:ln": "Somali", "name:lo": "\u0ec2\u0e8a\u0ea1\u0eb2\u0ec0\u0ea5\u0e8d", "name:lt": "Somalis", "name:lv": "Som\u0101lija", "name:lzh": "\u7d22\u99ac\u91cc", "name:mg": "Somalia", "name:mhr": "\u0421\u043e\u043c\u0430\u043b\u0438", "name:mi": "H\u016bm\u0101rie", "name:mk": "\u0421\u043e\u043c\u0430\u043b\u0438\u0458\u0430", "name:ml": "\u0d38\u0d4b\u0d2e\u0d3e\u0d32\u0d3f\u0d2f", "name:mn": "\u0421\u043e\u043c\u0430\u043b\u0438", "name:mr": "\u0938\u094b\u092e\u093e\u0932\u093f\u092f\u093e", "name:ms": "Somalia", "name:mt": "Somalja", "name:my": "\u1006\u102d\u102f\u1019\u102c\u101c\u102e\u101a\u102c", "name:na": "Tomariya", "name:nah": "Somalia", "name:nan": "Somalia", "name:nds": "Somalia", "name:ne": "\u0938\u094b\u092e\u093e\u0932\u093f\u092f\u093e", "name:new": "\u0938\u094b\u092e\u093e\u0932\u093f\u092f\u093e", "name:nl": "Somali\u00eb", "name:nn": "Somalia", "name:no": "Somalia", "name:nov": "Somalia", "name:nso": "Somalia", "name:nv": "Soom\u00e1\u00e1lii Bik\u00e9yah", "name:oc": "Somalia", "name:om": "Somaaliyaa", "name:or": "\u0b38\u0b4b\u0b2e\u0b3e\u0b32\u0b3f\u0b06", "name:os": "\u0421\u043e\u043c\u0430\u043b\u0438", "name:pa": "\u0a38\u0a4b\u0a2e\u0a3e\u0a32\u0a40\u0a06", "name:pam": "Somalia", "name:pap": "Somalia", "name:pdc": "Somaali", "name:pl": "Somalia", "name:pms": "Somalia", "name:pnb": "\u0635\u0648\u0645\u0627\u0644\u06cc\u06c1", "name:ps": "\u0633\u0648\u0645\u0627\u0644\u06cc\u0627", "name:pt": "Som\u00e1lia", "name:qu": "Sumalya", "name:rm": "Somalia", "name:rn": "Somaliya", "name:ro": "Somalia", "name:ru": "\u0421\u043e\u043c\u0430\u043b\u0438", "name:rw": "Somaliya", "name:sa": "\u0938\u094b\u092e\u093e\u0932\u093f\u092f\u093e", "name:sah": "\u0421\u043e\u043c\u0430\u043b\u0438\u044f", "name:sc": "Som\u00e0lia", "name:scn": "Somalia", "name:sco": "Somalie", "name:se": "Som\u00e1lia", "name:sg": "Somal\u00efi", "name:sh": "Somalija", "name:si": "\u0dc3\u0ddd\u0db8\u0dcf\u0dbd\u0dd2\u0dba\u0dcf\u0dc0", "name:sk": "Som\u00e1lsko", "name:sl": "Somalija", "name:sm": "Somalia", "name:smn": "Somalia", "name:sms": "Somalia", "name:sn": "Somalia", "name:so": "Soomaaliya", "name:so-Osma": "\ud801\udc88\ud801\udc9d\ud801\udc91\ud801\udc9b\ud801\udc90\ud801\udc98\ud801\udc95\ud801\udc96", "name:sq": "Somali", "name:sr": "\u0421\u043e\u043c\u0430\u043b\u0438\u0458\u0430", "name:ss": "ISomaliya", "name:st": "Somalia", "name:stq": "Somalia", "name:su": "Somalia", "name:sv": "Somalia", "name:sw": "Somalia", "name:szl": "S\u016fmalijo", "name:ta": "\u0b9a\u0bca\u0bae\u0bbe\u0bb2\u0bbf\u0baf\u0bbe", "name:te": "\u0c38\u0c4b\u0c2e\u0c3e\u0c32\u0c3f\u0c2f\u0c3e", "name:tg": "\u0421\u043e\u043c\u0430\u043b\u0438", "name:th": "\u0e1b\u0e23\u0e30\u0e40\u0e17\u0e28\u0e42\u0e0b\u0e21\u0e32\u0e40\u0e25\u0e35\u0e22", "name:ti": "\u1231\u121b\u120c", "name:tk": "Somali", "name:tl": "Somalya", "name:to": "S\u014dmalia", "name:tok": "ma Somalija", "name:tr": "Somali", "name:ts": "Somalia", "name:tt": "\u0421\u043e\u043c\u0430\u043b\u0438", "name:tzl": "Somalia", "name:ug": "\u0633\u0648\u0645\u0627\u0644\u0649", "name:uk": "\u0421\u043e\u043c\u0430\u043b\u0456", "name:ur": "\u0635\u0648\u0645\u0627\u0644\u06cc\u06c1", "name:uz": "Somali", "name:vec": "Soma\u0142ia", "name:vi": "Somalia", "name:vo": "Somal\u00e4n", "name:vro": "Somaalia", "name:war": "Somalia", "name:wo": "Somali", "name:wuu": "\u7d22\u9a6c\u91cc", "name:xal": "\u0421\u043e\u043c\u0430\u043b\u043c\u0443\u0434\u0438\u043d \u041e\u0440\u043d", "name:yi": "\u05e1\u05d0\u05de\u05d0\u05dc\u05d9\u05e2", "name:yo": "Or\u00edl\u1eb9\u0301\u00e8de Somalia", "name:yue": "\u7d22\u99ac\u91cc", "name:zh": "\u7d22\u9a6c\u91cc / \u7d22\u99ac\u5229\u4e9e", "name:zh-Hans": "\u7d22\u9a6c\u91cc", "name:zh-Hant": "\u7d22\u99ac\u5229\u4e9e", "name:zh_pinyin": "Su\u01d2m\u01cel\u01d0", "name:zu": "i-Somalia", "official_name": "Somali Republic", "official_name:ar": "\u062c\u0645\u0647\u0648\u0631\u064a\u0629 \u0627\u0644\u0635\u0648\u0645\u0627\u0644", "official_name:be": "\u0421\u0430\u043c\u0430\u043b\u0456\u0439\u0441\u043a\u0430\u044f \u0420\u044d\u0441\u043f\u0443\u0431\u043b\u0456\u043a\u0430", "official_name:br": "Republik Somalia", "official_name:el": "\u0394\u03b7\u03bc\u03bf\u03ba\u03c1\u03b1\u03c4\u03af\u03b1 \u03c4\u03b7\u03c2 \u03a3\u03bf\u03bc\u03b1\u03bb\u03af\u03b1\u03c2", "official_name:en": "Somali Republic", "official_name:eo": "Somala Demokratia Respubliko", "official_name:et": "Somaalia Vabariik", "official_name:fr": "R\u00e9publique de Somalie", "official_name:ku": "Komara Somalyay\u00ea", "official_name:lb": "Republik Somalia", "official_name:lt": "Somalio Respublika", "official_name:pt": "Rep\u00fablica Somali", "official_name:ru": "\u0421\u043e\u043c\u0430\u043b\u0438\u0439\u0441\u043a\u0430\u044f \u0420\u0435\u0441\u043f\u0443\u0431\u043b\u0438\u043a\u0430", "official_name:so": "Jamhuuriyadda Soomaaliya", "official_name:sv": "Republiken Somalia", "official_name:tl": "Republika ng Somalya", "official_name:vi": "C\u1ed9ng h\u00f2a Somalia", "place": "country", "population": "9558666", "source:sqkm": "CIA World Factbook", "sqkm": "637657", "wikidata": "Q1045", "wikipedia": "en:Somalia"}}, {"type": "node", "id": 1406047774, "lat": -0.1996903, "lon": 40.9933795}, {"type": "node", "id": 1406050160, "lat": 1.2307847, "lon": 40.9932585}, {"type": "node", "id": 1406050869, "lat": 10.318312, "lon": 42.8177444}, {"type": "node", "id": 1406055785, "lat": 2.3099944, "lon": 40.9903722}, {"type": "node", "id": 1406056079, "lat": 3.1398136, "lon": 41.3105422}, {"type": "node", "id": 1406056280, "lat": 3.8900001, "lon": 46.3899994}, {"type": "node", "id": 1406056281, "lat": 3.9105664, "lon": 41.8587037}, {"type": "node", "id": 1406056319, "lat": 4.1927315, "lon": 42.4011624}, {"type": "node", "id": 1406056331, "lat": 4.23, "lon": 46.4000015}, {"type": "node", "id": 1406056332, "lat": 4.2333331, "lon": 46.3958397}, {"type": "node", "id": 1406056341, "lat": 4.3069829, "lon": 42.8841549}, {"type": "node", "id": 1406056378, "lat": 4.4299998, "lon": 46.1500015}, {"type": "node", "id": 1406056380, "lat": 4.451437, "lon": 47.5811806}, {"type": "node", "id": 1406056386, "lat": 4.4899998, "lon": 47.5}, {"type": "node", "id": 1406056388, "lat": 4.4939079, "lon": 47.5006104}, {"type": "node", "id": 1406056407, "lat": 4.633388, "lon": 43.1266094}, {"type": "node", "id": 1406056416, "lat": 4.7399998, "lon": 46.1100006}, {"type": "node", "id": 1406056430, "lat": 4.9319746, "lon": 44.5895692}, {"type": "node", "id": 1406056431, "lat": 4.9400001, "lon": 46.2099991}, {"type": "node", "id": 1406056445, "lat": 5.0300002, "lon": 46.0400009}, {"type": "node", "id": 1406056447, "lat": 5.04, "lon": 48.2200012}, {"type": "node", "id": 1406056452, "lat": 5.0718708, "lon": 46.2288399}, {"type": "node", "id": 1406056453, "lat": 5.0799999, "lon": 46.2299995}, {"type": "node", "id": 1406056456, "lat": 5.1100001, "lon": 45.7099991}, {"type": "node", "id": 1406056469, "lat": 5.1780889, "lon": 45.658802}, {"type": "node", "id": 1406056470, "lat": 5.1817941, "lon": 45.6569519}, {"type": "node", "id": 1406056471, "lat": 5.1900001, "lon": 47.6100006}, {"type": "node", "id": 1406056473, "lat": 5.198132, "lon": 47.6070099}, {"type": "node", "id": 1406056474, "lat": 5.1999998, "lon": 47.6399994}, {"type": "node", "id": 1406056501, "lat": 5.5363816, "lon": 45.4109297}, {"type": "node", "id": 1406056513, "lat": 5.5700002, "lon": 47.4700012}, {"type": "node", "id": 1406056524, "lat": 5.7515678, "lon": 47.3507385}, {"type": "node", "id": 1406056566, "lat": 6.2800002, "lon": 47.5999985}, {"type": "node", "id": 1406056577, "lat": 6.5203314, "lon": 46.5110781}, {"type": "node", "id": 1406056578, "lat": 6.5165248, "lon": 46.5403709}, {"type": "node", "id": 1406056579, "lat": 6.5305194, "lon": 46.5214741}, {"type": "node", "id": 1406056586, "lat": 6.6100001, "lon": 47.6899986}, {"type": "node", "id": 1406056589, "lat": 6.6300001, "lon": 48.6699982}, {"type": "node", "id": 1406056608, "lat": 6.7399998, "lon": 48.4900017}, {"type": "node", "id": 1406056614, "lat": 6.77, "lon": 47.8899994}, {"type": "node", "id": 1406056641, "lat": 6.9077268, "lon": 46.8728619}, {"type": "node", "id": 1406056699, "lat": 7.3826211, "lon": 47.337517}, {"type": "node", "id": 1406056714, "lat": 7.4099998, "lon": 48.5}, {"type": "node", "id": 1406056718, "lat": 7.4272199, "lon": 48.5304184}, {"type": "node", "id": 1406056739, "lat": 7.5594931, "lon": 47.56567}, {"type": "node", "id": 1406056743, "lat": 7.5607128, "lon": 47.5580406}, {"type": "node", "id": 1406056776, "lat": 7.5609488, "lon": 47.557065}, {"type": "node", "id": 1406056777, "lat": 7.5700002, "lon": 49.5}, {"type": "node", "id": 1406056779, "lat": 7.5799999, "lon": 49.4399986}, {"type": "node", "id": 1406056800, "lat": 7.6631718, "lon": 49.2667198}, {"type": "node", "id": 1406056817, "lat": 7.6999998, "lon": 49.1899986}, {"type": "node", "id": 1406056819, "lat": 7.7087212, "lon": 49.0504608}, {"type": "node", "id": 1406056821, "lat": 7.71, "lon": 49.0299988}, {"type": "node", "id": 1406056924, "lat": 8.0, "lon": 47.9199982}, {"type": "node", "id": 1406056938, "lat": 8.0007395, "lon": 47.0118848}, {"type": "node", "id": 1406057002, "lat": 8.2543942, "lon": 46.250015}, {"type": "node", "id": 1406057145, "lat": 8.57202, "lon": 45.2900009}, {"type": "node", "id": 1406057222, "lat": 8.7725346, "lon": 44.6899986}, {"type": "node", "id": 1406057394, "lat": 9.3705978, "lon": 43.5634661}, {"type": "node", "id": 1406057474, "lat": 9.6736703, "lon": 43.2862243}, {"type": "node", "id": 1406152711, "lat": 3.4716699, "lon": 47.0357057}, {"type": "node", "id": 1406152712, "lat": 4.3348667, "lon": 47.8265911}, {"type": "node", "id": 1406152713, "lat": 5.0284891, "lon": 48.2890987}, {"type": "node", "id": 1406152714, "lat": 6.6004803, "lon": 49.1521443}, {"type": "node", "id": 1406152715, "lat": 7.4023799, "lon": 49.6458303}, {"type": "node", "id": 1699639864, "lat": -0.3743405, "lon": 42.7983767}, {"type": "node", "id": 1699639867, "lat": -0.4258131, "lon": 42.770365}, {"type": "node", "id": 1699639870, "lat": -0.6304797, "lon": 42.6206784}, {"type": "node", "id": 1699639871, "lat": -0.8535777, "lon": 42.4415768}, {"type": "node", "id": 1699639872, "lat": -1.0921596, "lon": 42.2435511}, {"type": "node", "id": 1699639873, "lat": -1.3155361, "lon": 42.063424}, {"type": "node", "id": 1699639875, "lat": -1.4638518, "lon": 41.9473452}, {"type": "node", "id": 1699639892, "lat": -1.6748551, "lon": 41.8097712}, {"type": "node", "id": 1699639895, "lat": -1.7770316, "lon": 41.7410207}, {"type": "node", "id": 1699639898, "lat": -1.801007, "lon": 41.7207156}, {"type": "node", "id": 1699640044, "lat": 0.1529078, "lon": 43.3020598}, {"type": "node", "id": 1699640045, "lat": 0.4793006, "lon": 43.6037395}, {"type": "node", "id": 1699640046, "lat": 0.984148, "lon": 44.1982834}, {"type": "node", "id": 1699640055, "lat": 1.4692169, "lon": 44.7742761}, {"type": "node", "id": 1699640058, "lat": 1.7142782, "lon": 45.1586965}, {"type": "node", "id": 1699640062, "lat": 10.02795, "lon": 51.1015246}, {"type": "node", "id": 1699640065, "lat": 10.1706648, "lon": 51.1071845}, {"type": "node", "id": 1699640067, "lat": 10.1722102, "lon": 51.2702762}, {"type": "node", "id": 1699640071, "lat": 10.1646716, "lon": 51.4009361}, {"type": "node", "id": 1699640072, "lat": 10.202838, "lon": 51.1073798}, {"type": "node", "id": 1699640074, "lat": 10.1954141, "lon": 51.1830853}, {"type": "node", "id": 1699640076, "lat": 10.2549337, "lon": 51.5465299}, {"type": "node", "id": 1699640078, "lat": 10.3524807, "lon": 51.598219}, {"type": "node", "id": 1699640080, "lat": 10.4605553, "lon": 51.6177679}, {"type": "node", "id": 1699640093, "lat": 10.573057, "lon": 51.5706236}, {"type": "node", "id": 1699640095, "lat": 10.6508957, "lon": 51.4952443}, {"type": "node", "id": 1699640097, "lat": 10.6015644, "lon": 44.441785}, {"type": "node", "id": 1699640099, "lat": 10.6194082, "lon": 44.7469278}, {"type": "node", "id": 1699640103, "lat": 10.6830653, "lon": 51.3488767}, {"type": "node", "id": 1699640107, "lat": 10.6958665, "lon": 45.014347}, {"type": "node", "id": 1699640111, "lat": 10.7219365, "lon": 44.2435602}, {"type": "node", "id": 1699640115, "lat": 10.7509625, "lon": 45.1285681}, {"type": "node", "id": 1699640119, "lat": 10.8612964, "lon": 45.3893634}, {"type": "node", "id": 1699640124, "lat": 10.8918763, "lon": 46.4278053}, {"type": "node", "id": 1699640127, "lat": 10.8358099, "lon": 44.088006}, {"type": "node", "id": 1699640129, "lat": 10.8428285, "lon": 45.2347888}, {"type": "node", "id": 1699640132, "lat": 10.9006207, "lon": 51.3259815}, {"type": "node", "id": 1699640137, "lat": 10.9594412, "lon": 45.5497411}, {"type": "node", "id": 1699640140, "lat": 10.9576629, "lon": 46.337605}, {"type": "node", "id": 1699640143, "lat": 10.9938448, "lon": 46.0137566}, {"type": "node", "id": 1699640145, "lat": 10.9813261, "lon": 46.2665595}, {"type": "node", "id": 1699640148, "lat": 11.003534, "lon": 46.7117701}, {"type": "node", "id": 1699640152, "lat": 11.0519555, "lon": 45.7145201}, {"type": "node", "id": 1699640154, "lat": 11.0585077, "lon": 45.8721447}, {"type": "node", "id": 1699640156, "lat": 11.0696387, "lon": 45.8059172}, {"type": "node", "id": 1699640167, "lat": 11.0873305, "lon": 43.8353098}, {"type": "node", "id": 1699640168, "lat": 11.0813173, "lon": 51.3768157}, {"type": "node", "id": 1699640170, "lat": 11.1119697, "lon": 46.875602}, {"type": "node", "id": 1699640172, "lat": 11.1432524, "lon": 51.3865363}, {"type": "node", "id": 1699640174, "lat": 11.2356643, "lon": 51.3641362}, {"type": "node", "id": 1699640176, "lat": 11.2269844, "lon": 47.0318657}, {"type": "node", "id": 1699640178, "lat": 11.2360007, "lon": 43.7500758}, {"type": "node", "id": 1699640179, "lat": 11.3078071, "lon": 51.3079013}, {"type": "node", "id": 1699640183, "lat": 11.3203629, "lon": 47.7641409}, {"type": "node", "id": 1699640186, "lat": 11.3296489, "lon": 48.0739021}, {"type": "node", "id": 1699640197, "lat": 11.3781175, "lon": 48.1362096}, {"type": "node", "id": 1699640200, "lat": 11.3756183, "lon": 47.3865482}, {"type": "node", "id": 1699640202, "lat": 11.3773728, "lon": 47.4284524}, {"type": "node", "id": 1699640205, "lat": 11.3741214, "lon": 47.5935746}, {"type": "node", "id": 1699640208, "lat": 11.4135855, "lon": 43.707212}, {"type": "node", "id": 1699640212, "lat": 11.4564095, "lon": 48.9928726}, {"type": "node", "id": 1699640216, "lat": 11.4736195, "lon": 48.3318978}, {"type": "node", "id": 1699640219, "lat": 11.4145363, "lon": 51.3273676}, {"type": "node", "id": 1699640223, "lat": 11.4948217, "lon": 49.1779116}, {"type": "node", "id": 1699640228, "lat": 11.4598529, "lon": 51.3436068}, {"type": "node", "id": 1699640235, "lat": 11.5218895, "lon": 48.6164925}, {"type": "node", "id": 1699640238, "lat": 11.5170948, "lon": 48.7186536}, {"type": "node", "id": 1699640241, "lat": 11.5794863, "lon": 49.3997364}, {"type": "node", "id": 1699640249, "lat": 11.655417, "lon": 49.5547465}, {"type": "node", "id": 1699640253, "lat": 11.6269664, "lon": 51.453572}, {"type": "node", "id": 1699640257, "lat": 11.6495489, "lon": 43.6174565}, {"type": "node", "id": 1699640260, "lat": 11.6742468, "lon": 43.5895062}, {"type": "node", "id": 1699640262, "lat": 11.7130448, "lon": 49.9110749}, {"type": "node", "id": 1699640266, "lat": 11.8305812, "lon": 50.2856466}, {"type": "node", "id": 1699640268, "lat": 11.8586082, "lon": 51.490389}, {"type": "node", "id": 1699640280, "lat": 11.9129898, "lon": 51.4749873}, {"type": "node", "id": 1699640284, "lat": 11.9216557, "lon": 50.3477946}, {"type": "node", "id": 1699640286, "lat": 12.0153186, "lon": 51.3797198}, {"type": "node", "id": 1699640287, "lat": 12.0177268, "lon": 50.3998313}, {"type": "node", "id": 1699640288, "lat": 12.0726273, "lon": 51.1115419}, {"type": "node", "id": 1699640289, "lat": 12.0845202, "lon": 50.474946}, {"type": "node", "id": 1699640290, "lat": 12.1845219, "lon": 50.7330056}, {"type": "node", "id": 1699640291, "lat": 12.1693312, "lon": 50.8821544}, {"type": "node", "id": 1699640620, "lat": 1.8631586, "lon": 45.4591043}, {"type": "node", "id": 1699640625, "lat": 2.2681596, "lon": 46.1290082}, {"type": "node", "id": 1699640630, "lat": 2.6604788, "lon": 46.5137956}, {"type": "node", "id": 1699640755, "lat": 3.0599308, "lon": 46.9391843}, {"type": "node", "id": 1699640759, "lat": 3.5106261, "lon": 47.341459}, {"type": "node", "id": 1699640761, "lat": 3.8683209, "lon": 47.6830779}, {"type": "node", "id": 1699640765, "lat": 4.2057423, "lon": 47.9799969}, {"type": "node", "id": 1699640771, "lat": 4.4066666, "lon": 48.1561295}, {"type": "node", "id": 1699640792, "lat": 4.7988946, "lon": 48.376118}, {"type": "node", "id": 1699640794, "lat": 4.8254106, "lon": 48.396168}, {"type": "node", "id": 1699640797, "lat": 5.2046448, "lon": 48.6808274}, {"type": "node", "id": 1699640801, "lat": 5.2899489, "lon": 48.7401366}, {"type": "node", "id": 1699640804, "lat": 5.7787319, "lon": 49.0602989}, {"type": "node", "id": 1699640810, "lat": 6.1310974, "lon": 49.2362527}, {"type": "node", "id": 1699640813, "lat": 6.3858769, "lon": 49.2845494}, {"type": "node", "id": 1699640815, "lat": 6.8148883, "lon": 49.48649}, {"type": "node", "id": 1699640817, "lat": 6.9027104, "lon": 49.5403869}, {"type": "node", "id": 1699640819, "lat": 7.2226404, "lon": 49.7655761}, {"type": "node", "id": 1699640837, "lat": 7.3784879, "lon": 49.8666399}, {"type": "node", "id": 1699640843, "lat": 7.6486283, "lon": 50.0036266}, {"type": "node", "id": 1699640849, "lat": 7.7120426, "lon": 50.0231224}, {"type": "node", "id": 1699640850, "lat": 7.8520437, "lon": 50.0285925}, {"type": "node", "id": 1699640853, "lat": 7.9977558, "lon": 50.2115012}, {"type": "node", "id": 1699640854, "lat": 8.0920031, "lon": 50.3009415}, {"type": "node", "id": 1699640857, "lat": 8.1854558, "lon": 50.3365386}, {"type": "node", "id": 1699640860, "lat": 8.4154057, "lon": 50.4917261}, {"type": "node", "id": 1699640863, "lat": 8.4797775, "lon": 50.5212348}, {"type": "node", "id": 1699640869, "lat": 8.5838127, "lon": 50.548507}, {"type": "node", "id": 1699640873, "lat": 8.6694271, "lon": 50.5838963}, {"type": "node", "id": 1699640894, "lat": 8.8094674, "lon": 50.646097}, {"type": "node", "id": 1699640901, "lat": 8.9254029, "lon": 50.7777439}, {"type": "node", "id": 1699640905, "lat": 9.0609367, "lon": 50.8472149}, {"type": "node", "id": 1699640908, "lat": 9.0989134, "lon": 50.8526969}, {"type": "node", "id": 1699640912, "lat": 9.1234078, "lon": 50.8543164}, {"type": "node", "id": 1699640916, "lat": 9.2271102, "lon": 50.9447662}, {"type": "node", "id": 1699640918, "lat": 9.4290606, "lon": 51.0462964}, {"type": "node", "id": 1699640920, "lat": 9.5051422, "lon": 51.0457847}, {"type": "node", "id": 1699640923, "lat": 9.7923065, "lon": 51.0516044}, {"type": "node", "id": 1993732680, "lat": 4.8913633, "lon": 48.4375889}, {"type": "node", "id": 1993732683, "lat": 6.5176315, "lon": 49.3351839}, {"type": "node", "id": 1993732686, "lat": 7.2466037, "lon": 49.7834469}, {"type": "node", "id": 1993763772, "lat": 4.2304812, "lon": 48.0028532}, {"type": "node", "id": 1993934620, "lat": 2.3757911, "lon": 46.2475349}, {"type": "node", "id": 1993934625, "lat": 2.9503706, "lon": 46.8371194}, {"type": "node", "id": 1993934628, "lat": 3.2829152, "lon": 47.1301025}, {"type": "node", "id": 1994053672, "lat": 0.2055511, "lon": 43.3488687}, {"type": "node", "id": 1994053675, "lat": 1.2895722, "lon": 44.5391602}, {"type": "node", "id": 1994053679, "lat": 1.7430576, "lon": 45.2091149}, {"type": "node", "id": 2008857854, "lat": 11.4441268, "lon": 51.3303455}, {"type": "node", "id": 2008857871, "lat": 9.8210815, "lon": 51.0634138}, {"type": "node", "id": 2008931843, "lat": 11.0090972, "lon": 43.9018947}, {"type": "node", "id": 2008931849, "lat": 11.449776, "lon": 48.9622122}, {"type": "node", "id": 2008931854, "lat": 11.6563564, "lon": 49.5765894}, {"type": "node", "id": 2008966171, "lat": 10.9668764, "lon": 46.0829415}, {"type": "node", "id": 2008966173, "lat": 10.9778787, "lon": 46.6691253}, {"type": "node", "id": 2008966179, "lat": 11.3275495, "lon": 47.9208301}, {"type": "node", "id": 2208327708, "lat": 6.6507279, "lon": 48.3009945, "tags": {"name": "Mudug \u0645\u062f\u062c", "name:ar": "\u0645\u062f\u062c", "name:en": "Mudug", "name:fr": "Mudug", "name:ru": "\u041c\u0443\u0434\u0443\u0433", "place": "state", "ref": "MD", "state_code": "MD"}}, {"type": "node", "id": 2275588565, "lat": 0.4089016, "lon": 40.9945937}, {"type": "node", "id": 2470897771, "lat": 9.6031493, "lon": 43.3261344}, {"type": "node", "id": 2510206687, "lat": 4.1632355, "lon": 42.0630513}, {"type": "node", "id": 2510207485, "lat": 5.9593474, "lon": 45.8484755}, {"type": "node", "id": 2510212530, "lat": 8.4617456, "lon": 45.6262438}, {"type": "node", "id": 2533888087, "lat": 3.9267335, "lon": 41.8646962}, {"type": "node", "id": 2544755345, "lat": 0.4613428, "lon": 40.99466}, {"type": "node", "id": 2662892716, "lat": -1.6620659, "lon": 41.5593803}, {"type": "node", "id": 2672071006, "lat": 0.4091151, "lon": 40.9945892}, {"type": "node", "id": 2672071010, "lat": 0.4252811, "lon": 40.9946731}, {"type": "node", "id": 2672071012, "lat": 0.4395506, "lon": 40.9945798}, {"type": "node", "id": 2672071014, "lat": 0.4466644, "lon": 40.9945893}, {"type": "node", "id": 2672071016, "lat": 0.4514944, "lon": 40.9946001}, {"type": "node", "id": 2672071018, "lat": 0.4565404, "lon": 40.9949131}, {"type": "node", "id": 2672071019, "lat": 0.4579111, "lon": 40.9948969}, {"type": "node", "id": 3134138914, "lat": 1.0552856, "lon": 44.2817902}, {"type": "node", "id": 3134138915, "lat": 1.0732239, "lon": 44.2954378}, {"type": "node", "id": 3134138916, "lat": 1.0885433, "lon": 44.3040031}, {"type": "node", "id": 3134138917, "lat": 1.0914013, "lon": 44.309642}, {"type": "node", "id": 3134138918, "lat": 1.10928, "lon": 44.3345369}, {"type": "node", "id": 3134138919, "lat": 1.1307744, "lon": 44.3564289}, {"type": "node", "id": 3134138920, "lat": 1.154584, "lon": 44.377111}, {"type": "node", "id": 3134138921, "lat": 1.1580272, "lon": 44.3791399}, {"type": "node", "id": 3134138922, "lat": 1.1758644, "lon": 44.3999275}, {"type": "node", "id": 3134138923, "lat": 1.1952724, "lon": 44.4284769}, {"type": "node", "id": 3134138924, "lat": 1.2231609, "lon": 44.4563639}, {"type": "node", "id": 3134138925, "lat": 1.2313251, "lon": 44.4620169}, {"type": "node", "id": 3134138926, "lat": 1.2453328, "lon": 44.4838481}, {"type": "node", "id": 3134138927, "lat": 1.2785284, "lon": 44.5222412}, {"type": "node", "id": 3134138928, "lat": 1.3857399, "lon": 44.661028}, {"type": "node", "id": 3134138958, "lat": -0.0302006, "lon": 43.1329249}, {"type": "node", "id": 3134138959, "lat": -0.102117, "lon": 43.0686737}, {"type": "node", "id": 3134138960, "lat": -0.1476108, "lon": 43.0259781}, {"type": "node", "id": 3134138961, "lat": -0.291591, "lon": 42.8821367}, {"type": "node", "id": 3134138962, "lat": -0.3315795, "lon": 42.8397009}, {"type": "node", "id": 3134138963, "lat": -0.3896709, "lon": 42.7812538}, {"type": "node", "id": 3134138964, "lat": -0.4010153, "lon": 42.7785436}, {"type": "node", "id": 3134138965, "lat": -0.460542, "lon": 42.7519284}, {"type": "node", "id": 3134138966, "lat": -0.4909826, "lon": 42.7271167}, {"type": "node", "id": 3134138967, "lat": -0.4986204, "lon": 42.7181423}, {"type": "node", "id": 3134138968, "lat": -0.5039136, "lon": 42.7144795}, {"type": "node", "id": 3134138969, "lat": -0.5239763, "lon": 42.6966366}, {"type": "node", "id": 3134138970, "lat": -0.5348834, "lon": 42.6851029}, {"type": "node", "id": 3134138971, "lat": -0.5581372, "lon": 42.6708163}, {"type": "node", "id": 3134138972, "lat": -0.5744282, "lon": 42.657599}, {"type": "node", "id": 3134138973, "lat": -0.5847502, "lon": 42.6472013}, {"type": "node", "id": 3134138974, "lat": -0.5893607, "lon": 42.6447511}, {"type": "node", "id": 3134138975, "lat": -0.6063835, "lon": 42.6308684}, {"type": "node", "id": 3134138976, "lat": -0.6581622, "lon": 42.6040134}, {"type": "node", "id": 3134138977, "lat": -0.6827902, "lon": 42.583148}, {"type": "node", "id": 3134138978, "lat": -0.704258, "lon": 42.5593988}, {"type": "node", "id": 3134138979, "lat": -0.7237729, "lon": 42.5288305}, {"type": "node", "id": 3134138980, "lat": -0.7508412, "lon": 42.513375}, {"type": "node", "id": 3134138981, "lat": -0.7714955, "lon": 42.4994426}, {"type": "node", "id": 3134138982, "lat": -0.7894979, "lon": 42.4910491}, {"type": "node", "id": 3134138983, "lat": -0.8191112, "lon": 42.4704702}, {"type": "node", "id": 3134138984, "lat": -0.8735636, "lon": 42.4230037}, {"type": "node", "id": 3134138985, "lat": -0.8806888, "lon": 42.4186029}, {"type": "node", "id": 3134138986, "lat": -0.9167871, "lon": 42.389188}, {"type": "node", "id": 3134138987, "lat": -0.9274878, "lon": 42.3816125}, {"type": "node", "id": 3134138988, "lat": -0.9493068, "lon": 42.3623779}, {"type": "node", "id": 3134138989, "lat": -0.9603586, "lon": 42.3505487}, {"type": "node", "id": 3134138990, "lat": -0.9852124, "lon": 42.3316642}, {"type": "node", "id": 3134138991, "lat": -1.0036577, "lon": 42.3123}, {"type": "node", "id": 3134138992, "lat": -1.0115727, "lon": 42.3069849}, {"type": "node", "id": 3134138993, "lat": -1.0332829, "lon": 42.2892346}, {"type": "node", "id": 3134138994, "lat": -1.0438581, "lon": 42.2840944}, {"type": "node", "id": 3134138995, "lat": -1.0780718, "lon": 42.2579708}, {"type": "node", "id": 3134138996, "lat": -1.1140812, "lon": 42.225889}, {"type": "node", "id": 3134138997, "lat": -1.1383789, "lon": 42.1979194}, {"type": "node", "id": 3134138998, "lat": -1.1482949, "lon": 42.1913138}, {"type": "node", "id": 3134138999, "lat": -1.1651374, "lon": 42.1770185}, {"type": "node", "id": 3134139000, "lat": -1.2025626, "lon": 42.1553223}, {"type": "node", "id": 3134139001, "lat": -1.2270581, "lon": 42.1340897}, {"type": "node", "id": 3134139002, "lat": -1.2366564, "lon": 42.1239721}, {"type": "node", "id": 3134139003, "lat": -1.2599148, "lon": 42.1095411}, {"type": "node", "id": 3134139004, "lat": -1.2886062, "lon": 42.08962}, {"type": "node", "id": 3134139005, "lat": -1.3391666, "lon": 42.0456024}, {"type": "node", "id": 3134139006, "lat": -1.3522879, "lon": 42.0336773}, {"type": "node", "id": 3134139007, "lat": -1.370489, "lon": 42.0150351}, {"type": "node", "id": 3134139008, "lat": -1.3842227, "lon": 41.9964502}, {"type": "node", "id": 3134139009, "lat": -1.3938478, "lon": 41.9906057}, {"type": "node", "id": 3134139010, "lat": -1.4146715, "lon": 41.9740157}, {"type": "node", "id": 3134139011, "lat": -1.4315906, "lon": 41.9670743}, {"type": "node", "id": 3134139012, "lat": -1.4845895, "lon": 41.9315536}, {"type": "node", "id": 3134139013, "lat": -1.496994, "lon": 41.9240361}, {"type": "node", "id": 3134139014, "lat": -1.5137406, "lon": 41.9094993}, {"type": "node", "id": 3134139015, "lat": -1.5266701, "lon": 41.9012037}, {"type": "node", "id": 3134139016, "lat": -1.5315684, "lon": 41.8967717}, {"type": "node", "id": 3134139017, "lat": -1.5708955, "lon": 41.8781081}, {"type": "node", "id": 3134139018, "lat": -1.5863346, "lon": 41.8687495}, {"type": "node", "id": 3134139019, "lat": -1.6130448, "lon": 41.8476352}, {"type": "node", "id": 3134139020, "lat": -1.6230701, "lon": 41.836471}, {"type": "node", "id": 3134139021, "lat": -1.6356211, "lon": 41.8322675}, {"type": "node", "id": 3134139022, "lat": -1.6624703, "lon": 41.818674}, {"type": "node", "id": 3134139023, "lat": -1.7042362, "lon": 41.7925688}, {"type": "node", "id": 3134139024, "lat": -1.7391133, "lon": 41.7677781}, {"type": "node", "id": 3134139025, "lat": -1.7520917, "lon": 41.7597129}, {"type": "node", "id": 3134139026, "lat": -1.8031969, "lon": 41.718166}, {"type": "node", "id": 3134139027, "lat": 0.0976963, "lon": 43.2525896}, {"type": "node", "id": 3134139028, "lat": 0.1281505, "lon": 43.278178}, {"type": "node", "id": 3134140337, "lat": 11.8224723, "lon": 50.2719735}, {"type": "node", "id": 3134140339, "lat": 11.8283699, "lon": 51.4924288}, {"type": "node", "id": 3134140344, "lat": 11.8444533, "lon": 50.3159045}, {"type": "node", "id": 3134140346, "lat": 11.84692, "lon": 50.323235}, {"type": "node", "id": 3134140347, "lat": 11.8491255, "lon": 50.325443}, {"type": "node", "id": 3134140350, "lat": 11.8780643, "lon": 50.3360103}, {"type": "node", "id": 3134140351, "lat": 11.8862643, "lon": 51.4846478}, {"type": "node", "id": 3134140352, "lat": 11.9444104, "lon": 51.4578863}, {"type": "node", "id": 3134140353, "lat": 11.9500932, "lon": 50.3583765}, {"type": "node", "id": 3134140354, "lat": 11.9658794, "lon": 51.4415534}, {"type": "node", "id": 3134140355, "lat": 11.9850144, "lon": 51.4224595}, {"type": "node", "id": 3134140356, "lat": 11.9851749, "lon": 50.3765254}, {"type": "node", "id": 3134140357, "lat": 12.004779, "lon": 51.3966717}, {"type": "node", "id": 3134140358, "lat": 12.0257114, "lon": 51.3586128}, {"type": "node", "id": 3134140359, "lat": 12.0295101, "lon": 50.4099648}, {"type": "node", "id": 3134140360, "lat": 12.0321876, "lon": 51.3416564}, {"type": "node", "id": 3134140361, "lat": 12.0388496, "lon": 51.3174709}, {"type": "node", "id": 3134140362, "lat": 12.0429255, "lon": 51.2548622}, {"type": "node", "id": 3134140363, "lat": 12.0432269, "lon": 51.2880041}, {"type": "node", "id": 3134140364, "lat": 12.0537383, "lon": 51.2339116}, {"type": "node", "id": 3134140365, "lat": 12.0543075, "lon": 50.4361398}, {"type": "node", "id": 3134140366, "lat": 12.0652188, "lon": 51.2034861}, {"type": "node", "id": 3134140367, "lat": 12.0701655, "lon": 50.4551965}, {"type": "node", "id": 3134140368, "lat": 12.0717862, "lon": 51.1715907}, {"type": "node", "id": 3134140369, "lat": 12.0740564, "lon": 51.1482207}, {"type": "node", "id": 3134140370, "lat": 12.0963096, "lon": 51.0729901}, {"type": "node", "id": 3134140371, "lat": 12.1037888, "lon": 50.5060023}, {"type": "node", "id": 3134140372, "lat": 12.1074121, "lon": 50.5146733}, {"type": "node", "id": 3134140373, "lat": 12.1117829, "lon": 51.0361665}, {"type": "node", "id": 3134140374, "lat": 12.1241382, "lon": 50.9929263}, {"type": "node", "id": 3134140375, "lat": 12.1263089, "lon": 50.5485979}, {"type": "node", "id": 3134140376, "lat": 12.1280147, "lon": 50.9735318}, {"type": "node", "id": 3134140377, "lat": 12.1349778, "lon": 50.9538262}, {"type": "node", "id": 3134140378, "lat": 12.1387347, "lon": 50.5873294}, {"type": "node", "id": 3134140379, "lat": 12.1407363, "lon": 50.9299581}, {"type": "node", "id": 3134140380, "lat": 12.1430649, "lon": 50.6162168}, {"type": "node", "id": 3134140381, "lat": 12.1433925, "lon": 50.645977}, {"type": "node", "id": 3134140382, "lat": 12.157777, "lon": 50.9046229}, {"type": "node", "id": 3134140383, "lat": 12.1612316, "lon": 50.6718692}, {"type": "node", "id": 3134140384, "lat": 12.1731278, "lon": 50.6963476}, {"type": "node", "id": 3134140385, "lat": 12.1806049, "lon": 50.8512155}, {"type": "node", "id": 3134140386, "lat": 12.1872305, "lon": 50.8194682}, {"type": "node", "id": 3134140387, "lat": 12.1888847, "lon": 50.7976664}, {"type": "node", "id": 3134140388, "lat": 12.1889121, "lon": 50.7694248}, {"type": "node", "id": 3134140389, "lat": 1.9195651, "lon": 45.5509747}, {"type": "node", "id": 3134140390, "lat": 2.030133, "lon": 45.7450358}, {"type": "node", "id": 3134140391, "lat": 2.0381809, "lon": 45.7567966}, {"type": "node", "id": 3134140392, "lat": 2.0402457, "lon": 45.7615408}, {"type": "node", "id": 3134140393, "lat": 2.0801931, "lon": 45.8261241}, {"type": "node", "id": 3134140394, "lat": 2.0891796, "lon": 45.8446815}, {"type": "node", "id": 3134140395, "lat": 2.1096741, "lon": 45.8761939}, {"type": "node", "id": 3134140396, "lat": 2.1180721, "lon": 45.8942331}, {"type": "node", "id": 3134140397, "lat": 2.1266673, "lon": 45.907998}, {"type": "node", "id": 3134140398, "lat": 2.1391828, "lon": 45.9332133}, {"type": "node", "id": 3134140399, "lat": 2.1489027, "lon": 45.9472301}, {"type": "node", "id": 3134140400, "lat": 2.1547343, "lon": 45.9577945}, {"type": "node", "id": 3134140401, "lat": 2.1590716, "lon": 45.9682282}, {"type": "node", "id": 3134140402, "lat": 2.1683629, "lon": 45.981923}, {"type": "node", "id": 3134140403, "lat": 2.1767493, "lon": 45.9986259}, {"type": "node", "id": 3134140404, "lat": 2.196245, "lon": 46.0281481}, {"type": "node", "id": 3134140405, "lat": 2.2423108, "lon": 46.0902089}, {"type": "node", "id": 3134140406, "lat": 2.2526115, "lon": 46.108208}, {"type": "node", "id": 3134140407, "lat": 2.2939706, "lon": 46.1598592}, {"type": "node", "id": 3134140408, "lat": 2.3236072, "lon": 46.185467}, {"type": "node", "id": 3134140409, "lat": 2.3597781, "lon": 46.2301832}, {"type": "node", "id": 3134140410, "lat": 2.3813178, "lon": 46.2523258}, {"type": "node", "id": 3134140411, "lat": 2.4079786, "lon": 46.2754372}, {"type": "node", "id": 3134140412, "lat": 2.4246571, "lon": 46.2863838}, {"type": "node", "id": 3134140413, "lat": 2.4271142, "lon": 46.290272}, {"type": "node", "id": 3134140414, "lat": 2.454111, "lon": 46.3186911}, {"type": "node", "id": 3134140415, "lat": 2.4910699, "lon": 46.3452623}, {"type": "node", "id": 3134140416, "lat": 2.5005505, "lon": 46.3532473}, {"type": "node", "id": 3134140417, "lat": 2.5112045, "lon": 46.3595357}, {"type": "node", "id": 3134140418, "lat": 2.5248419, "lon": 46.3775742}, {"type": "node", "id": 3134140419, "lat": 2.5428875, "lon": 46.4072262}, {"type": "node", "id": 3134140420, "lat": 2.5647216, "lon": 46.4336865}, {"type": "node", "id": 3134140421, "lat": 2.5904731, "lon": 46.4561927}, {"type": "node", "id": 3134140422, "lat": 2.6091202, "lon": 46.4694223}, {"type": "node", "id": 3134140423, "lat": 2.6259528, "lon": 46.4784074}, {"type": "node", "id": 3134140424, "lat": 2.6470526, "lon": 46.4946877}, {"type": "node", "id": 3134140425, "lat": 2.6901918, "lon": 46.5486656}, {"type": "node", "id": 3134140426, "lat": 2.7133941, "lon": 46.5707299}, {"type": "node", "id": 3134140427, "lat": 2.7299997, "lon": 46.5848632}, {"type": "node", "id": 3134140428, "lat": 2.7532121, "lon": 46.6153118}, {"type": "node", "id": 3134140429, "lat": 0.2144481, "lon": 43.3569738}, {"type": "node", "id": 3134140430, "lat": 0.4016828, "lon": 43.5275444}, {"type": "node", "id": 3134140431, "lat": 0.5368891, "lon": 43.6633753}, {"type": "node", "id": 3134140432, "lat": 0.5580867, "lon": 43.6853266}, {"type": "node", "id": 3134140433, "lat": 0.621891, "lon": 43.7597508}, {"type": "node", "id": 3134140434, "lat": 0.6350084, "lon": 43.771048}, {"type": "node", "id": 3134140435, "lat": 0.6581158, "lon": 43.7958649}, {"type": "node", "id": 3134140436, "lat": 0.6772029, "lon": 43.8204069}, {"type": "node", "id": 3134140437, "lat": 0.6881842, "lon": 43.836988}, {"type": "node", "id": 3134140438, "lat": 0.7035839, "lon": 43.8543935}, {"type": "node", "id": 3134140439, "lat": 0.7262778, "lon": 43.8846245}, {"type": "node", "id": 3134140440, "lat": 0.7531711, "lon": 43.9094273}, {"type": "node", "id": 3134140441, "lat": 0.7595747, "lon": 43.9134111}, {"type": "node", "id": 3134140442, "lat": 0.7757202, "lon": 43.9357091}, {"type": "node", "id": 3134140443, "lat": 0.8047884, "lon": 43.969794}, {"type": "node", "id": 3134140444, "lat": 0.828963, "lon": 44.0051916}, {"type": "node", "id": 3134140445, "lat": 0.837765, "lon": 44.0162414}, {"type": "node", "id": 3134140446, "lat": 0.8428017, "lon": 44.0284716}, {"type": "node", "id": 3134140447, "lat": 0.8592337, "lon": 44.0553419}, {"type": "node", "id": 3134140448, "lat": 0.8797072, "lon": 44.0793178}, {"type": "node", "id": 3134140449, "lat": 0.9040445, "lon": 44.1000443}, {"type": "node", "id": 3134140450, "lat": 0.9137041, "lon": 44.1204865}, {"type": "node", "id": 3134140451, "lat": 0.9325525, "lon": 44.1476155}, {"type": "node", "id": 3134140452, "lat": 0.9645741, "lon": 44.1815457}, {"type": "node", "id": 3134140453, "lat": 1.0007588, "lon": 44.2088393}, {"type": "node", "id": 3134140454, "lat": 1.0053512, "lon": 44.2200021}, {"type": "node", "id": 3134140455, "lat": 1.0235227, "lon": 44.2488797}, {"type": "node", "id": 3134140456, "lat": 1.0307788, "lon": 44.257213}, {"type": "node", "id": 3134140457, "lat": 1.0463683, "lon": 44.2742711}, {"type": "node", "id": 3134140529, "lat": 1.4111644, "lon": 44.6932479}, {"type": "node", "id": 3134140530, "lat": 1.4229616, "lon": 44.710185}, {"type": "node", "id": 3134140531, "lat": 1.4311974, "lon": 44.72543}, {"type": "node", "id": 3134140532, "lat": 1.440204, "lon": 44.7389545}, {"type": "node", "id": 3134140533, "lat": 1.4875444, "lon": 44.8052683}, {"type": "node", "id": 3134140534, "lat": 1.5016899, "lon": 44.8234343}, {"type": "node", "id": 3134140535, "lat": 1.5201202, "lon": 44.8543652}, {"type": "node", "id": 3134140536, "lat": 1.5394269, "lon": 44.8799743}, {"type": "node", "id": 3134140537, "lat": 1.5481899, "lon": 44.8887858}, {"type": "node", "id": 3134140538, "lat": 1.5679379, "lon": 44.9183218}, {"type": "node", "id": 3134140539, "lat": 1.594241, "lon": 44.9617702}, {"type": "node", "id": 3134140540, "lat": 1.6124538, "lon": 44.9878644}, {"type": "node", "id": 3134140541, "lat": 1.6360766, "lon": 45.0308857}, {"type": "node", "id": 3134140542, "lat": 1.6727982, "lon": 45.0915262}, {"type": "node", "id": 3134140543, "lat": 1.675841, "lon": 45.0991504}, {"type": "node", "id": 3134140544, "lat": 1.684487, "lon": 45.1144865}, {"type": "node", "id": 3134140545, "lat": 1.6957003, "lon": 45.1310623}, {"type": "node", "id": 3134140546, "lat": 1.7104838, "lon": 45.1499669}, {"type": "node", "id": 3134140547, "lat": 1.7346361, "lon": 45.1927398}, {"type": "node", "id": 3134140548, "lat": 1.7498655, "lon": 45.2295837}, {"type": "node", "id": 3134140549, "lat": 1.7643263, "lon": 45.2603378}, {"type": "node", "id": 3134140550, "lat": 1.7674376, "lon": 45.2710048}, {"type": "node", "id": 3134140551, "lat": 1.7773102, "lon": 45.2965242}, {"type": "node", "id": 3134140552, "lat": 1.7848321, "lon": 45.3133272}, {"type": "node", "id": 3134140553, "lat": 1.7868639, "lon": 45.3177585}, {"type": "node", "id": 3134140562, "lat": 1.790497, "lon": 45.330509}, {"type": "node", "id": 3134140563, "lat": 1.7974697, "lon": 45.3529927}, {"type": "node", "id": 3134140564, "lat": 1.8181431, "lon": 45.3804769}, {"type": "node", "id": 3134140569, "lat": 10.0667914, "lon": 51.0974415}, {"type": "node", "id": 3134140570, "lat": 10.0880901, "lon": 51.092417}, {"type": "node", "id": 3134140571, "lat": 10.1064892, "lon": 51.0969923}, {"type": "node", "id": 3134140572, "lat": 10.1413032, "lon": 51.103492}, {"type": "node", "id": 3134140573, "lat": 10.1630625, "lon": 51.3785354}, {"type": "node", "id": 3134140574, "lat": 10.1650023, "lon": 51.3463963}, {"type": "node", "id": 3134140575, "lat": 10.1715903, "lon": 51.3055353}, {"type": "node", "id": 3134140576, "lat": 10.1723748, "lon": 51.4368397}, {"type": "node", "id": 3134140577, "lat": 10.1727475, "lon": 51.3129515}, {"type": "node", "id": 3134140578, "lat": 10.1826939, "lon": 51.2162023}, {"type": "node", "id": 3134140579, "lat": 10.1863622, "lon": 51.4707552}, {"type": "node", "id": 3134140580, "lat": 10.2061761, "lon": 51.5015721}, {"type": "node", "id": 3134140581, "lat": 10.2069155, "lon": 51.1191694}, {"type": "node", "id": 3134140582, "lat": 10.2142713, "lon": 51.1520056}, {"type": "node", "id": 3134140583, "lat": 10.2311675, "lon": 51.5282813}, {"type": "node", "id": 3134140584, "lat": 10.2841105, "lon": 51.5622977}, {"type": "node", "id": 3134140585, "lat": 10.291902, "lon": 51.5683306}, {"type": "node", "id": 3134140586, "lat": 10.3085274, "lon": 51.5764086}, {"type": "node", "id": 3134140587, "lat": 10.3256241, "lon": 51.5868812}, {"type": "node", "id": 3134140588, "lat": 10.3912183, "lon": 51.6118054}, {"type": "node", "id": 3134140589, "lat": 10.4248565, "lon": 51.6177696}, {"type": "node", "id": 3134140590, "lat": 10.4974186, "lon": 51.6111949}, {"type": "node", "id": 3134140591, "lat": 10.532436, "lon": 51.5978268}, {"type": "node", "id": 3134140592, "lat": 10.5643919, "lon": 51.5781252}, {"type": "node", "id": 3134140593, "lat": 10.5845245, "lon": 44.5818897}, {"type": "node", "id": 3134140594, "lat": 10.5886431, "lon": 44.5601466}, {"type": "node", "id": 3134140595, "lat": 10.5895104, "lon": 44.5400045}, {"type": "node", "id": 3134140596, "lat": 10.5971798, "lon": 44.4988685}, {"type": "node", "id": 3134140597, "lat": 10.5979296, "lon": 44.4113093}, {"type": "node", "id": 3134140598, "lat": 10.5982817, "lon": 44.6218241}, {"type": "node", "id": 3134140599, "lat": 10.5997467, "lon": 51.5538139}, {"type": "node", "id": 3134140600, "lat": 10.599948, "lon": 44.4753937}, {"type": "node", "id": 3134140601, "lat": 10.6024011, "lon": 44.6392727}, {"type": "node", "id": 3134140602, "lat": 10.6056484, "lon": 44.3909736}, {"type": "node", "id": 3134140603, "lat": 10.6067333, "lon": 44.6612255}, {"type": "node", "id": 3134140604, "lat": 10.6079454, "lon": 44.6745065}, {"type": "node", "id": 3134140605, "lat": 10.6110462, "lon": 44.8665589}, {"type": "node", "id": 3134140606, "lat": 10.6148763, "lon": 44.8454576}, {"type": "node", "id": 3134140607, "lat": 10.6154712, "lon": 44.7070699}, {"type": "node", "id": 3134140608, "lat": 10.6161517, "lon": 44.7873371}, {"type": "node", "id": 3134140609, "lat": 10.6174139, "lon": 44.7803269}, {"type": "node", "id": 3134140610, "lat": 10.6174573, "lon": 44.8058074}, {"type": "node", "id": 3134140611, "lat": 10.6256138, "lon": 44.8901471}, {"type": "node", "id": 3134140612, "lat": 10.6281336, "lon": 51.5270402}, {"type": "node", "id": 3134140613, "lat": 10.6069294, "lon": 44.3890544}, {"type": "node", "id": 3134140614, "lat": 10.6470439, "lon": 44.9385833}, {"type": "node", "id": 3134140617, "lat": 10.6601392, "lon": 44.9529703}, {"type": "node", "id": 3134140618, "lat": 10.6667879, "lon": 44.9620267}, {"type": "node", "id": 3134140619, "lat": 10.6668245, "lon": 51.462457}, {"type": "node", "id": 3134140620, "lat": 10.6695676, "lon": 44.3199783}, {"type": "node", "id": 3134140621, "lat": 10.6760181, "lon": 51.4308757}, {"type": "node", "id": 3134140622, "lat": 10.6782388, "lon": 44.9792548}, {"type": "node", "id": 3134140623, "lat": 10.6796883, "lon": 51.4113271}, {"type": "node", "id": 3134140624, "lat": 10.6815229, "lon": 51.3984304}, {"type": "node", "id": 3134140625, "lat": 10.6837395, "lon": 51.3626768}, {"type": "node", "id": 3134140626, "lat": 10.6881329, "lon": 44.9966163}, {"type": "node", "id": 3134140627, "lat": 10.7025054, "lon": 45.0339881}, {"type": "node", "id": 3134140628, "lat": 10.7080967, "lon": 45.0579762}, {"type": "node", "id": 3134140629, "lat": 10.7097948, "lon": 45.0719447}, {"type": "node", "id": 3134140630, "lat": 10.7111318, "lon": 44.2613967}, {"type": "node", "id": 3134140631, "lat": 10.7115907, "lon": 51.3439346}, {"type": "node", "id": 3134140632, "lat": 10.7140345, "lon": 45.0788859}, {"type": "node", "id": 3134140633, "lat": 10.7267956, "lon": 45.107706}, {"type": "node", "id": 3134140634, "lat": 10.7294222, "lon": 44.2283441}, {"type": "node", "id": 3134140635, "lat": 10.7418463, "lon": 51.3335286}, {"type": "node", "id": 3134140636, "lat": 10.7497179, "lon": 44.2100934}, {"type": "node", "id": 3134140637, "lat": 10.7667432, "lon": 44.1914471}, {"type": "node", "id": 3134140638, "lat": 10.7672918, "lon": 45.1464191}, {"type": "node", "id": 3134140639, "lat": 10.7711466, "lon": 44.1855481}, {"type": "node", "id": 3134140640, "lat": 10.7801152, "lon": 44.1735333}, {"type": "node", "id": 3134140641, "lat": 10.7831225, "lon": 51.3334096}, {"type": "node", "id": 3134140642, "lat": 10.7864478, "lon": 45.1613633}, {"type": "node", "id": 3134140643, "lat": 10.7905372, "lon": 44.1546865}, {"type": "node", "id": 3134140644, "lat": 10.7996674, "lon": 45.1734413}, {"type": "node", "id": 3134140645, "lat": 10.8139142, "lon": 45.189451}, {"type": "node", "id": 3134140646, "lat": 10.81396, "lon": 44.1238645}, {"type": "node", "id": 3134140647, "lat": 10.8172531, "lon": 51.3300967}, {"type": "node", "id": 3134140648, "lat": 10.8279367, "lon": 45.2082281}, {"type": "node", "id": 3134140649, "lat": 10.8521552, "lon": 45.2586874}, {"type": "node", "id": 3134140650, "lat": 10.8577389, "lon": 45.2775833}, {"type": "node", "id": 3134140651, "lat": 10.8600141, "lon": 44.05602}, {"type": "node", "id": 3134140652, "lat": 10.8634467, "lon": 45.309249}, {"type": "node", "id": 3134140653, "lat": 10.8649718, "lon": 45.334667}, {"type": "node", "id": 3134140654, "lat": 10.8678962, "lon": 45.401912}, {"type": "node", "id": 3134140655, "lat": 10.8721613, "lon": 45.4135947}, {"type": "node", "id": 3134140656, "lat": 10.8784237, "lon": 44.0336791}, {"type": "node", "id": 3134140657, "lat": 10.8809282, "lon": 45.4265936}, {"type": "node", "id": 3134140658, "lat": 10.8845885, "lon": 45.4341578}, {"type": "node", "id": 3134140659, "lat": 10.8986479, "lon": 44.0108503}, {"type": "node", "id": 3134140660, "lat": 10.9039511, "lon": 46.4569377}, {"type": "node", "id": 3134140661, "lat": 10.9040302, "lon": 45.4507246}, {"type": "node", "id": 3134140662, "lat": 10.9117602, "lon": 46.4816316}, {"type": "node", "id": 3134140663, "lat": 10.9178255, "lon": 51.3242113}, {"type": "node", "id": 3134140664, "lat": 10.9200213, "lon": 46.3958675}, {"type": "node", "id": 3134140665, "lat": 10.9264021, "lon": 46.5498023}, {"type": "node", "id": 3134140666, "lat": 10.9267376, "lon": 51.3220929}, {"type": "node", "id": 3134140667, "lat": 10.9289261, "lon": 46.5757923}, {"type": "node", "id": 3134140668, "lat": 10.9309442, "lon": 45.4846279}, {"type": "node", "id": 3134140669, "lat": 10.9353495, "lon": 45.4917676}, {"type": "node", "id": 3134140670, "lat": 10.9357987, "lon": 46.3749112}, {"type": "node", "id": 3134140671, "lat": 10.9420608, "lon": 46.5981292}, {"type": "node", "id": 3134140672, "lat": 10.9447018, "lon": 46.3611353}, {"type": "node", "id": 3134140673, "lat": 10.9475845, "lon": 46.6095026}, {"type": "node", "id": 3134140674, "lat": 10.9499488, "lon": 51.3221611}, {"type": "node", "id": 3134140675, "lat": 10.9501922, "lon": 45.5212144}, {"type": "node", "id": 3134140676, "lat": 10.9535538, "lon": 46.6182271}, {"type": "node", "id": 3134140677, "lat": 10.9620336, "lon": 43.9454092}, {"type": "node", "id": 3134140678, "lat": 10.9637925, "lon": 45.5736655}, {"type": "node", "id": 3134140679, "lat": 10.9655199, "lon": 46.0947914}, {"type": "node", "id": 3134140680, "lat": 10.9726667, "lon": 45.5853275}, {"type": "node", "id": 3134140681, "lat": 10.973053, "lon": 51.3266206}, {"type": "node", "id": 3134140682, "lat": 10.9750742, "lon": 46.0447589}, {"type": "node", "id": 3134140683, "lat": 10.9758935, "lon": 46.2905658}, {"type": "node", "id": 3134140684, "lat": 10.9761747, "lon": 46.6655598}, {"type": "node", "id": 3134140685, "lat": 10.980346, "lon": 46.1666755}, {"type": "node", "id": 3134140686, "lat": 10.9831287, "lon": 46.2198675}, {"type": "node", "id": 3134140687, "lat": 10.9836583, "lon": 46.2042498}, {"type": "node", "id": 3134140688, "lat": 10.9840544, "lon": 46.2339988}, {"type": "node", "id": 3134140689, "lat": 10.9892526, "lon": 51.3323069}, {"type": "node", "id": 3134140690, "lat": 10.9893458, "lon": 45.6143097}, {"type": "node", "id": 3134140691, "lat": 10.9957418, "lon": 45.6199003}, {"type": "node", "id": 3134140692, "lat": 11.0056061, "lon": 45.990054}, {"type": "node", "id": 3134140693, "lat": 11.0109491, "lon": 51.3426627}, {"type": "node", "id": 3134140694, "lat": 11.010975, "lon": 45.9771513}, {"type": "node", "id": 3134140695, "lat": 11.0145494, "lon": 46.7248232}, {"type": "node", "id": 3134140696, "lat": 11.019678, "lon": 45.6483174}, {"type": "node", "id": 3134140697, "lat": 11.0274179, "lon": 45.9299308}, {"type": "node", "id": 3134140698, "lat": 11.0274924, "lon": 46.746018}, {"type": "node", "id": 3134140699, "lat": 11.0322688, "lon": 51.3554119}, {"type": "node", "id": 3134140700, "lat": 11.0388101, "lon": 45.6799225}, {"type": "node", "id": 3134140701, "lat": 11.0450087, "lon": 45.9029538}, {"type": "node", "id": 3134140702, "lat": 11.0524581, "lon": 46.7741139}, {"type": "node", "id": 3134140703, "lat": 11.0534589, "lon": 43.8641404}, {"type": "node", "id": 3134140704, "lat": 11.056594, "lon": 46.7808714}, {"type": "node", "id": 3134140705, "lat": 11.0580502, "lon": 51.3690272}, {"type": "node", "id": 3134140706, "lat": 11.0661823, "lon": 45.767303}, {"type": "node", "id": 3134140707, "lat": 11.0667937, "lon": 45.8395}, {"type": "node", "id": 3134140708, "lat": 11.0672749, "lon": 46.790795}, {"type": "node", "id": 3134140709, "lat": 11.0892549, "lon": 46.8202962}, {"type": "node", "id": 3134140710, "lat": 11.0933371, "lon": 51.3806336}, {"type": "node", "id": 3134140711, "lat": 11.1055958, "lon": 46.8533402}, {"type": "node", "id": 3134140712, "lat": 11.108374, "lon": 43.8229418}, {"type": "node", "id": 3134140713, "lat": 11.1115265, "lon": 51.3840738}, {"type": "node", "id": 3134140714, "lat": 11.133047, "lon": 43.8108485}, {"type": "node", "id": 3134140715, "lat": 11.1411666, "lon": 46.919879}, {"type": "node", "id": 3134140716, "lat": 11.1495665, "lon": 43.8013823}, {"type": "node", "id": 3134140717, "lat": 11.1531632, "lon": 46.9492047}, {"type": "node", "id": 3134140718, "lat": 11.157276, "lon": 46.9655053}, {"type": "node", "id": 3134140719, "lat": 11.169422, "lon": 46.9770004}, {"type": "node", "id": 3134140720, "lat": 11.1790931, "lon": 51.3833132}, {"type": "node", "id": 3134140721, "lat": 11.1870353, "lon": 43.7730047}, {"type": "node", "id": 3134140722, "lat": 11.1876805, "lon": 46.9889499}, {"type": "node", "id": 3134140723, "lat": 11.1963889, "lon": 43.7688869}, {"type": "node", "id": 3134140724, "lat": 11.2137918, "lon": 51.3736682}, {"type": "node", "id": 3134140725, "lat": 11.2170597, "lon": 47.0183789}, {"type": "node", "id": 3134140726, "lat": 11.2223024, "lon": 43.754058}, {"type": "node", "id": 3134140727, "lat": 11.2542776, "lon": 51.3532876}, {"type": "node", "id": 3134140728, "lat": 11.2672855, "lon": 43.735839}, {"type": "node", "id": 3134140729, "lat": 11.267385, "lon": 47.0372123}, {"type": "node", "id": 3134140730, "lat": 11.2795077, "lon": 43.7289767}, {"type": "node", "id": 3134140731, "lat": 11.2830028, "lon": 51.3329689}, {"type": "node", "id": 3134140732, "lat": 11.3006815, "lon": 43.7145471}, {"type": "node", "id": 3134140733, "lat": 11.301906, "lon": 47.0496297}, {"type": "node", "id": 3134140735, "lat": 11.314187, "lon": 43.7021122}, {"type": "node", "id": 3134140736, "lat": 11.3148987, "lon": 51.2976658}, {"type": "node", "id": 3134140737, "lat": 11.3159582, "lon": 47.8498905}, {"type": "node", "id": 3134140738, "lat": 11.3181714, "lon": 47.9782093}, {"type": "node", "id": 3134140739, "lat": 11.3254732, "lon": 47.8881034}, {"type": "node", "id": 3134140740, "lat": 11.3187795, "lon": 47.9911398}, {"type": "node", "id": 3134140741, "lat": 11.3195406, "lon": 47.8330511}, {"type": "node", "id": 3134140742, "lat": 11.321079, "lon": 47.969991}, {"type": "node", "id": 3134140743, "lat": 11.3226683, "lon": 43.7049501}, {"type": "node", "id": 3134140744, "lat": 11.3228183, "lon": 47.7978781}, {"type": "node", "id": 3134140745, "lat": 11.3234787, "lon": 47.6893222}, {"type": "node", "id": 3134140747, "lat": 11.3259992, "lon": 48.0226477}, {"type": "node", "id": 3134140748, "lat": 11.3331914, "lon": 47.067886}, {"type": "node", "id": 3134140749, "lat": 11.3382777, "lon": 51.3076603}, {"type": "node", "id": 3134140750, "lat": 11.3387358, "lon": 48.083828}, {"type": "node", "id": 3134140751, "lat": 11.3423876, "lon": 47.6635493}, {"type": "node", "id": 3134140752, "lat": 11.3433817, "lon": 48.0908728}, {"type": "node", "id": 3134140753, "lat": 11.3478409, "lon": 43.7101525}, {"type": "node", "id": 3134140754, "lat": 11.3578474, "lon": 48.1066133}, {"type": "node", "id": 3134140755, "lat": 11.3604506, "lon": 47.6305563}, {"type": "node", "id": 3134140756, "lat": 11.3607437, "lon": 47.0915267}, {"type": "node", "id": 3134140757, "lat": 11.3700948, "lon": 47.6066864}, {"type": "node", "id": 3134140758, "lat": 11.3715859, "lon": 47.1026485}, {"type": "node", "id": 3134140759, "lat": 11.3782137, "lon": 47.4155704}, {"type": "node", "id": 3134140760, "lat": 11.3808328, "lon": 43.7114289}, {"type": "node", "id": 3134140761, "lat": 11.3811438, "lon": 47.5612819}, {"type": "node", "id": 3134140762, "lat": 11.3814329, "lon": 47.4669801}, {"type": "node", "id": 3134140763, "lat": 11.3830825, "lon": 47.5412737}, {"type": "node", "id": 3134140764, "lat": 11.3840909, "lon": 47.5132259}, {"type": "node", "id": 3134140765, "lat": 11.3903844, "lon": 48.1605606}, {"type": "node", "id": 3134140766, "lat": 11.3923041, "lon": 47.12924}, {"type": "node", "id": 3134140767, "lat": 11.3960991, "lon": 51.3235826}, {"type": "node", "id": 3134140768, "lat": 11.3985247, "lon": 47.3567347}, {"type": "node", "id": 3134140769, "lat": 11.4033821, "lon": 48.2017308}, {"type": "node", "id": 3134140770, "lat": 11.4064634, "lon": 51.3248854}, {"type": "node", "id": 3134140771, "lat": 11.4088581, "lon": 47.1587636}, {"type": "node", "id": 3134140772, "lat": 11.414136, "lon": 47.3261145}, {"type": "node", "id": 3134140773, "lat": 11.418882, "lon": 48.2173538}, {"type": "node", "id": 3134140774, "lat": 11.4211957, "lon": 47.1908871}, {"type": "node", "id": 3134140775, "lat": 11.4244235, "lon": 47.2932604}, {"type": "node", "id": 3134140776, "lat": 11.4280052, "lon": 47.2246613}, {"type": "node", "id": 3134140777, "lat": 11.4290914, "lon": 47.2591157}, {"type": "node", "id": 3134140778, "lat": 11.4365068, "lon": 48.2412865}, {"type": "node", "id": 3134140779, "lat": 11.4426599, "lon": 48.93961}, {"type": "node", "id": 3134140780, "lat": 11.4452143, "lon": 43.6976137}, {"type": "node", "id": 3134140781, "lat": 11.4494046, "lon": 51.3332166}, {"type": "node", "id": 3134140782, "lat": 11.4504895, "lon": 48.9170997}, {"type": "node", "id": 3134140783, "lat": 11.4532313, "lon": 48.2724114}, {"type": "node", "id": 3134140784, "lat": 11.4600935, "lon": 48.2899738}, {"type": "node", "id": 3134140785, "lat": 11.4606507, "lon": 48.8946395}, {"type": "node", "id": 3134140786, "lat": 11.4610728, "lon": 43.2574443}, {"type": "node", "id": 3134140787, "lat": 11.4622384, "lon": 49.0133218}, {"type": "node", "id": 3134140789, "lat": 11.4666986, "lon": 48.3136643}, {"type": "node", "id": 3134140790, "lat": 11.4735091, "lon": 51.3543789}, {"type": "node", "id": 3134140791, "lat": 11.4748646, "lon": 43.6828918}, {"type": "node", "id": 3134140792, "lat": 11.4751542, "lon": 49.078736}, {"type": "node", "id": 3134140793, "lat": 11.4777079, "lon": 49.1015048}, {"type": "node", "id": 3134140794, "lat": 11.481613, "lon": 48.3635685}, {"type": "node", "id": 3134140795, "lat": 11.4827108, "lon": 48.8367661}, {"type": "node", "id": 3134140796, "lat": 11.4839961, "lon": 49.1175085}, {"type": "node", "id": 3134140798, "lat": 11.4847547, "lon": 48.4188907}, {"type": "node", "id": 3134140799, "lat": 11.485602, "lon": 48.4042432}, {"type": "node", "id": 3134140800, "lat": 11.4860759, "lon": 43.6747776}, {"type": "node", "id": 3134140801, "lat": 11.4860844, "lon": 51.3679763}, {"type": "node", "id": 3134140802, "lat": 11.489088, "lon": 49.1378302}, {"type": "node", "id": 3134140803, "lat": 11.4902403, "lon": 48.8118053}, {"type": "node", "id": 3134140804, "lat": 11.4946333, "lon": 43.2700094}, {"type": "node", "id": 3134140805, "lat": 11.4913329, "lon": 49.1516934}, {"type": "node", "id": 3134140806, "lat": 11.4917758, "lon": 49.1623285}, {"type": "node", "id": 3134140807, "lat": 11.4939853, "lon": 48.7938613}, {"type": "node", "id": 3134140809, "lat": 11.4973185, "lon": 48.4483672}, {"type": "node", "id": 3134140810, "lat": 11.4995518, "lon": 43.6713862}, {"type": "node", "id": 3134140812, "lat": 11.5020441, "lon": 48.7641867}, {"type": "node", "id": 3134140815, "lat": 11.504054, "lon": 49.1907237}, {"type": "node", "id": 3134140816, "lat": 11.5072871, "lon": 48.4876766}, {"type": "node", "id": 3134140817, "lat": 11.5101613, "lon": 48.5096138}, {"type": "node", "id": 3134140818, "lat": 11.5103818, "lon": 48.5702862}, {"type": "node", "id": 3134140819, "lat": 11.5117352, "lon": 48.537177}, {"type": "node", "id": 3134140820, "lat": 11.5151825, "lon": 49.210327}, {"type": "node", "id": 3134140821, "lat": 11.5163278, "lon": 48.5909866}, {"type": "node", "id": 3134140822, "lat": 11.5172247, "lon": 48.599258}, {"type": "node", "id": 3134140823, "lat": 11.5237431, "lon": 43.6722045}, {"type": "node", "id": 3134140824, "lat": 11.5239748, "lon": 48.6879922}, {"type": "node", "id": 3134140825, "lat": 11.5261119, "lon": 48.656361}, {"type": "node", "id": 3134140826, "lat": 11.5269601, "lon": 49.2392879}, {"type": "node", "id": 3134140830, "lat": 11.5291591, "lon": 51.4036969}, {"type": "node", "id": 3134140832, "lat": 11.5327721, "lon": 49.3431298}, {"type": "node", "id": 3134140833, "lat": 11.5329049, "lon": 49.3507681}, {"type": "node", "id": 3134140834, "lat": 11.5342164, "lon": 49.2697396}, {"type": "node", "id": 3134140835, "lat": 11.5367855, "lon": 49.3020057}, {"type": "node", "id": 3134140836, "lat": 11.5459863, "lon": 49.3696493}, {"type": "node", "id": 3134140837, "lat": 11.5501791, "lon": 49.3779097}, {"type": "node", "id": 3134140838, "lat": 11.5569806, "lon": 51.4222131}, {"type": "node", "id": 3134140840, "lat": 11.5612706, "lon": 43.6662184}, {"type": "node", "id": 3134140843, "lat": 11.5673738, "lon": 51.4268578}, {"type": "node", "id": 3134140847, "lat": 11.591455, "lon": 43.6558173}, {"type": "node", "id": 3134140848, "lat": 11.5915232, "lon": 51.4402809}, {"type": "node", "id": 3134140851, "lat": 11.5978017, "lon": 49.4185509}, {"type": "node", "id": 3134140852, "lat": 11.6157949, "lon": 49.4419499}, {"type": "node", "id": 3134140855, "lat": 11.6202153, "lon": 43.6403334}, {"type": "node", "id": 3134140857, "lat": 11.6352615, "lon": 49.4789904}, {"type": "node", "id": 3134140858, "lat": 11.6223286, "lon": 43.3442521}, {"type": "node", "id": 3134140859, "lat": 11.6463137, "lon": 49.5126296}, {"type": "node", "id": 3134140860, "lat": 11.6575772, "lon": 51.4592897}, {"type": "node", "id": 3134140861, "lat": 11.6590698, "lon": 49.5948918}, {"type": "node", "id": 3134140862, "lat": 11.6612636, "lon": 49.7898297}, {"type": "node", "id": 3134140863, "lat": 11.6613212, "lon": 49.7810311}, {"type": "node", "id": 3134140864, "lat": 11.6641723, "lon": 49.6051611}, {"type": "node", "id": 3134140865, "lat": 11.6694003, "lon": 49.7623585}, {"type": "node", "id": 3134140866, "lat": 11.6702966, "lon": 51.460104}, {"type": "node", "id": 3134140867, "lat": 11.6732053, "lon": 49.6322207}, {"type": "node", "id": 3134140868, "lat": 11.6759461, "lon": 49.8114146}, {"type": "node", "id": 3134140869, "lat": 11.6771928, "lon": 49.7333118}, {"type": "node", "id": 3134140870, "lat": 11.678515, "lon": 49.6614995}, {"type": "node", "id": 3134140871, "lat": 11.6805085, "lon": 49.6869955}, {"type": "node", "id": 3134140872, "lat": 11.6806812, "lon": 49.7034169}, {"type": "node", "id": 3134140873, "lat": 11.6821645, "lon": 43.5785461}, {"type": "node", "id": 3134140875, "lat": 11.6970065, "lon": 49.8554705}, {"type": "node", "id": 3134140878, "lat": 11.700291, "lon": 43.5444694}, {"type": "node", "id": 3134140880, "lat": 11.7030211, "lon": 51.4597028}, {"type": "node", "id": 3134140881, "lat": 11.7061837, "lon": 50.0120309}, {"type": "node", "id": 3134140882, "lat": 11.7079013, "lon": 49.887222}, {"type": "node", "id": 3134140883, "lat": 11.711735, "lon": 43.5075268}, {"type": "node", "id": 3134140885, "lat": 11.7124279, "lon": 49.9884548}, {"type": "node", "id": 3134140886, "lat": 11.7131307, "lon": 50.021715}, {"type": "node", "id": 3134140887, "lat": 11.7160828, "lon": 43.4690538}, {"type": "node", "id": 3134140888, "lat": 11.7165952, "lon": 49.9461213}, {"type": "node", "id": 3134140889, "lat": 11.7168338, "lon": 51.4670235}, {"type": "node", "id": 3134140890, "lat": 11.7289638, "lon": 50.0552853}, {"type": "node", "id": 3134140891, "lat": 11.731112, "lon": 50.063584}, {"type": "node", "id": 3134140893, "lat": 11.7391872, "lon": 51.4762937}, {"type": "node", "id": 3134140894, "lat": 11.7393607, "lon": 50.0826924}, {"type": "node", "id": 3134140895, "lat": 11.7469046, "lon": 50.1052344}, {"type": "node", "id": 3134140897, "lat": 11.7520729, "lon": 50.1280922}, {"type": "node", "id": 3134140900, "lat": 11.7623011, "lon": 50.1491047}, {"type": "node", "id": 3134140902, "lat": 11.7641146, "lon": 51.4836184}, {"type": "node", "id": 3134140903, "lat": 11.7682741, "lon": 50.1661656}, {"type": "node", "id": 3134140906, "lat": 11.7823359, "lon": 50.1844269}, {"type": "node", "id": 3134140907, "lat": 11.79589, "lon": 51.4906705}, {"type": "node", "id": 3134140908, "lat": 11.7995157, "lon": 50.2152465}, {"type": "node", "id": 3134140911, "lat": 11.8113224, "lon": 50.2492646}, {"type": "node", "id": 3134140929, "lat": 2.7688311, "lon": 46.6339304}, {"type": "node", "id": 3134140930, "lat": 2.7834853, "lon": 46.6545933}, {"type": "node", "id": 3134140931, "lat": 2.8292796, "lon": 46.7094172}, {"type": "node", "id": 3134140932, "lat": 2.8686055, "lon": 46.7486616}, {"type": "node", "id": 3134140933, "lat": 2.9028652, "lon": 46.788731}, {"type": "node", "id": 3134140934, "lat": 2.9249219, "lon": 46.8122646}, {"type": "node", "id": 3134140935, "lat": 3.0008072, "lon": 46.8804222}, {"type": "node", "id": 3134140936, "lat": 3.1093066, "lon": 46.982975}, {"type": "node", "id": 3134140937, "lat": 3.1359561, "lon": 47.0050119}, {"type": "node", "id": 3134140938, "lat": 3.1684525, "lon": 47.0286127}, {"type": "node", "id": 3134140939, "lat": 3.1922401, "lon": 47.048514}, {"type": "node", "id": 3134140940, "lat": 3.2094032, "lon": 47.0614028}, {"type": "node", "id": 3134140941, "lat": 3.2255121, "lon": 47.0755016}, {"type": "node", "id": 3134140942, "lat": 3.270912, "lon": 47.1204648}, {"type": "node", "id": 3134140943, "lat": 3.364465, "lon": 47.2117866}, {"type": "node", "id": 3134140944, "lat": 3.3835546, "lon": 47.2309087}, {"type": "node", "id": 3134140945, "lat": 3.4165801, "lon": 47.258752}, {"type": "node", "id": 3134140946, "lat": 3.4446687, "lon": 47.2860731}, {"type": "node", "id": 3134140947, "lat": 3.4815966, "lon": 47.3188252}, {"type": "node", "id": 3134140948, "lat": 3.4956145, "lon": 47.3306948}, {"type": "node", "id": 3134140949, "lat": 3.5309219, "lon": 47.3605467}, {"type": "node", "id": 3134140950, "lat": 3.5534371, "lon": 47.3850915}, {"type": "node", "id": 3134140951, "lat": 3.5755009, "lon": 47.4062893}, {"type": "node", "id": 3134140952, "lat": 3.5941306, "lon": 47.4280061}, {"type": "node", "id": 3134140953, "lat": 3.6217294, "lon": 47.4567641}, {"type": "node", "id": 3134140954, "lat": 3.6709925, "lon": 47.5045029}, {"type": "node", "id": 3134140955, "lat": 3.7108335, "lon": 47.546724}, {"type": "node", "id": 3134140956, "lat": 3.7878816, "lon": 47.620163}, {"type": "node", "id": 3134140957, "lat": 3.8275109, "lon": 47.6530261}, {"type": "node", "id": 3134140958, "lat": 3.8961267, "lon": 47.7076149}, {"type": "node", "id": 3134140959, "lat": 3.9325519, "lon": 47.7357453}, {"type": "node", "id": 3134140960, "lat": 3.9494189, "lon": 47.7522295}, {"type": "node", "id": 3134140961, "lat": 3.9595357, "lon": 47.759737}, {"type": "node", "id": 3134140962, "lat": 3.981548, "lon": 47.7788104}, {"type": "node", "id": 3134140963, "lat": 4.0151918, "lon": 47.8127049}, {"type": "node", "id": 3134140964, "lat": 4.0417131, "lon": 47.8343872}, {"type": "node", "id": 3134140965, "lat": 4.0706522, "lon": 47.8658615}, {"type": "node", "id": 3134140966, "lat": 4.1083165, "lon": 47.901358}, {"type": "node", "id": 3134140967, "lat": 4.148263, "lon": 47.9305066}, {"type": "node", "id": 3134140968, "lat": 4.2486617, "lon": 48.0213565}, {"type": "node", "id": 3134140969, "lat": 4.3018429, "lon": 48.0754848}, {"type": "node", "id": 3134140970, "lat": 4.3233525, "lon": 48.0952304}, {"type": "node", "id": 3134140971, "lat": 4.3620756, "lon": 48.1261157}, {"type": "node", "id": 3134140972, "lat": 4.4937817, "lon": 48.2037203}, {"type": "node", "id": 3134140973, "lat": 4.5211069, "lon": 48.2213977}, {"type": "node", "id": 3134140974, "lat": 4.5582809, "lon": 48.2474078}, {"type": "node", "id": 3134140975, "lat": 4.5772519, "lon": 48.2590613}, {"type": "node", "id": 3134140976, "lat": 4.5961884, "lon": 48.2681147}, {"type": "node", "id": 3134140977, "lat": 4.6374891, "lon": 48.2902197}, {"type": "node", "id": 3134140978, "lat": 4.6965725, "lon": 48.3263366}, {"type": "node", "id": 3134140979, "lat": 4.7371605, "lon": 48.3454491}, {"type": "node", "id": 3134140980, "lat": 4.7629776, "lon": 48.3555919}, {"type": "node", "id": 3134140981, "lat": 4.7823364, "lon": 48.3654393}, {"type": "node", "id": 3134140982, "lat": 4.9666052, "lon": 48.4940071}, {"type": "node", "id": 3134140983, "lat": 4.9790866, "lon": 48.5049183}, {"type": "node", "id": 3134140984, "lat": 4.9913446, "lon": 48.5135419}, {"type": "node", "id": 3134140985, "lat": 5.0153597, "lon": 48.5345324}, {"type": "node", "id": 3134140986, "lat": 5.0356194, "lon": 48.5500516}, {"type": "node", "id": 3134140987, "lat": 5.0642519, "lon": 48.5702969}, {"type": "node", "id": 3134140988, "lat": 5.0842058, "lon": 48.5828386}, {"type": "node", "id": 3134140989, "lat": 5.1380606, "lon": 48.6273747}, {"type": "node", "id": 3134140990, "lat": 5.1909624, "lon": 48.668737}, {"type": "node", "id": 3134140991, "lat": 5.2307893, "lon": 48.699629}, {"type": "node", "id": 3134140992, "lat": 5.2512942, "lon": 48.7111993}, {"type": "node", "id": 3134140993, "lat": 5.2585892, "lon": 48.7141434}, {"type": "node", "id": 3134140994, "lat": 5.3412439, "lon": 48.7803857}, {"type": "node", "id": 3134140995, "lat": 5.3885998, "lon": 48.8138591}, {"type": "node", "id": 3134140996, "lat": 5.4334063, "lon": 48.8409807}, {"type": "node", "id": 3134140997, "lat": 5.4496904, "lon": 48.8501193}, {"type": "node", "id": 3134140998, "lat": 5.4627275, "lon": 48.8559142}, {"type": "node", "id": 3134140999, "lat": 5.4726436, "lon": 48.8628655}, {"type": "node", "id": 3134141000, "lat": 5.5297261, "lon": 48.8967209}, {"type": "node", "id": 3134141001, "lat": 5.5782614, "lon": 48.9285698}, {"type": "node", "id": 3134141002, "lat": 5.5979567, "lon": 48.9429269}, {"type": "node", "id": 3134141003, "lat": 5.6401113, "lon": 48.9710371}, {"type": "node", "id": 3134141004, "lat": 5.686711, "lon": 48.99944}, {"type": "node", "id": 3134141005, "lat": 5.8240073, "lon": 49.0878995}, {"type": "node", "id": 3134141006, "lat": 5.8943247, "lon": 49.125477}, {"type": "node", "id": 3134141007, "lat": 5.9716743, "lon": 49.1643404}, {"type": "node", "id": 3134141008, "lat": 6.0806307, "lon": 49.2127417}, {"type": "node", "id": 3134141009, "lat": 6.1768275, "lon": 49.2536686}, {"type": "node", "id": 3134141010, "lat": 6.2222037, "lon": 49.2671298}, {"type": "node", "id": 3134141011, "lat": 6.2578813, "lon": 49.2755092}, {"type": "node", "id": 3134141012, "lat": 6.2824589, "lon": 49.2787801}, {"type": "node", "id": 3134141013, "lat": 6.3174298, "lon": 49.2794219}, {"type": "node", "id": 3134141014, "lat": 6.3430814, "lon": 49.2762985}, {"type": "node", "id": 3134141015, "lat": 6.3512723, "lon": 49.2778986}, {"type": "node", "id": 3134141016, "lat": 6.3645681, "lon": 49.2783876}, {"type": "node", "id": 3134141017, "lat": 6.4135226, "lon": 49.2943238}, {"type": "node", "id": 3134141018, "lat": 6.4554438, "lon": 49.3121621}, {"type": "node", "id": 3134141019, "lat": 6.4777231, "lon": 49.322904}, {"type": "node", "id": 3134141020, "lat": 6.4983509, "lon": 49.3302261}, {"type": "node", "id": 3134141021, "lat": 6.5734237, "lon": 49.3604849}, {"type": "node", "id": 3134141022, "lat": 6.5975278, "lon": 49.3687841}, {"type": "node", "id": 3134141023, "lat": 6.6207443, "lon": 49.3816454}, {"type": "node", "id": 3134141024, "lat": 6.650516, "lon": 49.3924504}, {"type": "node", "id": 3134141025, "lat": 6.6619206, "lon": 49.3953742}, {"type": "node", "id": 3134141026, "lat": 6.7095126, "lon": 49.4224156}, {"type": "node", "id": 3134141027, "lat": 6.7179821, "lon": 49.428839}, {"type": "node", "id": 3134141028, "lat": 6.7375737, "lon": 49.4399846}, {"type": "node", "id": 3134141029, "lat": 6.7470752, "lon": 49.4465398}, {"type": "node", "id": 3134141030, "lat": 6.7753554, "lon": 49.4605729}, {"type": "node", "id": 3134141031, "lat": 6.8249002, "lon": 49.4915238}, {"type": "node", "id": 3134141032, "lat": 6.8474577, "lon": 49.5074109}, {"type": "node", "id": 3134141033, "lat": 6.9204526, "lon": 49.5537314}, {"type": "node", "id": 3134141034, "lat": 6.9277355, "lon": 49.557639}, {"type": "node", "id": 3134141035, "lat": 6.9422674, "lon": 49.5706541}, {"type": "node", "id": 3134141039, "lat": 6.9643506, "lon": 49.5865537}, {"type": "node", "id": 3134141040, "lat": 6.9970371, "lon": 49.6044131}, {"type": "node", "id": 3134141041, "lat": 7.0517874, "lon": 49.6391521}, {"type": "node", "id": 3134141042, "lat": 7.1984951, "lon": 49.7498502}, {"type": "node", "id": 3134141043, "lat": 7.2870638, "lon": 49.8103971}, {"type": "node", "id": 3134141044, "lat": 7.3281638, "lon": 49.837776}, {"type": "node", "id": 3134141045, "lat": 7.3521278, "lon": 49.8524164}, {"type": "node", "id": 3134141046, "lat": 7.4948771, "lon": 49.9248698}, {"type": "node", "id": 3134141047, "lat": 7.5425709, "lon": 49.9461365}, {"type": "node", "id": 3134141048, "lat": 7.5740119, "lon": 49.9562884}, {"type": "node", "id": 3134141049, "lat": 7.5827201, "lon": 49.9578919}, {"type": "node", "id": 3134141050, "lat": 7.5928195, "lon": 49.9638921}, {"type": "node", "id": 3134141051, "lat": 7.6154744, "lon": 49.982973}, {"type": "node", "id": 3134141052, "lat": 7.6820596, "lon": 50.0166608}, {"type": "node", "id": 3134141053, "lat": 7.6965418, "lon": 50.0211873}, {"type": "node", "id": 3134141054, "lat": 7.7314563, "lon": 50.0288427}, {"type": "node", "id": 3134141055, "lat": 7.7808561, "lon": 50.0365272}, {"type": "node", "id": 3134141056, "lat": 7.8166977, "lon": 50.0357876}, {"type": "node", "id": 3134141057, "lat": 7.8656558, "lon": 50.0442318}, {"type": "node", "id": 3134141058, "lat": 7.8904581, "lon": 50.0649977}, {"type": "node", "id": 3134141059, "lat": 7.8955922, "lon": 50.071431}, {"type": "node", "id": 3134141060, "lat": 7.906715, "lon": 50.0813368}, {"type": "node", "id": 3134141061, "lat": 7.9341875, "lon": 50.1094846}, {"type": "node", "id": 3134141062, "lat": 7.9455621, "lon": 50.1273203}, {"type": "node", "id": 3134141063, "lat": 7.9583423, "lon": 50.1561654}, {"type": "node", "id": 3134141064, "lat": 7.9772789, "lon": 50.1870187}, {"type": "node", "id": 3134141065, "lat": 8.015585, "lon": 50.2289982}, {"type": "node", "id": 3134141066, "lat": 8.0380333, "lon": 50.2559115}, {"type": "node", "id": 3134141067, "lat": 8.0558939, "lon": 50.2737066}, {"type": "node", "id": 3134141068, "lat": 8.0676311, "lon": 50.2837794}, {"type": "node", "id": 3134141069, "lat": 8.0884439, "lon": 50.2971884}, {"type": "node", "id": 3134141070, "lat": 8.1062455, "lon": 50.3089151}, {"type": "node", "id": 3134141071, "lat": 8.130528, "lon": 50.320029}, {"type": "node", "id": 3134141072, "lat": 8.1436623, "lon": 50.324574}, {"type": "node", "id": 3134141073, "lat": 8.1683115, "lon": 50.331345}, {"type": "node", "id": 3134141074, "lat": 8.1752831, "lon": 50.3323284}, {"type": "node", "id": 3134141075, "lat": 8.2084819, "lon": 50.3421754}, {"type": "node", "id": 3134141076, "lat": 8.2396597, "lon": 50.3632417}, {"type": "node", "id": 3134141077, "lat": 8.2706048, "lon": 50.3770369}, {"type": "node", "id": 3134141078, "lat": 8.2742682, "lon": 50.3806377}, {"type": "node", "id": 3134141079, "lat": 8.302623, "lon": 50.4002528}, {"type": "node", "id": 3134141080, "lat": 8.3193944, "lon": 50.408843}, {"type": "node", "id": 3134141081, "lat": 8.3540568, "lon": 50.4452029}, {"type": "node", "id": 3134141082, "lat": 8.3864076, "lon": 50.4715621}, {"type": "node", "id": 3134141083, "lat": 8.4389295, "lon": 50.503588}, {"type": "node", "id": 3134141084, "lat": 8.5023202, "lon": 50.5282542}, {"type": "node", "id": 3134141085, "lat": 8.5174503, "lon": 50.5317183}, {"type": "node", "id": 3134141086, "lat": 8.5684083, "lon": 50.5366355}, {"type": "node", "id": 3134141087, "lat": 8.6083771, "lon": 50.5630786}, {"type": "node", "id": 3134141088, "lat": 8.6385572, "lon": 50.57593}, {"type": "node", "id": 3134141089, "lat": 8.6933535, "lon": 50.5875222}, {"type": "node", "id": 3134141090, "lat": 8.7040241, "lon": 50.5926827}, {"type": "node", "id": 3134141091, "lat": 8.7389281, "lon": 50.6042014}, {"type": "node", "id": 3134141092, "lat": 8.7706398, "lon": 50.6093385}, {"type": "node", "id": 3134141093, "lat": 8.7840938, "lon": 50.6190968}, {"type": "node", "id": 3134141094, "lat": 8.8168611, "lon": 50.6585172}, {"type": "node", "id": 3134141095, "lat": 8.8390737, "lon": 50.686245}, {"type": "node", "id": 3134141096, "lat": 8.8733194, "lon": 50.7232501}, {"type": "node", "id": 3134141097, "lat": 8.8866418, "lon": 50.7343134}, {"type": "node", "id": 3134141098, "lat": 8.9017221, "lon": 50.7542057}, {"type": "node", "id": 3134141099, "lat": 8.9112338, "lon": 50.7642233}, {"type": "node", "id": 3134141100, "lat": 8.9527112, "lon": 50.79902}, {"type": "node", "id": 3134141101, "lat": 8.9879661, "lon": 50.8212259}, {"type": "node", "id": 3134141102, "lat": 9.0295597, "lon": 50.8394609}, {"type": "node", "id": 3134141103, "lat": 9.1420629, "lon": 50.87915}, {"type": "node", "id": 3134141104, "lat": 9.1649238, "lon": 50.9018201}, {"type": "node", "id": 3134141105, "lat": 9.1887387, "lon": 50.9196536}, {"type": "node", "id": 3134141106, "lat": 9.2174936, "lon": 50.9394722}, {"type": "node", "id": 3134141107, "lat": 9.2698779, "lon": 50.9759068}, {"type": "node", "id": 3134141108, "lat": 9.3302177, "lon": 51.010833}, {"type": "node", "id": 3134141109, "lat": 9.3489732, "lon": 51.0182861}, {"type": "node", "id": 3134141110, "lat": 9.3828016, "lon": 51.0339844}, {"type": "node", "id": 3134141111, "lat": 9.405554, "lon": 51.0411812}, {"type": "node", "id": 3134141112, "lat": 9.4605146, "lon": 51.0487923}, {"type": "node", "id": 3134141113, "lat": 9.4919734, "lon": 51.0475588}, {"type": "node", "id": 3134141114, "lat": 9.5419193, "lon": 51.036247}, {"type": "node", "id": 3134141115, "lat": 9.5749094, "lon": 51.0207154}, {"type": "node", "id": 3134141116, "lat": 9.5846305, "lon": 51.0140671}, {"type": "node", "id": 3134141117, "lat": 9.606683, "lon": 51.0209608}, {"type": "node", "id": 3134141118, "lat": 9.6438228, "lon": 51.0268795}, {"type": "node", "id": 3134141119, "lat": 9.6534365, "lon": 51.0292518}, {"type": "node", "id": 3134141120, "lat": 9.6804226, "lon": 51.033307}, {"type": "node", "id": 3134141121, "lat": 9.6931896, "lon": 51.033906}, {"type": "node", "id": 3134141122, "lat": 9.713732, "lon": 51.0383034}, {"type": "node", "id": 3134141123, "lat": 9.7342664, "lon": 51.03912}, {"type": "node", "id": 3134141124, "lat": 9.7482009, "lon": 51.0425787}, {"type": "node", "id": 3134141125, "lat": 9.7630241, "lon": 51.0437856}, {"type": "node", "id": 3134141126, "lat": 9.7793424, "lon": 51.0476806}, {"type": "node", "id": 3134141127, "lat": 9.7863069, "lon": 51.0480582}, {"type": "node", "id": 3134141128, "lat": 9.9064383, "lon": 51.0831779}, {"type": "node", "id": 3134141229, "lat": 9.9398194, "lon": 51.095655}, {"type": "node", "id": 3134141230, "lat": 9.9625619, "lon": 51.10062}, {"type": "node", "id": 3134141231, "lat": 9.995358, "lon": 51.1033494}, {"type": "node", "id": 3156386615, "lat": 11.711432, "lon": 43.425311}, {"type": "node", "id": 3165622245, "lat": 3.9251192, "lon": 41.8634766}, {"type": "node", "id": 3186821408, "lat": 3.9318505, "lon": 41.8699088}, {"type": "node", "id": 3186821409, "lat": 3.9339675, "lon": 41.871453}, {"type": "node", "id": 3187186592, "lat": 3.9379501, "lon": 41.8736506}, {"type": "node", "id": 3662716938, "lat": 8.8782268, "lon": 44.3702942}, {"type": "node", "id": 3662716942, "lat": 8.8786499, "lon": 44.3689366}, {"type": "node", "id": 3662716966, "lat": 8.8809545, "lon": 44.3618662}, {"type": "node", "id": 3662716967, "lat": 8.8814766, "lon": 44.3602906}, {"type": "node", "id": 3662716990, "lat": 8.8843321, "lon": 44.3516775}, {"type": "node", "id": 3662729662, "lat": 8.8948733, "lon": 44.3194399}, {"type": "node", "id": 3662729664, "lat": 8.8953162, "lon": 44.3183361}, {"type": "node", "id": 3662729665, "lat": 8.8957786, "lon": 44.3168777}, {"type": "node", "id": 3662729666, "lat": 8.8958785, "lon": 44.3161658}, {"type": "node", "id": 3662729686, "lat": 8.8983971, "lon": 44.3077492}, {"type": "node", "id": 3662729688, "lat": 8.898706, "lon": 44.3068656}, {"type": "node", "id": 3772944993, "lat": -1.3045575, "lon": 41.3418884}, {"type": "node", "id": 3772944998, "lat": -1.3123279, "lon": 41.3476434}, {"type": "node", "id": 3772945012, "lat": -1.3346215, "lon": 41.3641552}, {"type": "node", "id": 3772945025, "lat": -1.3171207, "lon": 41.3511932}, {"type": "node", "id": 3772945035, "lat": -1.3320596, "lon": 41.3622578}, {"type": "node", "id": 3772945056, "lat": -1.3925591, "lon": 41.4070674}, {"type": "node", "id": 3772945058, "lat": -1.3130485, "lon": 41.3481772}, {"type": "node", "id": 3772945072, "lat": -1.3864355, "lon": 41.4025318}, {"type": "node", "id": 4268143250, "lat": 9.6017074, "lon": 43.3301664}, {"type": "node", "id": 4268143251, "lat": 9.6035145, "lon": 43.3217598}, {"type": "node", "id": 4268143252, "lat": 9.6032818, "lon": 43.3159109}, {"type": "node", "id": 4268143253, "lat": 9.6060745, "lon": 43.2982271}, {"type": "node", "id": 4532166688, "lat": 0.2984662, "lon": 40.9943768}, {"type": "node", "id": 4532167215, "lat": 0.3010885, "lon": 40.9943819}, {"type": "node", "id": 5181088497, "lat": 4.4850801, "lon": 47.510357}, {"type": "node", "id": 5248113440, "lat": 3.1613934, "lon": 41.3263517}, {"type": "node", "id": 5518905650, "lat": 3.9955022, "lon": 41.9216341}, {"type": "node", "id": 5518905651, "lat": 3.9959892, "lon": 41.9204539}, {"type": "node", "id": 5518905652, "lat": 3.9961926, "lon": 41.9198209}, {"type": "node", "id": 5518905653, "lat": 3.9961979, "lon": 41.9191021}, {"type": "node", "id": 5518905654, "lat": 3.9962728, "lon": 41.9184422}, {"type": "node", "id": 5518905655, "lat": 3.9964976, "lon": 41.9167042}, {"type": "node", "id": 5518905656, "lat": 3.9962996, "lon": 41.9172192}, {"type": "node", "id": 5518905657, "lat": 3.996214, "lon": 41.917659}, {"type": "node", "id": 5518905658, "lat": 3.9957538, "lon": 41.9133729}, {"type": "node", "id": 5518905659, "lat": 3.9962889, "lon": 41.9137967}, {"type": "node", "id": 5518905660, "lat": 3.9967224, "lon": 41.9144028}, {"type": "node", "id": 5518905661, "lat": 3.9968347, "lon": 41.9148803}, {"type": "node", "id": 5518905662, "lat": 3.996701, "lon": 41.9155937}, {"type": "node", "id": 5518905663, "lat": 3.9933403, "lon": 41.9126648}, {"type": "node", "id": 5518905664, "lat": 3.9946835, "lon": 41.9129705}, {"type": "node", "id": 5518905665, "lat": 3.9906218, "lon": 41.911844}, {"type": "node", "id": 5518905666, "lat": 3.9899903, "lon": 41.9117153}, {"type": "node", "id": 5518905667, "lat": 3.9881066, "lon": 41.9116133}, {"type": "node", "id": 5518905668, "lat": 3.9886364, "lon": 41.911667}, {"type": "node", "id": 5518905669, "lat": 3.9894177, "lon": 41.9116884}, {"type": "node", "id": 5518905670, "lat": 3.9875072, "lon": 41.9114739}, {"type": "node", "id": 5518905671, "lat": 3.986956, "lon": 41.9112754}, {"type": "node", "id": 5518905722, "lat": 3.9598827, "lon": 41.890912}, {"type": "node", "id": 6290457678, "lat": 4.3348512, "lon": 47.8266261}, {"type": "node", "id": 6290673840, "lat": 3.4717453, "lon": 47.0355928}, {"type": "node", "id": 6417408623, "lat": 9.3588813, "lon": 43.5931809}, {"type": "node", "id": 6417408624, "lat": 9.358622, "lon": 43.6083174}, {"type": "node", "id": 6417408625, "lat": 9.3990225, "lon": 43.4863323}, {"type": "node", "id": 6417408626, "lat": 9.4586167, "lon": 43.4347454}, {"type": "node", "id": 6417851060, "lat": 9.3710649, "lon": 43.5574651}, {"type": "node", "id": 6421733392, "lat": 9.0450979, "lon": 43.9509129}, {"type": "node", "id": 6421733393, "lat": 9.0601421, "lon": 43.9348035}, {"type": "node", "id": 6421733394, "lat": 9.0389638, "lon": 43.9581024}, {"type": "node", "id": 6427451295, "lat": 9.0796374, "lon": 43.9148855}, {"type": "node", "id": 6427451296, "lat": 9.0561169, "lon": 43.9396549}, {"type": "node", "id": 6427451480, "lat": 9.1235529, "lon": 43.8702942}, {"type": "node", "id": 6427522391, "lat": 8.9955251, "lon": 44.0064382}, {"type": "node", "id": 7061124720, "lat": 8.8657909, "lon": 44.4078997}, {"type": "node", "id": 7061124721, "lat": 8.863872, "lon": 44.4139411}, {"type": "node", "id": 7061130702, "lat": 8.8677532, "lon": 44.4018673}, {"type": "node", "id": 7061130703, "lat": 8.8703961, "lon": 44.3941597}, {"type": "node", "id": 7067170058, "lat": 8.8921651, "lon": 44.3276083}, {"type": "node", "id": 7067170059, "lat": 8.8896062, "lon": 44.3359015}, {"type": "node", "id": 7909094096, "lat": 8.4703528, "lon": 45.6002341}, {"type": "node", "id": 7909094097, "lat": 8.4712024, "lon": 45.5978975}, {"type": "node", "id": 7909094098, "lat": 8.4306598, "lon": 45.7196234}, {"type": "node", "id": 7909827774, "lat": 8.4707637, "lon": 45.5990713}, {"type": "node", "id": 7909978494, "lat": 8.4710001, "lon": 45.5984781}, {"type": "node", "id": 8405526244, "lat": 11.4602871, "lon": 43.2569738, "tags": {"barrier": "border_control"}}, {"type": "node", "id": 8927106395, "lat": 10.320731, "lon": 42.8168394}, {"type": "node", "id": 9025124153, "lat": 8.2899305, "lon": 46.1435209}, {"type": "node", "id": 9177553321, "lat": 9.8920896, "lon": 43.1088147}, {"type": "node", "id": 9177553322, "lat": 9.8954685, "lon": 43.1018327}, {"type": "node", "id": 9177553329, "lat": 9.8956389, "lon": 43.1016085}, {"type": "node", "id": 9177553330, "lat": 9.8958715, "lon": 43.1013008}, {"type": "node", "id": 9238184489, "lat": 5.6939847, "lon": 45.5739276}, {"type": "node", "id": 9292331131, "lat": 9.6034684, "lon": 43.3223119}, {"type": "node", "id": 10760699772, "lat": 6.2532476, "lon": 46.1955253}, {"type": "node", "id": 10760741242, "lat": 6.2514363, "lon": 46.1933858}, {"type": "node", "id": 10760741331, "lat": 6.2536886, "lon": 46.1960462}, {"type": "node", "id": 10760741385, "lat": 6.2527812, "lon": 46.1949744}, {"type": "node", "id": 10760741389, "lat": 6.2504025, "lon": 46.1921647}, {"type": "node", "id": 11012043039, "lat": -0.120425, "lon": 40.9935391}, {"type": "node", "id": 11012043040, "lat": -0.7948009, "lon": 40.9933761}, {"type": "node", "id": 11057218725, "lat": 2.7349166, "lon": 40.9893948}, {"type": "node", "id": 11057218726, "lat": 3.0120657, "lon": 41.1749439}, {"type": "node", "id": 11057218728, "lat": 3.3836206, "lon": 41.477528}, {"type": "node", "id": 11085449876, "lat": 1.6949165, "lon": 40.9934022}, {"type": "node", "id": 11124891132, "lat": 4.1709853, "lon": 42.0737001}, {"type": "node", "id": 11137843132, "lat": 3.9259408, "lon": 41.8640954}, {"type": "node", "id": 11137843136, "lat": 3.6896872, "lon": 41.6974163}, {"type": "node", "id": 11137843137, "lat": 3.2516128, "lon": 41.3875826}, {"type": "node", "id": 11137843145, "lat": 2.8104187, "lon": 40.9892211}, {"type": "node", "id": 11809915434, "lat": 11.4602351, "lon": 43.2569427}, {"type": "node", "id": 11809921012, "lat": 11.4609101, "lon": 43.2573469}, {"type": "node", "id": 11811734180, "lat": 11.4596486, "lon": 43.2565916}, {"type": "node", "id": 11811734242, "lat": 11.4588248, "lon": 43.2560983}, {"type": "node", "id": 11811734369, "lat": 11.4586833, "lon": 43.2560136}, {"type": "node", "id": 11813496422, "lat": 11.4583409, "lon": 43.2558086}, {"type": "node", "id": 11813496611, "lat": 11.4563717, "lon": 43.2546296}, {"type": "node", "id": 11813496612, "lat": 11.4564766, "lon": 43.2546924}, {"type": "node", "id": 11813496625, "lat": 11.4568557, "lon": 43.2549194}, {"type": "node", "id": 11813496626, "lat": 11.4575013, "lon": 43.2553059}, {"type": "node", "id": 11876837743, "lat": 8.9990997, "lon": 43.9982824}, {"type": "node", "id": 11900396218, "lat": 11.3072199, "lon": 47.7092728}, {"type": "node", "id": 11900396219, "lat": 11.3071708, "lon": 47.7093255}, {"type": "node", "id": 11900396222, "lat": 11.3186442, "lon": 47.8576498}, {"type": "node", "id": 11900396223, "lat": 11.307513, "lon": 47.7107633}, {"type": "node", "id": 12142245469, "lat": 9.3811483, "lon": 43.5178197}, {"type": "node", "id": 12144545872, "lat": 9.4742859, "lon": 43.4311209}, {"type": "node", "id": 12144545874, "lat": 9.4744924, "lon": 43.4310285}, {"type": "node", "id": 12152189768, "lat": 9.5767746, "lon": 43.3664204}, {"type": "way", "id": 31304888, "nodes": [3134140786, 11809921012, 8405526244, 11809915434, 11811734180, 11811734242, 11811734369, 11813496422, 11813496626, 11813496625, 11813496612, 11813496611, 348312243], "tags": {"admin_level": "2", "border_type": "nation", "boundary": "administrative", "left:country": "\u0627\u0644\u0635\u0648\u0645\u0627\u0644", "name": "\u062c\u064a\u0628\u0648\u062a\u064a - \u062c\u0645\u0647\u0648\u0631\u064a\u0629 \u0635\u0648\u0645\u0627\u0644\u064a\u0644\u0627\u0646\u062f", "name:aa": "Gabuutih - Soomaaliland Ummuuno", "name:ar": "\u062c\u064a\u0628\u0648\u062a\u064a -\u062c\u0645\u0647\u0648\u0631\u064a\u0629 \u0635\u0648\u0645\u0627\u0644\u064a\u0644\u0627\u0646\u062f", "name:en": "Djibouti - Republic of Somaliland", "name:fr": "Djibouti - Somaliland", "name:so": "Jabuuti - Jamhuuriyadda Soomaaliland", "right:country": "\u062c\u064a\u0628\u0648\u062a\u064a", "right:district": "\u062c\u064a\u0628\u0648\u062a\u064a", "source": "maplibrary.org"}}, {"type": "way", "id": 31304890, "nodes": [348312243, 348310832, 348310837], "tags": {"admin_level": "2", "border_type": "nation", "boundary": "administrative", "left:country": "Somalia", "name": "\u062c\u064a\u0628\u0648\u062a\u064a - \u062c\u0645\u0647\u0648\u0631\u064a\u0629 \u0635\u0648\u0645\u0627\u0644\u064a\u0644\u0627\u0646\u062f", "name:ar": "\u062c\u064a\u0628\u0648\u062a\u064a - \u062c\u0645\u0647\u0648\u0631\u064a\u0629 \u0635\u0648\u0645\u0627\u0644\u064a\u0644\u0627\u0646\u062f", "name:en": "Djibouti - Republic of Somaliland", "name:fr": "Djibouti - Somaliland", "name:so": "Jabuuti - Jamhuuriyadda Soomaaliland", "right:country": "Djibouti", "right:district": "Ali Sabieh", "source": "maplibrary.org"}}, {"type": "way", "id": 31307142, "nodes": [348310837, 348353044, 348353050, 348353054, 348353060, 348353068, 348353073, 348353078, 348353083, 348353090, 348353094, 348353099, 348353105, 348353111, 348353117, 348353122, 348353128, 348353133, 348353141, 348353148, 348353155, 348353159, 348353161, 348353163, 8927106395, 1406050869], "tags": {"admin_level": "2", "border_type": "nation", "boundary": "administrative", "left:country": "Somalia", "name": "Ethiopia - \u0635\u0648\u0645\u0627\u0644\u064a\u0644\u0627\u0646\u062f", "name:ar": "\u0625\u062b\u064a\u0648\u0628\u064a\u0627 - \u0635\u0648\u0645\u0627\u0644\u064a\u0644\u0627\u0646\u062f", "name:en": "Ethiopia - Somaliland", "name:fr": "\u00c9thiopie - Somaliland", "right:country": "Ethiopia", "right:state": "Somali", "source": "maplibrary.org"}}, {"type": "way", "id": 31316551, "nodes": [348404788, 5518905722, 3187186592, 348404793, 3186821409, 377819849, 3186821408, 2533888087, 11137843132], "tags": {"admin_level": "2", "border_type": "nation", "boundary": "administrative", "left:country": "\u0627\u0644\u0635\u0648\u0645\u0627\u0644", "name": "Kenya - \u0627\u0644\u0635\u0648\u0645\u0627\u0644", "name:ar": "\u0643\u064a\u0646\u064a\u0627 - \u0627\u0644\u0635\u0648\u0645\u0627\u0644", "name:en": "Kenya - Somalia", "name:fr": "Kenya - Somalie", "right:country": "Kenya", "right:district": "Mandera", "right:province": "North Eastern", "source": "maplibrary.org"}}, {"type": "way", "id": 31316552, "nodes": [348353502, 7061130703, 7061130702, 7061124720, 7061124721, 348404507, 1406057222], "tags": {"admin_level": "2", "border_type": "nation", "boundary": "administrative", "left:country": "\u0627\u0644\u0635\u0648\u0645\u0627\u0644", "name": "Ethiopia - Jamhuuriyadda Soomaaliland", "name:ar": "\u0625\u062b\u064a\u0648\u0628\u064a\u0627 - \u062c\u0645\u0647\u0648\u0631\u064a\u0629 \u0635\u0648\u0645\u0627\u0644\u064a\u0644\u0627\u0646\u062f", "name:en": "Ethiopia - Republic of Somaliland", "name:fr": "\u00c9thiopie - Somaliland", "right:country": "Ethiopia", "right:state": "Somali", "source": "maplibrary.org"}}, {"type": "way", "id": 31886922, "nodes": [357059272, 2544755345], "tags": {"admin_level": "2", "border_type": "nation", "boundary": "administrative", "name": "Kenya - \u0627\u0644\u0635\u0648\u0645\u0627\u0644", "name:ar": "\u0643\u064a\u0646\u064a\u0627 - \u0627\u0644\u0635\u0648\u0645\u0627\u0644", "name:en": "Kenya - Somalia", "name:fr": "Kenya - Somalie"}}, {"type": "way", "id": 31886935, "nodes": [357060538, 11085449876], "tags": {"admin_level": "2", "border_type": "nation", "boundary": "administrative", "left:country": "\u0627\u0644\u0635\u0648\u0645\u0627\u0644", "name": "Kenya - \u0627\u0644\u0635\u0648\u0645\u0627\u0644", "name:ar": "\u0643\u064a\u0646\u064a\u0627 - \u0627\u0644\u0635\u0648\u0645\u0627\u0644", "name:en": "Kenya - Somalia", "name:fr": "Kenya - Somalie", "right:country": "Kenya", "right:district": "Wajir", "right:province": "North Eastern", "source": "maplibrary.org"}}, {"type": "way", "id": 126924833, "nodes": [348404559, 348404593, 348404596, 348404600, 348404603, 348404610, 348404620, 1406056430], "tags": {"admin_level": "2", "border_type": "nation", "boundary": "administrative", "left:country": "\u0627\u0644\u0635\u0648\u0645\u0627\u0644", "name": "Ethiopia - \u0627\u0644\u0635\u0648\u0645\u0627\u0644", "name:ar": "\u0625\u062b\u064a\u0648\u0628\u064a\u0627 - \u0627\u0644\u0635\u0648\u0645\u0627\u0644", "name:en": "Ethiopia - Somalia", "name:fr": "\u00c9thiopie - Somalie", "right:country": "Ethiopia", "right:state": "Somali", "source": "maplibrary.org"}}, {"type": "way", "id": 126924836, "nodes": [1406056407, 348404675, 348404678, 348404681, 348404683, 348404685, 348404687, 348404690, 348404692, 348404694, 348404696, 348404697, 348404698, 348404699, 348404702, 348404703, 1406056341], "tags": {"admin_level": "2", "border_type": "nation", "boundary": "administrative", "left:country": "Somalia", "name": "Ethiopia - \u0627\u0644\u0635\u0648\u0645\u0627\u0644", "name:ar": "\u0625\u062b\u064a\u0648\u0628\u064a\u0627 - \u0627\u0644\u0635\u0648\u0645\u0627\u0644", "name:en": "Ethiopia - Somalia", "name:fr": "\u00c9thiopie - Somalie", "right:country": "Ethiopia", "right:state": "Somali", "source": "maplibrary.org"}}, {"type": "way", "id": 126924840, "nodes": [1406056776, 1406056699], "tags": {"admin_level": "2", "border_type": "nation", "boundary": "administrative", "left:country": "\u0627\u0644\u0635\u0648\u0645\u0627\u0644", "name": "Ethiopia - \u0627\u0644\u0635\u0648\u0645\u0627\u0644", "name:ar": "\u0625\u062b\u064a\u0648\u0628\u064a\u0627 - \u0627\u0644\u0635\u0648\u0645\u0627\u0644", "name:en": "Ethiopia - Somalia", "name:fr": "\u00c9thiopie - Somalie", "right:country": "Ethiopia", "right:state": "Somali", "source": "maplibrary.org"}}, {"type": "way", "id": 126924842, "nodes": [1406056341, 348404704, 348404705, 348404706, 348404707, 348404709, 348404711, 348404713, 348404715, 348404717, 348404720, 348404722, 348404724, 348404727, 348404729, 348404731, 348404733, 348404735, 348404737, 348404739, 348404741, 1406056319], "tags": {"admin_level": "2", "border_type": "nation", "boundary": "administrative", "left:country": "\u0627\u0644\u0635\u0648\u0645\u0627\u0644", "name": "Ethiopia - \u0627\u0644\u0635\u0648\u0645\u0627\u0644", "name:ar": "\u0625\u062b\u064a\u0648\u0628\u064a\u0627 - \u0627\u0644\u0635\u0648\u0645\u0627\u0644", "name:en": "Ethiopia - Somalia", "name:fr": "\u00c9thiopie - Somalie", "right:country": "Ethiopia", "right:state": "Somali", "source": "maplibrary.org"}}, {"type": "way", "id": 126924845, "nodes": [1406056430, 348404623, 348404625, 348404628, 348404630, 348404632, 348404634, 348404636, 348404638, 348404641, 348404643, 348404645, 348404647, 348404650, 348404652, 348404654, 348404657, 348404660, 348404662, 348404666, 348404668, 348404670, 1406056407], "tags": {"admin_level": "2", "border_type": "nation", "boundary": "administrative", "left:country": "Somalia", "name": "Ethiopia - \u0627\u0644\u0635\u0648\u0645\u0627\u0644", "name:ar": "\u0625\u062b\u064a\u0648\u0628\u064a\u0627 - \u0627\u0644\u0635\u0648\u0645\u0627\u0644", "name:en": "Ethiopia - Somalia", "name:fr": "\u00c9thiopie - Somalie", "right:country": "Ethiopia", "right:state": "Somali", "source": "maplibrary.org"}}, {"type": "way", "id": 126924849, "nodes": [1406056319, 348404743, 348404746, 348404748, 348404750, 348404753, 11124891132, 348404755, 2510206687], "tags": {"admin_level": "2", "border_type": "nation", "boundary": "administrative", "left:country": "\u0627\u0644\u0635\u0648\u0645\u0627\u0644", "name": "Ethiopia - \u0627\u0644\u0635\u0648\u0645\u0627\u0644", "name:ar": "\u0625\u062b\u064a\u0648\u0628\u064a\u0627 - \u0627\u0644\u0635\u0648\u0645\u0627\u0644", "name:en": "Ethiopia - Somalia", "name:fr": "\u00c9thiopie - Somalie", "right:country": "Ethiopia", "right:state": "Somali", "source": "maplibrary.org"}}, {"type": "way", "id": 126924853, "nodes": [1406057474, 4268143253, 4268143252, 4268143251, 9292331131, 2470897771, 4268143250, 348353280, 348353282, 348353284, 12152189768, 348353287, 348353290, 348353292, 348353294, 348353296, 348353298, 12144545874, 12144545872, 348353300, 6417408626, 348353303, 348353305, 348353308, 348353310, 348353313, 6417408625, 348353315, 348353318, 12142245469, 348353320, 348353323, 348353326, 6417851060, 1406057394], "tags": {"admin_level": "2", "border_type": "nation", "boundary": "administrative", "left:country": "Somalia", "name": "Ethiopia - Jamhuuriyadda Soomaaliland", "name:ar": "\u0625\u062b\u064a\u0648\u0628\u064a\u0627 - \u062c\u0645\u0647\u0648\u0631\u064a\u0629 \u0635\u0648\u0645\u0627\u0644\u064a\u0644\u0627\u0646\u062f", "name:en": "Ethiopia - Republic of Somaliland", "name:fr": "\u00c9thiopie - Somaliland", "right:country": "Ethiopia", "right:state": "Somali", "source": "maplibrary.org"}}, {"type": "way", "id": 126924859, "nodes": [1406056641, 1406056579], "tags": {"admin_level": "2", "border_type": "nation", "boundary": "administrative", "left:country": "\u0627\u0644\u0635\u0648\u0645\u0627\u0644", "name": "Ethiopia - \u0627\u0644\u0635\u0648\u0645\u0627\u0644", "name:ar": "\u0625\u062b\u064a\u0648\u0628\u064a\u0627 - \u0627\u0644\u0635\u0648\u0645\u0627\u0644", "name:en": "Ethiopia - Somalia", "name:fr": "\u00c9thiopie - Somalie", "right:country": "Ethiopia", "right:state": "Somali", "source": "maplibrary.org"}}, {"type": "way", "id": 126924862, "nodes": [1406057145, 7909094097, 7909978494, 7909827774, 7909094096, 2510212530], "tags": {"admin_level": "2", "border_type": "nation", "boundary": "administrative", "left:country": "\u0627\u0644\u0635\u0648\u0645\u0627\u0644", "name": "Ethiopia - Jamhuuriyadda Soomaaliland", "name:ar": "\u0625\u062b\u064a\u0648\u0628\u064a\u0627 - \u062c\u0645\u0647\u0648\u0631\u064a\u0629 \u0635\u0648\u0645\u0627\u0644\u064a\u0644\u0627\u0646\u062f", "name:en": "Ethiopia - Somaliland", "name:fr": "\u00c9thiopie - Somaliland", "right:country": "Ethiopia", "right:state": "Somali", "source": "maplibrary.org"}}, {"type": "way", "id": 126924865, "nodes": [1406056938, 348404524, 1406056924], "tags": {"admin_level": "2", "border_type": "nation", "boundary": "administrative", "left:country": "\u0627\u0644\u0635\u0648\u0645\u0627\u0644", "name": "Ethiopia - Jamhuuriyadda Soomaaliland", "name:ar": "\u0625\u062b\u064a\u0648\u0628\u064a\u0627 - \u062c\u0645\u0647\u0648\u0631\u064a\u0629 \u0635\u0648\u0645\u0627\u0644\u064a\u0644\u0627\u0646\u062f", "name:en": "Ethiopia - Republic of Somaliland", "name:fr": "\u00c9thiopie - Somaliland", "right:country": "Ethiopia", "right:state": "Somali", "source": "maplibrary.org"}}, {"type": "way", "id": 126924866, "nodes": [1406057222, 348404512, 1406057145], "tags": {"admin_level": "2", "border_type": "nation", "boundary": "administrative", "left:country": "\u0627\u0644\u0635\u0648\u0645\u0627\u0644", "name": "Ethiopia - Jamhuuriyadda Soomaaliland", "name:ar": "\u0625\u062b\u064a\u0648\u0628\u064a\u0627 - \u062c\u0645\u0647\u0648\u0631\u064a\u0629 \u0635\u0648\u0645\u0627\u0644\u064a\u0644\u0627\u0646\u062f", "name:en": "Ethiopia - Republic of Somaliland", "name:fr": "\u00c9thiopie - Somaliland", "right:country": "Ethiopia", "right:state": "Somali", "source": "maplibrary.org"}}, {"type": "way", "id": 126924869, "nodes": [1406056699, 348404535, 1406056641], "tags": {"admin_level": "2", "border_type": "nation", "boundary": "administrative", "left:country": "\u0627\u0644\u0635\u0648\u0645\u0627\u0644", "name": "Ethiopia - \u0627\u0644\u0635\u0648\u0645\u0627\u0644", "name:ar": "\u0625\u062b\u064a\u0648\u0628\u064a\u0627 - \u0627\u0644\u0635\u0648\u0645\u0627\u0644", "name:en": "Ethiopia - Somalia", "name:fr": "\u00c9thiopie - Somalie", "right:country": "Ethiopia", "right:state": "Somali", "source": "maplibrary.org"}}, {"type": "way", "id": 126924873, "nodes": [1406057002, 348404520, 1406056938], "tags": {"admin_level": "2", "border_type": "nation", "boundary": "administrative", "left:country": "\u0627\u0644\u0635\u0648\u0645\u0627\u0644", "name": "Ethiopia - Jamhuuriyadda Soomaaliland", "name:ar": "\u0625\u062b\u064a\u0648\u0628\u064a\u0627 - \u062c\u0645\u0647\u0648\u0631\u064a\u0629 \u0635\u0648\u0645\u0627\u0644\u064a\u0644\u0627\u0646\u062f", "name:en": "Ethiopia - Republic of Somaliland", "name:fr": "\u00c9thiopie - Somaliland", "right:country": "Ethiopia", "right:state": "Somali", "source": "maplibrary.org"}}, {"type": "way", "id": 126924875, "nodes": [1406056579, 1406056577], "tags": {"admin_level": "2", "border_type": "nation", "boundary": "administrative", "left:country": "\u0627\u0644\u0635\u0648\u0645\u0627\u0644", "name": "Ethiopia - \u0627\u0644\u0635\u0648\u0645\u0627\u0644", "name:ar": "\u0625\u062b\u064a\u0648\u0628\u064a\u0627 - \u0627\u0644\u0635\u0648\u0645\u0627\u0644", "name:en": "Ethiopia - Somalia", "name:fr": "\u00c9thiopie - Somalie", "right:country": "Ethiopia", "right:region": "Somali", "source": "maplibrary.org"}}, {"type": "way", "id": 126924878, "nodes": [1406056577, 10760741331, 10760699772, 10760741385, 10760741242, 10760741389, 2510207485], "tags": {"admin_level": "2", "border_type": "nation", "boundary": "administrative", "left:country": "\u0627\u0644\u0635\u0648\u0645\u0627\u0644", "name": "Ethiopia - \u0627\u0644\u0635\u0648\u0645\u0627\u0644", "name:ar": "\u0625\u062b\u064a\u0648\u0628\u064a\u0627 - \u0627\u0644\u0635\u0648\u0645\u0627\u0644", "name:en": "Ethiopia - Somalia", "name:fr": "\u00c9thiopie - Somalie", "right:country": "Ethiopia", "right:state": "Somali", "source": "maplibrary.org"}}, {"type": "way", "id": 126924881, "nodes": [1406050869, 348353165, 348353174, 348353178, 348353180], "tags": {"admin_level": "2", "border_type": "nation", "boundary": "administrative", "left:country": "\u0627\u0644\u0635\u0648\u0645\u0627\u0644", "name": "Ethiopia - \u0635\u0648\u0645\u0627\u0644\u064a\u0644\u0627\u0646\u062f", "name:ar": "\u0625\u062b\u064a\u0648\u0628\u064a\u0627 - \u0635\u0648\u0645\u0627\u0644\u064a\u0644\u0627\u0646\u062f", "name:en": "Ethiopia - Somaliland", "name:fr": "\u00c9thiopie - Somaliland", "right:country": "Ethiopia", "right:state": "Somali", "source": "maplibrary.org"}}, {"type": "way", "id": 126924886, "nodes": [1406057394, 348353330, 348353332, 348353334, 6417408623, 348353336, 6417408624, 348353338, 348353341, 348353343, 348353345, 348353347, 348353350, 348353352, 348353384, 348353390, 348353405, 348353414, 348353424, 348353435, 348353441, 6427451480, 348353445, 348353456, 6427451295, 6421733393, 6427451296, 348353470, 6421733392, 6421733394, 348353472], "tags": {"admin_level": "2", "border_type": "nation", "boundary": "administrative", "left:country": "\u0627\u0644\u0635\u0648\u0645\u0627\u0644", "name": "Ethiopia - Jamhuuriyadda Soomaaliland", "name:ar": "\u0625\u062b\u064a\u0648\u0628\u064a\u0627 - \u062c\u0645\u0647\u0648\u0631\u064a\u0629 \u0635\u0648\u0645\u0627\u0644\u064a\u0644\u0627\u0646\u062f", "name:en": "Ethiopia - Republic of Somaliland", "name:fr": "\u00c9thiopie - Somaliland", "right:country": "Ethiopia", "right:state": "Somali", "source": "maplibrary.org"}}, {"type": "way", "id": 126924891, "nodes": [1406056924, 348404527, 348404531, 1406056776], "tags": {"admin_level": "2", "border_type": "nation", "boundary": "administrative", "left:country": "\u0627\u0644\u0635\u0648\u0645\u0627\u0644", "name": "Ethiopia - \u0627\u0644\u0635\u0648\u0645\u0627\u0644", "name:ar": "\u0625\u062b\u064a\u0648\u0628\u064a\u0627 - \u0627\u0644\u0635\u0648\u0645\u0627\u0644", "name:en": "Ethiopia - Somalia", "name:fr": "\u00c9thiopie - Somalie", "right:country": "Ethiopia", "right:state": "Somali", "source": "maplibrary.org"}}, {"type": "way", "id": 126924895, "nodes": [1406055785, 357060538], "tags": {"admin_level": "2", "border_type": "nation", "boundary": "administrative", "left:country": "\u0627\u0644\u0635\u0648\u0645\u0627\u0644", "name": "Kenya - \u0627\u0644\u0635\u0648\u0645\u0627\u0644", "name:ar": "\u0643\u064a\u0646\u064a\u0627 - \u0627\u0644\u0635\u0648\u0645\u0627\u0644", "name:en": "Kenya - Somalia", "name:fr": "Kenya - Somalie", "right:country": "Kenya", "right:district": "Mandera", "right:province": "North Eastern", "source": "maplibrary.org"}}, {"type": "way", "id": 126924898, "nodes": [1406050160, 348521017, 357059272], "tags": {"admin_level": "2", "border_type": "nation", "boundary": "administrative", "fixme": "position", "left:country": "\u0627\u0644\u0635\u0648\u0645\u0627\u0644", "name": "Kenya - \u0627\u0644\u0635\u0648\u0645\u0627\u0644", "name:ar": "\u0643\u064a\u0646\u064a\u0627 - \u0627\u0644\u0635\u0648\u0645\u0627\u0644", "name:en": "Kenya - Somalia", "name:fr": "Kenya - Somalie", "right:country": "Kenya", "right:district": "Wajir", "right:province": "North Eastern", "source": "maplibrary.org"}}, {"type": "way", "id": 126924899, "nodes": [11057218726, 348520945, 348404576, 11137843145], "tags": {"admin_level": "2", "border_type": "nation", "boundary": "administrative", "left:country": "\u0627\u0644\u0635\u0648\u0645\u0627\u0644", "name": "Kenya - \u0627\u0644\u0635\u0648\u0645\u0627\u0644", "name:ar": "\u0643\u064a\u0646\u064a\u0627 - \u0627\u0644\u0635\u0648\u0645\u0627\u0644", "name:en": "Kenya - Somalia", "name:fr": "Kenya - Somalie", "right:country": "Kenya", "right:district": "Mandera", "right:province": "North Eastern", "source": "maplibrary.org"}}, {"type": "way", "id": 126924902, "nodes": [1406056281, 348404564, 348404799, 348520932, 11137843136], "tags": {"admin_level": "2", "border_type": "nation", "boundary": "administrative", "left:country": "\u0627\u0644\u0635\u0648\u0645\u0627\u0644", "name": "Kenya - \u0627\u0644\u0635\u0648\u0645\u0627\u0644", "name:ar": "\u0643\u064a\u0646\u064a\u0627 - \u0627\u0644\u0635\u0648\u0645\u0627\u0644", "name:en": "Kenya - Somalia", "name:fr": "Kenya - Somalie", "right:country": "Kenya", "right:district": "Mandera", "right:province": "North Eastern", "source": "maplibrary.org"}}, {"type": "way", "id": 126924905, "nodes": [11012043040, 348404585, 348521059, 348521068, 3772944993, 3772944998, 3772945058, 3772945025, 3772945035, 3772945012, 3772945072, 3772945056, 348521080, 348404589, 2662892716], "tags": {"admin_level": "2", "border_type": "nation", "boundary": "administrative", "left:country": "Somalia", "name": "Border Kenya - Somalia", "name:ar": "\u0627\u0644\u062d\u062f\u0648\u062f \u0643\u064a\u0646\u064a\u0627 - \u0627\u0644\u0635\u0648\u0645\u0627\u0644", "right:country": "Kenya", "right:district": "Garissa", "right:province": "North Eastern", "source": "maplibrary.org"}}, {"type": "way", "id": 126925011, "nodes": [1406056280, 6290673840], "tags": {"admin_level": "4", "boundary": "administrative"}}, {"type": "way", "id": 126925016, "nodes": [1406056524, 1406056566], "tags": {"admin_level": "4", "boundary": "administrative"}}, {"type": "way", "id": 126925061, "nodes": [1406056378, 1406056332], "tags": {"admin_level": "4", "boundary": "administrative"}}, {"type": "way", "id": 126925165, "nodes": [1406056473, 1406056513, 1406056524], "tags": {"admin_level": "4", "boundary": "administrative"}}, {"type": "way", "id": 126925191, "nodes": [1406056332, 1406056331, 1406056280], "tags": {"admin_level": "4", "boundary": "administrative"}}, {"type": "way", "id": 126925194, "nodes": [1406056388, 1406056471, 1406056473], "tags": {"admin_level": "4", "boundary": "administrative"}}, {"type": "way", "id": 126925219, "nodes": [1406056819, 1406056821, 1406056718], "tags": {"admin_level": "4", "boundary": "administrative"}}, {"type": "way", "id": 126925231, "nodes": [1406056566, 1406056578, 1406056579], "tags": {"admin_level": "4", "boundary": "administrative", "description": "Regional border between Puntland and Galmudug", "name": "Galmudug - Puntland"}}, {"type": "way", "id": 126925319, "nodes": [1406056608, 1406056614, 1406056586, 1406056566], "tags": {"admin_level": "6", "boundary": "administrative"}}, {"type": "way", "id": 126925347, "nodes": [1406056469, 1406056470, 1406056501], "tags": {"admin_level": "4", "boundary": "administrative"}}, {"type": "way", "id": 126925352, "nodes": [3134140982, 1406152713, 1406056447, 1406056474, 1406056473], "tags": {"admin_level": "6", "boundary": "administrative"}}, {"type": "way", "id": 126925362, "nodes": [1406056452, 1406056431, 1406056416, 1406056378], "tags": {"admin_level": "4", "boundary": "administrative"}}, {"type": "way", "id": 126925371, "nodes": [3134140968, 6290457678], "tags": {"admin_level": "4", "boundary": "administrative", "maritime": "yes"}}, {"type": "way", "id": 126925461, "nodes": [1406056718, 1406056714, 1406056739, 1406056743, 1406056776], "tags": {"admin_level": "4", "boundary": "administrative"}}, {"type": "way", "id": 126925496, "nodes": [1406056469, 1406056456, 1406056445, 1406056453, 1406056452], "tags": {"admin_level": "4", "boundary": "administrative"}}, {"type": "way", "id": 126925537, "nodes": [3134141043, 1406152715], "tags": {"admin_level": "4", "boundary": "administrative", "maritime": "yes"}}, {"type": "way", "id": 126975944, "nodes": [3134141021, 1406152714, 1406056589, 1406056608], "tags": {"admin_level": "6", "boundary": "administrative"}}, {"type": "way", "id": 157708969, "nodes": [3156386615, 3134140887, 3134140883, 3134140878, 3134140873, 1699640260, 1699640257, 3134140855, 3134140847, 3134140840, 3134140823, 3134140810, 3134140800, 3134140791, 3134140780, 1699640208, 3134140760, 3134140753, 3134140743, 3134140735, 3134140732, 3134140730, 3134140728, 1699640178, 3134140726, 3134140723, 3134140721, 3134140716, 3134140714, 3134140712, 1699640167, 3134140703], "tags": {"admin_level": "2", "border_type": "territorial", "boundary": "administrative", "maritime": "yes", "source": "12 nm measured from coastline"}}, {"type": "way", "id": 157708987, "nodes": [3134140786, 3134140804, 3134140858, 3156386615], "tags": {"admin_level": "2", "border_type": "territorial", "boundary": "administrative", "maritime": "yes", "note": "Median line measured from straight baseline of Djioubuti and coastline of Somalia, does not represent an official boundary line. No agreement with Djibouti yet."}}, {"type": "way", "id": 157708992, "nodes": [3134139026, 2662892716], "tags": {"admin_level": "2", "border_type": "territorial", "boundary": "administrative", "maritime": "yes", "source": "Outer Limit of the Exclusive Economic Zone of the Federal Republic of Somalia, 30 June 2014"}}, {"type": "way", "id": 188751991, "nodes": [3134140982, 1993732680, 1699640794, 1699640792, 3134140981, 3134140980, 3134140979, 3134140978, 3134140977, 3134140976, 3134140975, 3134140974, 3134140973, 3134140972, 1699640771, 3134140971, 3134140970, 3134140969, 3134140968], "tags": {"admin_level": "2", "border_type": "territorial", "boundary": "administrative", "maritime": "yes", "source": "12 nm measured from coastline"}}, {"type": "way", "id": 188751992, "nodes": [3134141043, 1993732686, 1699640819, 3134141042, 3134141041, 3134141040, 3134141039, 3134141035, 3134141034, 3134141033, 1699640817, 3134141032, 3134141031, 1699640815, 3134141030, 3134141029, 3134141028, 3134141027, 3134141026, 3134141025, 3134141024, 3134141023, 3134141022, 3134141021], "tags": {"admin_level": "2", "border_type": "territorial", "boundary": "administrative", "maritime": "yes", "source": "12 nm measured from coastline"}}, {"type": "way", "id": 188751993, "nodes": [1406152715, 1406056777, 1406056779, 1406056800, 1406056817, 1406056819], "tags": {"admin_level": "4", "boundary": "administrative"}}, {"type": "way", "id": 188751994, "nodes": [3134141021, 1993732683, 3134141020, 3134141019, 3134141018, 3134141017, 1699640813, 3134141016, 3134141015, 3134141014, 3134141013, 3134141012, 3134141011, 3134141010, 3134141009, 1699640810, 3134141008, 3134141007, 3134141006, 3134141005, 1699640804, 3134141004, 3134141003, 3134141002, 3134141001, 3134141000, 3134140999, 3134140998, 3134140997, 3134140996, 3134140995, 3134140994, 1699640801, 3134140993, 3134140992, 3134140991, 1699640797, 3134140990, 3134140989, 3134140988, 3134140987, 3134140986, 3134140985, 3134140984, 3134140983, 3134140982], "tags": {"admin_level": "2", "border_type": "territorial", "boundary": "administrative", "maritime": "yes", "source": "12 nm measured from coastline"}}, {"type": "way", "id": 188755840, "nodes": [3134140968, 1993763772, 1699640765, 3134140967, 3134140966, 3134140965, 3134140964, 3134140963, 3134140962, 3134140961, 3134140960, 3134140959, 3134140958, 1699640761, 3134140957, 3134140956, 3134140955, 3134140954, 3134140953, 3134140952, 3134140951, 3134140950, 3134140949, 1699640759, 3134140948, 3134140947, 3134140946, 3134140945, 3134140944, 3134140943], "tags": {"admin_level": "2", "border_type": "territorial", "boundary": "administrative", "maritime": "yes", "source": "12 nm measured from coastline"}}, {"type": "way", "id": 188767029, "nodes": [3134140553, 3134140552, 3134140551, 3134140550, 3134140549, 3134140548], "tags": {"admin_level": "2", "border_type": "territorial", "boundary": "administrative", "maritime": "yes", "source": "12 nm measured from coastline"}}, {"type": "way", "id": 188767038, "nodes": [3134140410, 1993934620, 3134140409, 3134140408, 3134140407, 1699640625, 3134140406, 3134140405, 3134140404, 3134140403, 3134140402, 3134140401, 3134140400, 3134140399, 3134140398, 3134140397, 3134140396, 3134140395, 3134140394, 3134140393, 3134140392, 3134140391, 3134140390, 3134140389], "tags": {"admin_level": "2", "border_type": "territorial", "boundary": "administrative", "maritime": "yes", "source": "12 nm measured from coastline"}}, {"type": "way", "id": 188767039, "nodes": [3134140389, 1699640620, 3134140564, 3134140563, 3134140562, 3134140553], "tags": {"admin_level": "2", "border_type": "territorial", "boundary": "administrative", "maritime": "yes", "source": "12 nm measured from coastline"}}, {"type": "way", "id": 188767040, "nodes": [3134140935, 1993934625, 3134140934, 3134140933, 3134140932, 3134140931, 3134140930, 3134140929, 3134140428, 3134140427, 3134140426, 3134140425, 1699640630, 3134140424, 3134140423, 3134140422, 3134140421, 3134140420, 3134140419, 3134140418, 3134140417, 3134140416, 3134140415, 3134140414, 3134140413, 3134140412, 3134140411, 3134140410], "tags": {"admin_level": "2", "border_type": "territorial", "boundary": "administrative", "maritime": "yes", "source": "12 nm measured from coastline"}}, {"type": "way", "id": 188767041, "nodes": [3134140943, 1993934628, 3134140942, 3134140941, 3134140940, 3134140939, 3134140938, 3134140937, 3134140936, 1699640755, 3134140935], "tags": {"admin_level": "2", "border_type": "territorial", "boundary": "administrative", "maritime": "yes", "source": "12 nm measured from coastline"}}, {"type": "way", "id": 188777394, "nodes": [3134140429, 1994053672, 1699640044, 3134139028, 3134139027, 3134138958, 3134138959, 3134138960, 3134138961, 3134138962, 1699639864, 3134138963, 3134138964, 1699639867, 3134138965, 3134138966, 3134138967, 3134138968, 3134138969, 3134138970, 3134138971, 3134138972, 3134138973, 3134138974, 3134138975, 1699639870, 3134138976, 3134138977, 3134138978, 3134138979, 3134138980, 3134138981, 3134138982, 3134138983, 1699639871, 3134138984, 3134138985, 3134138986, 3134138987, 3134138988, 3134138989, 3134138990, 3134138991, 3134138992, 3134138993, 3134138994, 3134138995, 1699639872, 3134138996, 3134138997, 3134138998, 3134138999, 3134139000, 3134139001, 3134139002, 3134139003, 3134139004, 1699639873, 3134139005, 3134139006, 3134139007, 3134139008, 3134139009, 3134139010, 3134139011, 1699639875, 3134139012, 3134139013, 3134139014, 3134139015, 3134139016, 3134139017, 3134139018, 3134139019, 3134139020, 3134139021, 3134139022, 1699639892, 3134139023, 3134139024, 3134139025, 1699639895, 1699639898, 3134139026], "tags": {"admin_level": "2", "border_type": "territorial", "boundary": "administrative", "maritime": "yes", "source": "12 nm measured from coastline"}}, {"type": "way", "id": 188777397, "nodes": [3134140431, 1699640045, 3134140430, 3134140429], "tags": {"admin_level": "2", "border_type": "territorial", "boundary": "administrative", "maritime": "yes", "source": "12 nm measured from coastline"}}, {"type": "way", "id": 188777400, "nodes": [3134138928, 1994053675, 3134138927, 3134138926, 3134138925, 3134138924, 3134138923, 3134138922, 3134138921, 3134138920, 3134138919, 3134138918, 3134138917, 3134138916, 3134138915, 3134138914, 3134140457, 3134140456, 3134140455, 3134140454, 3134140453, 1699640046, 3134140452, 3134140451, 3134140450, 3134140449, 3134140448, 3134140447, 3134140446, 3134140445, 3134140444, 3134140443, 3134140442, 3134140441, 3134140440, 3134140439, 3134140438, 3134140437, 3134140436, 3134140435, 3134140434, 3134140433, 3134140432, 3134140431], "tags": {"admin_level": "2", "border_type": "territorial", "boundary": "administrative", "maritime": "yes", "source": "12 nm measured from coastline"}}, {"type": "way", "id": 188777403, "nodes": [3134140548, 1994053679, 3134140547, 1699640058, 3134140546, 3134140545, 3134140544, 3134140543, 3134140542, 3134140541, 3134140540, 3134140539, 3134140538, 3134140537, 3134140536, 3134140535, 3134140534, 3134140533, 1699640055, 3134140532, 3134140531, 3134140530, 3134140529, 3134138928], "tags": {"admin_level": "2", "border_type": "territorial", "boundary": "administrative", "maritime": "yes", "source": "12 nm measured from coastline"}}, {"type": "way", "id": 190288105, "nodes": [3134141128, 2008857871, 1699640923, 3134141127, 3134141126, 3134141125, 3134141124, 3134141123, 3134141122, 3134141121, 3134141120, 3134141119, 3134141118, 3134141117, 3134141116, 3134141115, 3134141114, 1699640920, 3134141113, 3134141112, 1699640918, 3134141111, 3134141110, 3134141109, 3134141108, 3134141107, 1699640916, 3134141106, 3134141105, 3134141104, 3134141103, 1699640912, 1699640908, 1699640905, 3134141102, 3134141101, 3134141100, 1699640901, 3134141099, 3134141098, 3134141097, 3134141096, 3134141095, 3134141094, 1699640894, 3134141093, 3134141092, 3134141091, 3134141090, 3134141089, 1699640873, 3134141088, 3134141087, 1699640869, 3134141086, 3134141085, 3134141084, 1699640863, 3134141083, 1699640860, 3134141082, 3134141081, 3134141080, 3134141079, 3134141078, 3134141077, 3134141076, 3134141075], "tags": {"admin_level": "2", "border_type": "territorial", "boundary": "administrative", "maritime": "yes", "source": "12 nm measured from coastline"}}, {"type": "way", "id": 190288106, "nodes": [3134140781, 2008857854, 1699640219, 3134140770, 3134140767, 3134140749, 3134140736, 1699640179, 3134140731, 3134140727, 1699640174, 3134140724, 3134140720, 1699640172, 3134140713, 3134140710, 1699640168, 3134140705, 3134140699, 3134140693, 3134140689, 3134140681, 3134140674, 3134140666, 3134140663, 1699640132, 3134140647, 3134140641, 3134140635, 3134140631, 1699640103, 3134140625, 3134140624, 3134140623, 3134140621, 3134140619, 1699640095, 3134140612, 3134140599, 1699640093, 3134140592, 3134140591, 3134140590, 1699640080, 3134140589, 3134140588, 1699640078, 3134140587, 3134140586, 3134140585, 3134140584, 1699640076, 3134140583, 3134140580, 3134140579, 3134140576, 1699640071, 3134140573, 3134140574, 3134140577, 3134140575, 1699640067, 3134140578, 1699640074, 3134140582, 3134140581, 1699640072, 1699640065, 3134140572, 3134140571, 3134140570, 3134140569, 1699640062, 3134141231, 3134141230, 3134141229, 3134141128], "tags": {"admin_level": "2", "border_type": "territorial", "boundary": "administrative", "maritime": "yes", "source": "12 nm measured from coastline"}}, {"type": "way", "id": 190288107, "nodes": [3134141075, 1699640857, 3134141074, 3134141073, 3134141072, 3134141071, 3134141070, 1699640854, 3134141069, 3134141068, 3134141067, 3134141066, 3134141065, 1699640853, 3134141064, 3134141063, 3134141062, 3134141061, 3134141060, 3134141059, 3134141058, 3134141057, 1699640850, 3134141056, 3134141055, 3134141054, 1699640849, 3134141053, 3134141052, 1699640843, 3134141051, 3134141050, 3134141049, 3134141048, 3134141047, 3134141046, 1699640837, 3134141045, 3134141044, 3134141043], "tags": {"admin_level": "2", "border_type": "territorial", "boundary": "administrative", "maritime": "yes", "source": "12 nm measured from coastline"}}, {"type": "way", "id": 190291809, "nodes": [3134140337, 1699640266, 3134140344, 3134140346, 3134140347, 3134140350, 1699640284, 3134140353, 3134140356, 1699640287, 3134140359, 3134140365, 3134140367, 1699640289, 3134140371, 3134140372, 3134140375, 3134140378, 3134140380, 3134140381, 3134140383, 3134140384, 1699640290, 3134140388, 3134140387, 3134140386, 3134140385, 1699640291, 3134140382, 3134140379, 3134140377, 3134140376, 3134140374, 3134140373, 3134140370, 1699640288, 3134140369, 3134140368, 3134140366, 3134140364, 3134140362, 3134140363, 3134140361, 3134140360, 3134140358, 1699640286, 3134140357, 3134140355, 3134140354, 3134140352, 1699640280, 3134140351, 1699640268, 3134140339, 3134140907, 3134140902, 3134140893, 3134140889, 3134140880, 3134140866, 3134140860, 1699640253, 3134140848, 3134140843, 3134140838, 3134140830, 3134140801, 3134140790, 1699640228, 3134140781], "tags": {"admin_level": "2", "border_type": "territorial", "boundary": "administrative", "maritime": "yes", "source": "12 nm measured from coastline"}}, {"type": "way", "id": 190291810, "nodes": [3134140703, 2008931843, 3134140677, 3134140659, 3134140656, 3134140651, 1699640127, 3134140646, 3134140643, 3134140640, 3134140639], "tags": {"admin_level": "2", "border_type": "territorial", "boundary": "administrative", "maritime": "yes", "source": "12 nm measured from coastline"}}, {"type": "way", "id": 190291811, "nodes": [3134140859, 1699640249, 2008931854, 3134140861, 3134140864, 3134140867, 3134140870, 3134140871, 3134140872, 3134140869, 3134140865, 3134140863, 3134140862, 3134140868, 3134140875, 3134140882, 1699640262, 3134140888, 3134140885, 3134140881, 3134140886, 3134140890, 3134140891, 3134140894, 3134140895, 3134140897, 3134140900, 3134140903, 3134140906, 3134140908, 3134140911, 3134140337], "tags": {"admin_level": "2", "border_type": "territorial", "boundary": "administrative", "maritime": "yes", "source": "12 nm measured from coastline"}}, {"type": "way", "id": 190291812, "nodes": [3134140779, 2008931849, 1699640212, 3134140787, 3134140792, 3134140793, 3134140796, 3134140802, 3134140805, 3134140806, 1699640223, 3134140815, 3134140820, 3134140826, 3134140834, 3134140835, 3134140832, 3134140833, 3134140836, 3134140837, 1699640241, 3134140851, 3134140852, 3134140857, 3134140859], "tags": {"admin_level": "2", "border_type": "territorial", "boundary": "administrative", "maritime": "yes", "source": "12 nm measured from coastline"}}, {"type": "way", "id": 190294910, "nodes": [3134140613, 3134140602, 3134140597, 1699640097, 3134140600, 3134140596, 3134140595, 3134140594, 3134140593, 3134140598, 3134140601, 3134140603, 3134140604, 3134140607, 1699640099, 3134140609, 3134140608, 3134140610, 3134140606, 3134140605, 3134140611, 3134140614, 3134140617, 3134140618, 3134140622, 3134140626, 1699640107, 3134140627, 3134140628, 3134140629, 3134140632, 3134140633, 1699640115, 3134140638, 3134140642, 3134140644, 3134140645, 3134140648, 1699640129, 3134140649, 3134140650, 3134140652, 3134140653, 1699640119, 3134140654, 3134140655, 3134140657, 3134140658, 3134140661, 3134140668, 3134140669, 3134140675, 1699640137, 3134140678, 3134140680, 3134140690, 3134140691, 3134140696, 3134140700, 1699640152, 3134140706, 1699640156, 3134140707, 1699640154, 3134140701, 3134140697, 3134140694, 3134140692, 1699640143, 3134140682], "tags": {"admin_level": "2", "border_type": "territorial", "boundary": "administrative", "maritime": "yes", "source": "12 nm measured from coastline"}}, {"type": "way", "id": 190294911, "nodes": [3134140639, 3134140637, 3134140636, 3134140634, 1699640111, 3134140630, 3134140620, 3134140613], "tags": {"admin_level": "2", "border_type": "territorial", "boundary": "administrative", "maritime": "yes", "source": "12 nm measured from coastline"}}, {"type": "way", "id": 190294912, "nodes": [3134140682, 2008966171, 3134140679, 3134140685, 3134140687, 3134140686, 3134140688, 1699640145, 3134140683, 1699640140, 3134140672, 3134140670, 3134140664, 1699640124, 3134140660, 3134140662, 3134140665, 3134140667, 3134140671, 3134140673, 3134140676, 3134140684], "tags": {"admin_level": "2", "border_type": "territorial", "boundary": "administrative", "maritime": "yes", "source": "12 nm measured from coastline"}}, {"type": "way", "id": 190294913, "nodes": [3134140739, 2008966179, 3134140742, 3134140738, 3134140740, 3134140747, 1699640186, 3134140750, 3134140752, 3134140754, 1699640197, 3134140765, 3134140769, 3134140773, 3134140778, 3134140783, 3134140784, 3134140789, 1699640216, 3134140794, 3134140799, 3134140798, 3134140809, 3134140816, 3134140817, 3134140819, 3134140818, 3134140821, 3134140822, 1699640235, 3134140825, 3134140824, 1699640238, 3134140812, 3134140807, 3134140803, 3134140795, 3134140785, 3134140782, 3134140779], "tags": {"admin_level": "2", "border_type": "territorial", "boundary": "administrative", "maritime": "yes", "source": "12 nm measured from coastline"}}, {"type": "way", "id": 190294914, "nodes": [3134140684, 2008966173, 1699640148, 3134140695, 3134140698, 3134140702, 3134140704, 3134140708, 3134140709, 3134140711, 1699640170, 3134140715, 3134140717, 3134140718, 3134140719, 3134140722, 3134140725, 1699640176, 3134140729, 3134140733, 3134140748, 3134140756, 3134140758, 3134140766, 3134140771, 3134140774, 3134140776, 3134140777, 3134140775, 3134140772, 3134140768, 1699640200, 3134140759, 1699640202, 3134140762, 3134140764, 3134140763, 3134140761, 1699640205, 3134140757, 3134140755, 3134140751, 3134140745, 11900396218, 11900396219, 11900396223, 1699640183], "tags": {"admin_level": "2", "border_type": "territorial", "boundary": "administrative", "maritime": "yes", "source": "12 nm measured from coastline"}}, {"type": "way", "id": 243641302, "nodes": [11876837743, 6427522391, 348353477, 348353479, 348353482, 348353487, 348353489, 348353492, 348353496, 348353498, 3662729688, 3662729686, 3662729666, 3662729665, 3662729664, 3662729662, 348353500, 7067170058, 7067170059, 3662716990, 3662716967, 3662716966, 3662716942, 3662716938, 348353502], "tags": {"admin_level": "2", "border_type": "nation", "boundary": "administrative", "left:country": "\u0627\u0644\u0635\u0648\u0645\u0627\u0644", "name": "Ethiopia - Jamhuuriyadda Soomaaliland", "name:ar": "\u0625\u062b\u064a\u0648\u0628\u064a\u0627 - \u062c\u0645\u0647\u0648\u0631\u064a\u0629 \u0635\u0648\u0645\u0627\u0644\u064a\u0644\u0627\u0646\u062f", "name:en": "Ethiopia - Republic of Somaliland", "name:fr": "\u00c9thiopie - Somaliland", "right:country": "Ethiopia", "right:state": "Somali", "source": "maplibrary.org"}}, {"type": "way", "id": 243641303, "nodes": [2510206687, 348404757, 348404759, 348404762, 348404764, 348404765, 348404766, 348404767, 348404768, 348404769, 348404770, 348404774, 348404776, 348404777, 348404779, 348404781, 5518905650, 5518905651, 5518905652, 5518905653, 5518905654, 5518905657, 5518905656, 5518905655, 5518905662, 5518905661, 5518905660, 5518905659, 5518905658, 5518905664, 5518905663, 348404783, 5518905665, 5518905666, 5518905669, 5518905668, 5518905667, 5518905670, 5518905671, 348404785, 348404788], "tags": {"admin_level": "2", "border_type": "nation", "boundary": "administrative", "left:country": "\u0627\u0644\u0635\u0648\u0645\u0627\u0644", "name": "Ethiopia - \u0627\u0644\u0635\u0648\u0645\u0627\u0644", "name:ar": "\u0625\u062b\u064a\u0648\u0628\u064a\u0627 - \u0627\u0644\u0635\u0648\u0645\u0627\u0644", "name:en": "Ethiopia - Somalia", "name:fr": "\u00c9thiopie - Somalie", "right:country": "Ethiopia", "right:state": "Somali", "source": "maplibrary.org"}}, {"type": "way", "id": 243641304, "nodes": [2510207485, 9238184489], "tags": {"admin_level": "2", "border_type": "nation", "boundary": "administrative", "left:country": "\u0627\u0644\u0635\u0648\u0645\u0627\u0644", "name": "Ethiopia - \u0627\u0644\u0635\u0648\u0645\u0627\u0644", "name:ar": "\u0625\u062b\u064a\u0648\u0628\u064a\u0627 - \u0627\u0644\u0635\u0648\u0645\u0627\u0644", "name:en": "Ethiopia - Somalia", "name:fr": "\u00c9thiopie - Somalie", "right:country": "Ethiopia", "right:state": "Somali", "source": "maplibrary.org"}}, {"type": "way", "id": 243641305, "nodes": [2510212530, 7909094098, 9025124153, 348404516, 1406057002], "tags": {"admin_level": "2", "border_type": "nation", "boundary": "administrative", "left:country": "\u0627\u0644\u0635\u0648\u0645\u0627\u0644", "name": "Ethiopia - Jamhuuriyadda Soomaaliland", "name:ar": "\u0625\u062b\u064a\u0648\u0628\u064a\u0627 - \u062c\u0645\u0647\u0648\u0631\u064a\u0629 \u0635\u0648\u0645\u0627\u0644\u064a\u0644\u0627\u0646\u062f", "name:en": "Ethiopia - Republic of Somaliland", "name:fr": "\u00c9thiopie - Republique du Somaliland", "right:country": "Ethiopia", "right:state": "Somali", "source": "maplibrary.org"}}, {"type": "way", "id": 243641306, "nodes": [348353180, 348353182, 348353185, 348353187, 348353193, 348353202, 348353209, 348353217, 348353228, 348353231, 348353233, 348353235, 348353237, 348353239, 348353242, 348353244, 9177553330, 9177553329, 9177553322, 348353246, 9177553321, 348353250, 348353252, 348353253, 348353254, 348353255, 348353256, 348353257, 348353258, 348353259, 1406057474], "tags": {"admin_level": "2", "border_type": "nation", "boundary": "administrative", "left:country": "\u0627\u0644\u0635\u0648\u0645\u0627\u0644", "name": "Ethiopia - \u0635\u0648\u0645\u0627\u0644\u064a\u0644\u0627\u0646\u062f", "name:ar": "\u0625\u062b\u064a\u0648\u0628\u064a\u0627 - \u0635\u0648\u0645\u0627\u0644\u064a\u0644\u0627\u0646\u062f", "name:en": "Ethiopia - Somaliland", "name:fr": "\u00c9thiopie - Somaliland", "right:country": "Ethiopia", "right:state": "Somali", "source": "maplibrary.org"}}, {"type": "way", "id": 261605196, "nodes": [2544755345, 2672071019, 2672071018, 2672071016, 2672071014, 2672071012, 2672071010, 2672071006, 2275588565, 4532167215, 4532166688, 348521030, 11012043039], "tags": {"admin_level": "2", "border_type": "nation", "boundary": "administrative", "left:country": "\u0627\u0644\u0635\u0648\u0645\u0627\u0644", "name": "Kenya - \u0627\u0644\u0635\u0648\u0645\u0627\u0644", "name:ar": "\u0643\u064a\u0646\u064a\u0627 - \u0627\u0644\u0635\u0648\u0645\u0627\u0644", "name:en": "Kenya - Somalia", "name:fr": "Kenya - Somalie", "right:country": "Kenya", "right:district": "Garissa", "right:province": "North Eastern", "source": "maplibrary.org"}}, {"type": "way", "id": 311030199, "nodes": [3165622245, 348404795, 1406056281], "tags": {"admin_level": "2", "border_type": "nation", "description": "drains and tunnels in Kenya", "layer": "1", "left:country": "\u0627\u0644\u0635\u0648\u0645\u0627\u0644", "name": "Kenya - \u0627\u0644\u0635\u0648\u0645\u0627\u0644", "name:ar": "\u0643\u064a\u0646\u064a\u0627 - \u0627\u0644\u0635\u0648\u0645\u0627\u0644", "name:en": "Kenya - Somalia", "name:fr": "Kenya - Somalie", "right:country": "Kenya", "right:district": "Mandera", "right:province": "North Eastern", "source": "maplibrary.org;aerial imagery", "tunnel": "flooded", "waterway": "drain"}}, {"type": "way", "id": 725688774, "nodes": [6290457678, 1406152712, 1406056380, 5181088497, 1406056386, 1406056388], "tags": {"admin_level": "4", "boundary": "administrative"}}, {"type": "way", "id": 725692056, "nodes": [6290673840, 1406152711, 3134140943], "tags": {"admin_level": "4", "boundary": "administrative", "maritime": "yes"}}, {"type": "way", "id": 1000817706, "nodes": [1406056501, 348404559], "tags": {"admin_level": "2", "border_type": "nation", "boundary": "administrative", "left:country": "\u0627\u0644\u0635\u0648\u0645\u0627\u0644", "name": "Ethiopia - \u0627\u0644\u0635\u0648\u0645\u0627\u0644", "name:ar": "\u0625\u062b\u064a\u0648\u0628\u064a\u0627 - \u0627\u0644\u0635\u0648\u0645\u0627\u0644", "name:en": "Ethiopia - Somalia", "name:fr": "\u00c9thiopie - Somalie", "right:country": "Ethiopia", "right:state": "Somali", "source": "maplibrary.org"}}, {"type": "way", "id": 1000817707, "nodes": [9238184489, 1406056501], "tags": {"admin_level": "2", "border_type": "nation", "boundary": "administrative", "left:country": "\u0627\u0644\u0635\u0648\u0645\u0627\u0644", "name": "Ethiopia - \u0627\u0644\u0635\u0648\u0645\u0627\u0644", "name:ar": "\u0625\u062b\u064a\u0648\u0628\u064a\u0627 - \u0627\u0644\u0635\u0648\u0645\u0627\u0644", "name:en": "Ethiopia - Somalia", "name:fr": "\u00c9thiopie - Somalie", "right:country": "Ethiopia", "right:state": "Somali", "source": "maplibrary.org"}}, {"type": "way", "id": 1185480134, "nodes": [11012043039, 1406047774], "tags": {"admin_level": "2", "border_type": "nation", "boundary": "administrative", "left:country": "\u0627\u0644\u0635\u0648\u0645\u0627\u0644", "name": "Kenya - \u0627\u0644\u0635\u0648\u0645\u0627\u0644", "name:ar": "\u0643\u064a\u0646\u064a\u0627 - \u0627\u0644\u0635\u0648\u0645\u0627\u0644", "name:en": "Kenya - Somalia", "name:fr": "Kenya - Somalie", "right:country": "Kenya", "right:district": "Garissa", "right:province": "North Eastern", "source": "maplibrary.org"}}, {"type": "way", "id": 1185480135, "nodes": [1406047774, 11012043040], "tags": {"admin_level": "2", "border_type": "nation", "boundary": "administrative", "left:country": "Somalia", "name": "Border Kenya - Somalia", "name:ar": "\u0627\u0644\u062d\u062f\u0648\u062f \u0643\u064a\u0646\u064a\u0627 - \u0627\u0644\u0635\u0648\u0645\u0627\u0644", "right:country": "Kenya", "right:district": "Garissa", "right:province": "North Eastern", "source": "maplibrary.org"}}, {"type": "way", "id": 1190881925, "nodes": [11057218725, 1406055785], "tags": {"admin_level": "2", "border_type": "nation", "boundary": "administrative", "left:country": "\u0627\u0644\u0635\u0648\u0645\u0627\u0644", "name": "Kenya - \u0627\u0644\u0635\u0648\u0645\u0627\u0644", "name:ar": "\u0643\u064a\u0646\u064a\u0627 - \u0627\u0644\u0635\u0648\u0645\u0627\u0644", "name:en": "Kenya - Somalia", "name:fr": "Kenya - Somalie", "right:country": "Kenya", "right:district": "Mandera", "right:province": "North Eastern", "source": "maplibrary.org"}}, {"type": "way", "id": 1190881926, "nodes": [1406056079, 11057218726], "tags": {"admin_level": "2", "border_type": "nation", "boundary": "administrative", "left:country": "\u0627\u0644\u0635\u0648\u0645\u0627\u0644", "name": "Kenya - \u0627\u0644\u0635\u0648\u0645\u0627\u0644", "name:ar": "\u0643\u064a\u0646\u064a\u0627 - \u0627\u0644\u0635\u0648\u0645\u0627\u0644", "name:en": "Kenya - Somalia", "name:fr": "Kenya - Somalie", "right:country": "Kenya", "right:district": "Mandera", "right:province": "North Eastern", "source": "maplibrary.org"}}, {"type": "way", "id": 1190881928, "nodes": [11137843137, 5248113440, 348404568, 348404572, 1406056079], "tags": {"admin_level": "2", "border_type": "nation", "boundary": "administrative", "left:country": "\u0627\u0644\u0635\u0648\u0645\u0627\u0644", "name": "Kenya - \u0627\u0644\u0635\u0648\u0645\u0627\u0644", "name:ar": "\u0643\u064a\u0646\u064a\u0627 - \u0627\u0644\u0635\u0648\u0645\u0627\u0644", "name:en": "Kenya - Somalia", "name:fr": "Kenya - Somalie", "right:country": "Kenya", "right:district": "Mandera", "right:province": "North Eastern", "source": "maplibrary.org"}}, {"type": "way", "id": 1194249741, "nodes": [11085449876, 1406050160], "tags": {"admin_level": "2", "border_type": "nation", "boundary": "administrative", "left:country": "\u0627\u0644\u0635\u0648\u0645\u0627\u0644", "name": "Kenya - \u0627\u0644\u0635\u0648\u0645\u0627\u0644", "name:ar": "\u0643\u064a\u0646\u064a\u0627 - \u0627\u0644\u0635\u0648\u0645\u0627\u0644", "name:en": "Kenya - Somalia", "name:fr": "Kenya - Somalie", "right:country": "Kenya", "right:district": "Wajir", "right:province": "North Eastern", "source": "maplibrary.org"}}, {"type": "way", "id": 1201267291, "nodes": [11137843132, 3165622245], "tags": {"admin_level": "2", "border_type": "nation", "boundary": "administrative", "left:country": "\u0627\u0644\u0635\u0648\u0645\u0627\u0644", "name": "Kenya - \u0627\u0644\u0635\u0648\u0645\u0627\u0644", "name:ar": "\u0643\u064a\u0646\u064a\u0627 - \u0627\u0644\u0635\u0648\u0645\u0627\u0644", "name:en": "Kenya - Somalia", "name:fr": "Kenya - Somalie", "right:country": "Kenya", "right:district": "Mandera", "right:province": "North Eastern", "source": "maplibrary.org"}}, {"type": "way", "id": 1201267300, "nodes": [11137843136, 348520903, 11057218728], "tags": {"admin_level": "2", "border_type": "nation", "boundary": "administrative", "left:country": "\u0627\u0644\u0635\u0648\u0645\u0627\u0644", "name": "Kenya - \u0627\u0644\u0635\u0648\u0645\u0627\u0644", "name:ar": "\u0643\u064a\u0646\u064a\u0627 - \u0627\u0644\u0635\u0648\u0645\u0627\u0644", "name:en": "Kenya - Somalia", "name:fr": "Kenya - Somalie", "right:country": "Kenya", "right:district": "Mandera", "right:province": "North Eastern", "source": "maplibrary.org"}}, {"type": "way", "id": 1201267302, "nodes": [11057218728, 348520916, 11137843137], "tags": {"admin_level": "2", "border_type": "nation", "boundary": "administrative", "left:country": "\u0627\u0644\u0635\u0648\u0645\u0627\u0644", "name": "Kenya - \u0627\u0644\u0635\u0648\u0645\u0627\u0644", "name:ar": "\u0643\u064a\u0646\u064a\u0627 - \u0627\u0644\u0635\u0648\u0645\u0627\u0644", "name:en": "Kenya - Somalia", "name:fr": "Kenya - Somalie", "right:country": "Kenya", "right:district": "Mandera", "right:province": "North Eastern", "source": "maplibrary.org"}}, {"type": "way", "id": 1201267309, "nodes": [11137843145, 11057218725], "tags": {"admin_level": "2", "border_type": "nation", "boundary": "administrative", "left:country": "\u0627\u0644\u0635\u0648\u0645\u0627\u0644", "name": "Kenya - \u0627\u0644\u0635\u0648\u0645\u0627\u0644", "name:ar": "\u0643\u064a\u0646\u064a\u0627 - \u0627\u0644\u0635\u0648\u0645\u0627\u0644", "name:en": "Kenya - Somalia", "name:fr": "Kenya - Somalie", "right:country": "Kenya", "right:district": "Mandera", "right:province": "North Eastern", "source": "maplibrary.org"}}, {"type": "way", "id": 1218014087, "nodes": [1699640183, 3134140744, 3134140741, 3134140737, 11900396222, 3134140739], "tags": {"admin_level": "2", "border_type": "territorial", "boundary": "administrative", "maritime": "yes", "source": "12 nm measured from coastline"}}, {"type": "way", "id": 1315088563, "nodes": [348353472, 348353475, 11876837743], "tags": {"admin_level": "2", "border_type": "nation", "boundary": "administrative", "left:country": "\u0627\u0644\u0635\u0648\u0645\u0627\u0644", "name": "Ethiopia - Jamhuuriyadda Soomaaliland", "name:ar": "\u0625\u062b\u064a\u0648\u0628\u064a\u0627 - \u062c\u0645\u0647\u0648\u0631\u064a\u0629 \u0635\u0648\u0645\u0627\u0644\u064a\u0644\u0627\u0646\u062f", "name:en": "Ethiopia - Republic of Somaliland", "name:fr": "\u00c9thiopie - Somaliland", "right:country": "Ethiopia", "right:state": "Somali", "source": "maplibrary.org"}}, {"type": "relation", "id": 192799, "members": [{"type": "node", "ref": 34684808, "role": "admin_centre"}, {"type": "node", "ref": 424317039, "role": "label"}, {"type": "way", "ref": 126924853, "role": "outer"}, {"type": "way", "ref": 126924886, "role": "outer"}, {"type": "way", "ref": 1315088563, "role": "outer"}, {"type": "way", "ref": 243641302, "role": "outer"}, {"type": "way", "ref": 31316552, "role": "outer"}, {"type": "way", "ref": 126924866, "role": "outer"}, {"type": "way", "ref": 126924862, "role": "outer"}, {"type": "way", "ref": 243641305, "role": "outer"}, {"type": "way", "ref": 126924873, "role": "outer"}, {"type": "way", "ref": 126924865, "role": "outer"}, {"type": "way", "ref": 126924891, "role": "outer"}, {"type": "way", "ref": 126924840, "role": "outer"}, {"type": "way", "ref": 126924869, "role": "outer"}, {"type": "way", "ref": 126924859, "role": "outer"}, {"type": "way", "ref": 126924875, "role": "outer"}, {"type": "way", "ref": 126924878, "role": "outer"}, {"type": "way", "ref": 243641304, "role": "outer"}, {"type": "way", "ref": 1000817707, "role": "outer"}, {"type": "way", "ref": 1000817706, "role": "outer"}, {"type": "way", "ref": 126924833, "role": "outer"}, {"type": "way", "ref": 126924845, "role": "outer"}, {"type": "way", "ref": 126924836, "role": "outer"}, {"type": "way", "ref": 126924842, "role": "outer"}, {"type": "way", "ref": 126924849, "role": "outer"}, {"type": "way", "ref": 243641303, "role": "outer"}, {"type": "way", "ref": 31316551, "role": "outer"}, {"type": "way", "ref": 1201267291, "role": "outer"}, {"type": "way", "ref": 311030199, "role": "outer"}, {"type": "way", "ref": 126924902, "role": "outer"}, {"type": "way", "ref": 1201267300, "role": "outer"}, {"type": "way", "ref": 1201267302, "role": "outer"}, {"type": "way", "ref": 1190881928, "role": "outer"}, {"type": "way", "ref": 1190881926, "role": "outer"}, {"type": "way", "ref": 126924899, "role": "outer"}, {"type": "way", "ref": 1201267309, "role": "outer"}, {"type": "way", "ref": 1190881925, "role": "outer"}, {"type": "way", "ref": 126924895, "role": "outer"}, {"type": "way", "ref": 31886935, "role": "outer"}, {"type": "way", "ref": 1194249741, "role": "outer"}, {"type": "way", "ref": 126924898, "role": "outer"}, {"type": "way", "ref": 31886922, "role": "outer"}, {"type": "way", "ref": 261605196, "role": "outer"}, {"type": "way", "ref": 1185480134, "role": "outer"}, {"type": "way", "ref": 1185480135, "role": "outer"}, {"type": "way", "ref": 126924905, "role": "outer"}, {"type": "way", "ref": 157708992, "role": "outer"}, {"type": "way", "ref": 188777394, "role": "outer"}, {"type": "way", "ref": 188777397, "role": "outer"}, {"type": "way", "ref": 188777400, "role": "outer"}, {"type": "way", "ref": 188777403, "role": "outer"}, {"type": "way", "ref": 188767029, "role": "outer"}, {"type": "way", "ref": 188767039, "role": "outer"}, {"type": "way", "ref": 188767038, "role": "outer"}, {"type": "way", "ref": 188767040, "role": "outer"}, {"type": "way", "ref": 188767041, "role": "outer"}, {"type": "way", "ref": 188755840, "role": "outer"}, {"type": "way", "ref": 188751991, "role": "outer"}, {"type": "way", "ref": 188751994, "role": "outer"}, {"type": "way", "ref": 188751992, "role": "outer"}, {"type": "way", "ref": 190288107, "role": "outer"}, {"type": "way", "ref": 190288105, "role": "outer"}, {"type": "way", "ref": 190288106, "role": "outer"}, {"type": "way", "ref": 190291809, "role": "outer"}, {"type": "way", "ref": 190291811, "role": "outer"}, {"type": "way", "ref": 190291812, "role": "outer"}, {"type": "way", "ref": 190294913, "role": "outer"}, {"type": "way", "ref": 1218014087, "role": "outer"}, {"type": "way", "ref": 190294914, "role": "outer"}, {"type": "way", "ref": 190294912, "role": "outer"}, {"type": "way", "ref": 190294910, "role": "outer"}, {"type": "way", "ref": 190294911, "role": "outer"}, {"type": "way", "ref": 190291810, "role": "outer"}, {"type": "way", "ref": 157708969, "role": "outer"}, {"type": "way", "ref": 157708987, "role": "outer"}, {"type": "way", "ref": 31304888, "role": "outer"}, {"type": "way", "ref": 31304890, "role": "outer"}, {"type": "way", "ref": 31307142, "role": "outer"}, {"type": "way", "ref": 126924881, "role": "outer"}, {"type": "way", "ref": 243641306, "role": "outer"}, {"type": "relation", "ref": 3586169, "role": "subarea"}, {"type": "relation", "ref": 1720053, "role": "subarea"}, {"type": "relation", "ref": 13702729, "role": "subarea"}, {"type": "relation", "ref": 13702730, "role": "subarea"}, {"type": "relation", "ref": 13702732, "role": "subarea"}, {"type": "relation", "ref": 13702731, "role": "subarea"}, {"type": "relation", "ref": 13702728, "role": "subarea"}], "tags": {"ISO3166-1": "SO", "ISO3166-1:alpha2": "SO", "ISO3166-1:alpha3": "SOM", "ISO3166-1:numeric": "706", "admin_level": "2", "alt_name:eo": "Somalujo", "boundary": "administrative", "flag": "http://upload.wikimedia.org/wikipedia/commons/a/a0/Flag_of_Somalia.svg", "name": "Soomaaliya \u0627\u0644\u0635\u0648\u0645\u0627\u0644", "name:ace": "Somalia", "name:af": "Somali\u00eb", "name:als": "Somalia", "name:am": "\u1236\u121b\u120a\u12eb", "name:an": "Somalia", "name:ang": "S\u014dmalia", "name:ar": "\u0627\u0644\u0635\u0648\u0645\u0627\u0644", "name:arz": "\u0627\u0644\u0635\u0648\u0645\u0627\u0644", "name:ast": "Somalia", "name:az": "Somali", "name:ba": "\u0421\u043e\u043c\u0430\u043b\u0438", "name:bat-smg": "Suomalis", "name:bcl": "Somalya", "name:be": "\u0421\u0430\u043c\u0430\u043b\u0456", "name:be-tarask": "\u0421\u0430\u043c\u0430\u043b\u0456", "name:bg": "\u0421\u043e\u043c\u0430\u043b\u0438\u044f", "name:bjn": "Somalia", "name:bn": "\u09b8\u09cb\u09ae\u09be\u09b2\u09bf\u09af\u09bc\u09be", "name:bo": "\u0f66\u0f7c\u0f0b\u0f58\u0f0b\u0f63\u0f72\u0f0d", "name:bpy": "\u09b8\u09cb\u09ae\u09be\u09b2\u09bf\u09af\u09bc\u09be", "name:br": "Somalia", "name:bs": "Somalija", "name:bxr": "\u0421\u043e\u043c\u0430\u043b\u0438", "name:ca": "Som\u00e0lia", "name:ce": "\u0421\u043e\u043c\u0430\u043b\u0438", "name:ceb": "Somalia", "name:ckb": "\u0633\u06c6\u0645\u0627\u06b5\u06cc\u0627", "name:crh": "Somaliya", "name:cs": "Som\u00e1lsko", "name:cy": "Somalia", "name:da": "Somalia", "name:de": "Somalia", "name:din": "Thomalia", "name:diq": "Somalya", "name:dsb": "Somalija", "name:dv": "\u0790\u07af\u0789\u07a7\u078d\u07a8\u0787\u07a7", "name:ee": "Somalia", "name:el": "\u03a3\u03bf\u03bc\u03b1\u03bb\u03af\u03b1", "name:en": "Somalia", "name:eo": "Somalio", "name:es": "Somalia", "name:et": "Somaalia", "name:eu": "Somalia", "name:ext": "Som\u00e1lia", "name:fa": "\u0633\u0648\u0645\u0627\u0644\u06cc", "name:fi": "Somalia", "name:fo": "Somalia", "name:fr": "Somalie", "name:frp": "Somalie", "name:fy": "Somaalje", "name:ga": "An tSom\u00e1il", "name:gag": "Somali", "name:gd": "Som\u00e0ilia", "name:gl": "Somalia", "name:gn": "Som\u00e1lia", "name:gv": "Yn Tomaal", "name:he": "\u05e1\u05d5\u05de\u05dc\u05d9\u05d4", "name:hi": "\u0938\u094b\u092e\u093e\u0932\u093f\u092f\u093e", "name:hif": "Somalia", "name:hr": "Somalija", "name:hsb": "Somalija", "name:ht": "Somali", "name:hu": "Szom\u00e1lia", "name:hy": "\u054d\u0578\u0574\u0561\u056c\u056b", "name:ia": "Somalia", "name:id": "Somalia", "name:ie": "Somalia", "name:ilo": "Somalia", "name:io": "Somalia", "name:is": "S\u00f3mal\u00eda", "name:it": "Somalia", "name:ja": "\u30bd\u30de\u30ea\u30a2", "name:jbo": "somalias", "name:jv": "Somalia", "name:ka": "\u10e1\u10dd\u10db\u10d0\u10da\u10d8", "name:kg": "S\u00f4m\u00e2lia", "name:ki": "Somalia", "name:kk": "\u0421\u043e\u043c\u0430\u043b\u0438", "name:kn": "\u0cb8\u0cca\u0cae\u0cbe\u0cb2\u0cbf\u0caf", "name:ko": "\uc18c\ub9d0\ub9ac\uc544", "name:ku": "Somalya", "name:kw": "Somali", "name:la": "Somalia", "name:lb": "Somalia", "name:li": "Somali\u00eb", "name:lij": "Somalia", "name:lmo": "Sumalia", "name:ln": "Somalia", "name:lt": "Somalis", "name:lv": "Som\u0101lija", "name:lzh": "\u7d22\u99ac\u91cc", "name:mg": "Somalia", "name:mhr": "\u0421\u043e\u043c\u0430\u043b\u0438", "name:mi": "H\u016bm\u0101rie", "name:mk": "\u0421\u043e\u043c\u0430\u043b\u0438\u0458\u0430", "name:ml": "\u0d38\u0d4a\u0d2e\u0d3e\u0d32\u0d3f\u0d2f", "name:mn": "\u0421\u043e\u043c\u0430\u043b\u0438", "name:mr": "\u0938\u094b\u092e\u093e\u0932\u093f\u092f\u093e \u092a\u094d\u0930\u091c\u093e\u0938\u0924\u094d\u0924\u093e\u0915", "name:ms": "Somalia", "name:mt": "Somalja", "name:my": "\u1006\u102d\u102f\u1019\u102c\u101c\u102e\u101a\u102c\u1014\u102d\u102f\u1004\u103a\u1004\u1036", "name:na": "Tomariya", "name:nah": "Somalia", "name:nan": "Somalia", "name:nds": "Somalia", "name:new": "\u0938\u094b\u092e\u093e\u0932\u093f\u092f\u093e", "name:nl": "Somali\u00eb", "name:nn": "Somalia", "name:no": "Somalia", "name:nov": "Somalia", "name:nso": "Somalia", "name:nv": "Soom\u00e1\u00e1lii Bik\u00e9yah", "name:oc": "Somalia", "name:om": "Somaaliyaa", "name:or": "\u0b38\u0b4b\u0b2e\u0b3e\u0b32\u0b3f\u0b06", "name:os": "\u0421\u043e\u043c\u0430\u043b\u0438", "name:pa": "\u0a38\u0a4b\u0a2e\u0a3e\u0a32\u0a40\u0a06", "name:pam": "Somalia", "name:pap": "Somalia", "name:pdc": "Somaali", "name:pl": "Somalia", "name:pms": "Somalia", "name:pnb": "\u0635\u0648\u0645\u0627\u0644\u06cc\u06c1", "name:ps": "\u0633\u0648\u0645\u0627\u0644\u06cc\u0627", "name:pt": "Som\u00e1lia", "name:qu": "Sumalya", "name:rm": "Somalia", "name:ro": "Somalia", "name:ru": "\u0421\u043e\u043c\u0430\u043b\u0438", "name:rw": "Somaliya", "name:sa": "\u0938\u094b\u092e\u093e\u0932\u093f\u092f\u093e", "name:sah": "\u0421\u043e\u043c\u0430\u043b\u0438\u044f", "name:sc": "Som\u00e0lia", "name:scn": "Somalia", "name:sco": "Somalie", "name:se": "Som\u00e1lia", "name:sg": "Somal\u00efi", "name:sh": "Somalija", "name:si": "\u0dc3\u0ddd\u0db8\u0dcf\u0dbd\u0dd2\u0dba\u0dcf\u0dc0", "name:sk": "Som\u00e1lsko", "name:sl": "Somalija", "name:sm": "Somalia", "name:smn": "Somalia", "name:sms": "Somalia", "name:sn": "Somalia", "name:so": "Soomaaliya", "name:so-Osma": "\ud801\udc88\ud801\udc9d\ud801\udc91\ud801\udc9b\ud801\udc90\ud801\udc98\ud801\udc95\ud801\udc96", "name:sq": "Somalia", "name:sr": "\u0421\u043e\u043c\u0430\u043b\u0438\u0458\u0430", "name:ss": "ISomaliya", "name:st": "Somalia", "name:stq": "Somalia", "name:su": "Somalia", "name:sv": "Somalia", "name:sw": "Somalia", "name:szl": "S\u016fmalijo", "name:ta": "\u0b9a\u0bcb\u0bae\u0bbe\u0bb2\u0bbf\u0baf\u0bbe", "name:te": "\u0c38\u0c4a\u0c2e\u0c3e\u0c32\u0c3f\u0c2f\u0c3e", "name:tg": "\u0421\u0443\u043c\u043e\u043b\u04e3", "name:th": "\u0e1b\u0e23\u0e30\u0e40\u0e17\u0e28\u0e42\u0e0b\u0e21\u0e32\u0e40\u0e25\u0e35\u0e22", "name:ti": "\u1236\u121b\u120a\u12eb", "name:tk": "Somali", "name:tl": "Somalya", "name:tr": "Somali", "name:ts": "Somalia", "name:tt": "\u0421\u043e\u043c\u0430\u043b\u0438", "name:tzl": "Somalia", "name:ug": "\u0633\u0648\u0645\u0627\u0644\u0649", "name:uk": "\u0421\u043e\u043c\u0430\u043b\u0456", "name:ur": "\u0635\u0648\u0645\u0627\u0644\u06cc\u06c1", "name:uz": "Somali", "name:vec": "Soma\u0142ia", "name:vi": "Somalia", "name:vo": "Somal\u00e4n", "name:vro": "Somaalia", "name:war": "Somalia", "name:wo": "Somali", "name:wuu": "\u7d22\u9a6c\u91cc", "name:xal": "\u0421\u043e\u043c\u0430\u043b\u043c\u0443\u0434\u0438\u043d \u041e\u0440\u043d", "name:yi": "\u05e1\u05d0\u05de\u05d0\u05dc\u05d9\u05e2", "name:yo": "S\u00f2m\u00e1l\u00ed\u00e0", "name:yue": "\u7d22\u99ac\u91cc", "name:zh": "\u7d22\u9a6c\u91cc", "name:zh-Hans": "\u7d22\u9a6c\u91cc", "name:zh-Hant": "\u7d22\u99ac\u5229\u4e9e", "name:zh-Hant-CN": "\u7d22\u99ac\u91cc", "name:zh-Hant-HK": "\u7d22\u99ac\u91cc", "name:zh-Hant-TW": "\u7d22\u99ac\u5229\u4e9e", "name:zu": "ISomalia", "official_name:cs": "Som\u00e1lsk\u00e1 federativn\u00ed republika", "official_name:en": "Federal Republic of Somalia", "official_name:gn": "Tavakuairet\u00e3 \u00d1embyatypyre Som\u00e1lia", "official_name:pt": "Rep\u00fablica Federal da Som\u00e1lia", "timezone": "Africa/Mogadishu", "type": "boundary", "wikidata": "Q1045", "wikipedia": "ar:\u0627\u0644\u0635\u0648\u0645\u0627\u0644"}}, {"type": "relation", "id": 1720063, "members": [{"type": "way", "ref": 188751991, "role": "outer"}, {"type": "way", "ref": 126925371, "role": "outer"}, {"type": "way", "ref": 725688774, "role": "outer"}, {"type": "way", "ref": 126925194, "role": "outer"}, {"type": "way", "ref": 126925165, "role": "outer"}, {"type": "way", "ref": 126925016, "role": "outer"}, {"type": "way", "ref": 126925231, "role": "outer"}, {"type": "way", "ref": 126924859, "role": "outer"}, {"type": "way", "ref": 126924869, "role": "outer"}, {"type": "way", "ref": 126924840, "role": "outer"}, {"type": "way", "ref": 126925461, "role": "outer"}, {"type": "way", "ref": 126925219, "role": "outer"}, {"type": "way", "ref": 188751993, "role": "outer"}, {"type": "way", "ref": 126925537, "role": "outer"}, {"type": "way", "ref": 188751992, "role": "outer"}, {"type": "way", "ref": 188751994, "role": "outer"}, {"type": "node", "ref": 43528320, "role": "admin_centre"}, {"type": "node", "ref": 2208327708, "role": "label"}], "tags": {"ISO3166-2": "SO-MU", "admin_level": "5", "boundary": "administrative", "name": "Mudug \u0645\u062f\u062c", "name:ar": "\u0645\u062f\u062c", "name:de": "Mudug", "name:en": "Mudug", "name:es": "Mudug", "name:fr": "Mudug", "name:ru": "\u041c\u0443\u0434\u0443\u0433", "name:zh": "\u7a46\u675c\u683c\u5dde", "source": "UN OCHA COD", "type": "boundary", "wikidata": "Q877034", "wikipedia": "ar:\u0645\u062f\u062c"}}, {"type": "relation", "id": 1720111, "members": [{"type": "way", "ref": 188751994, "role": "outer"}, {"type": "way", "ref": 126925352, "role": "outer"}, {"type": "way", "ref": 126925165, "role": "outer"}, {"type": "way", "ref": 126925016, "role": "outer"}, {"type": "way", "ref": 126925319, "role": "outer"}, {"type": "way", "ref": 126975944, "role": "outer"}, {"type": "node", "ref": 313943293, "role": "admin_centre"}], "tags": {"admin_level": "6", "boundary": "administrative", "name": "Hobyo \u0647\u0628\u064a\u0627", "name:ar": "\u0647\u0628\u064a\u0627", "name:en": "Hobyo District", "name:fr": "Hobyo", "name:zh": "\u970d\u6bd4\u5965\u533a", "source": "UN OCHA COD", "type": "boundary", "wikidata": "Q17061979"}}, {"type": "relation", "id": 13702729, "members": [{"type": "way", "ref": 126924859, "role": "outer"}, {"type": "way", "ref": 126924875, "role": "outer"}, {"type": "way", "ref": 126924878, "role": "outer"}, {"type": "way", "ref": 243641304, "role": "outer"}, {"type": "way", "ref": 1000817707, "role": "outer"}, {"type": "way", "ref": 126925347, "role": "outer"}, {"type": "way", "ref": 126925496, "role": "outer"}, {"type": "way", "ref": 126925362, "role": "outer"}, {"type": "way", "ref": 126925061, "role": "outer"}, {"type": "way", "ref": 126925191, "role": "outer"}, {"type": "way", "ref": 126925011, "role": "outer"}, {"type": "way", "ref": 725692056, "role": "outer"}, {"type": "way", "ref": 188755840, "role": "outer"}, {"type": "way", "ref": 188751991, "role": "outer"}, {"type": "way", "ref": 188751994, "role": "outer"}, {"type": "way", "ref": 188751992, "role": "outer"}, {"type": "way", "ref": 126925537, "role": "outer"}, {"type": "way", "ref": 188751993, "role": "outer"}, {"type": "way", "ref": 126925219, "role": "outer"}, {"type": "way", "ref": 126925461, "role": "outer"}, {"type": "way", "ref": 126924840, "role": "outer"}, {"type": "way", "ref": 126924869, "role": "outer"}, {"type": "relation", "ref": 1720056, "role": "subarea"}, {"type": "relation", "ref": 1720063, "role": "subarea"}, {"type": "node", "ref": 43528267, "role": "admin_centre"}], "tags": {"admin_level": "4", "boundary": "administrative", "name": "Galmudug \u063a\u0627\u0645\u062f\u0648\u063a", "name:ar": "\u063a\u0627\u0645\u062f\u0648\u063a", "name:en": "Galmudug", "name:so": "Galmudug", "name:zh": "\u8d3e\u7a46\u675c\u683c", "type": "boundary", "wikidata": "Q927467"}}]}