{"version": 0.6, "generator": "Overpass API 0.7.62.1 084b4234", "osm3s": {"timestamp_osm_base": "2024-09-30T23:26:30Z", "copyright": "The data included in this document is from www.openstreetmap.org. The data is made available under ODbL."}, "elements": [{"type": "node", "id": 43528267, "lat": 5.5355913, "lon": 46.3831085, "tags": {"name": "Dhuusamareeb \u062f\u0648\u0633\u0645\u0631\u064a\u0628", "name:ar": "\u062f\u0648\u0633\u0645\u0631\u064a\u0628", "name:ca": "Dhusa Mareb", "name:de": "Dhuusamarreeb", "name:en": "Dusmareb", "name:fa": "\u0637\u0648\u0633 \u0645\u0631\u06cc\u0628", "name:fi": "Dhuusamarreeb", "name:fr": "Dusmareb", "name:it": "Dusa Mareb", "name:ja": "\u30c9\u30a5\u30b5\u30de\u30ec\u30d6", "name:ko": "\ub450\uc0ac\ub9c8\ub819", "name:nl": "Dhuusa Marreeb", "name:pl": "Dhuusamarreeb", "name:pt": "Dusa Mareb", "name:ro": "Dhuusamarreeb", "name:ru": "\u0414\u0443\u0441\u0430\u043c\u0430\u0440\u0435\u0431", "name:so": "Dhuusamareeb", "name:tr": "Dusamareb", "name:uk": "\u0414\u0443\u0441\u0430\u043c\u0430\u0440\u0435\u0431", "name:ur": "\u062f\u06be\u0648\u0633\u0627 \u0645\u0627\u0631\u0628", "name:zh": "\u675c\u85a9\u99ac\u96f7\u535c", "name:zu": "Dusmareb", "place": "town", "population": "10500", "source:population": "Wikipedia (2000)", "wikidata": "Q634063", "wikipedia": "ar:\u0637\u0648\u0633 \u0645\u0631\u064a\u0628"}}, {"type": "node", "id": 1404226404, "lat": 6.1387154, "lon": 46.6260643, "tags": {"alt_name": "Adaado", "name": "Cadaado", "name:en": "Adado", "name:fa": "\u0627\u062f\u0627\u062f\u0648", "name:fr": "Adado", "name:ru": "\u0410\u0434\u0430\u0434\u043e", "name:uk": "\u0410\u0434\u0430\u0434\u043e", "name:ur": "\u0627\u062f\u0627\u062f\u0648", "name:zh": "\u963f\u8fbe\u591a", "name:zu": "Adado", "pcode": "NB-3808-W03-001", "place": "town", "source": "UNDP - 2006, UNDP - 1997, FSAU", "wikidata": "Q4678352", "wikipedia": "en:Adado"}}, {"type": "node", "id": 1406056445, "lat": 5.0300002, "lon": 46.0400009}, {"type": "node", "id": 1406056452, "lat": 5.0718708, "lon": 46.2288399}, {"type": "node", "id": 1406056453, "lat": 5.0799999, "lon": 46.2299995}, {"type": "node", "id": 1406056456, "lat": 5.1100001, "lon": 45.7099991}, {"type": "node", "id": 1406056461, "lat": 5.1399999, "lon": 46.4900017}, {"type": "node", "id": 1406056468, "lat": 5.1700001, "lon": 47.1100006}, {"type": "node", "id": 1406056469, "lat": 5.1780889, "lon": 45.658802}, {"type": "node", "id": 1406056473, "lat": 5.198132, "lon": 47.6070099}, {"type": "node", "id": 1406056513, "lat": 5.5700002, "lon": 47.4700012}, {"type": "node", "id": 1406056517, "lat": 5.6900001, "lon": 46.2700005}, {"type": "node", "id": 1406056524, "lat": 5.7515678, "lon": 47.3507385}, {"type": "node", "id": 1406056532, "lat": 5.8600001, "lon": 46.7099991}, {"type": "node", "id": 1406056541, "lat": 5.9000001, "lon": 46.4500008}, {"type": "node", "id": 1406056543, "lat": 5.9498056, "lon": 46.6583252}, {"type": "node", "id": 1406056566, "lat": 6.2800002, "lon": 47.5999985}, {"type": "node", "id": 1406056576, "lat": 6.5186805, "lon": 46.5115165}, {"type": "node", "id": 1406056577, "lat": 6.5203314, "lon": 46.5110781}, {"type": "node", "id": 1406056578, "lat": 6.5165248, "lon": 46.5403709}, {"type": "node", "id": 1406056579, "lat": 6.5305194, "lon": 46.5214741}, {"type": "node", "id": 11618768437, "lat": 5.2436829, "lon": 45.7374237}, {"type": "way", "id": 126924875, "nodes": [1406056579, 1406056577], "tags": {"admin_level": "2", "border_type": "nation", "boundary": "administrative", "left:country": "\u0627\u0644\u0635\u0648\u0645\u0627\u0644", "name": "Ethiopia - \u0627\u0644\u0635\u0648\u0645\u0627\u0644", "name:ar": "\u0625\u062b\u064a\u0648\u0628\u064a\u0627 - \u0627\u0644\u0635\u0648\u0645\u0627\u0644", "name:en": "Ethiopia - Somalia", "name:fr": "\u00c9thiopie - Somalie", "right:country": "Ethiopia", "right:region": "Somali", "source": "maplibrary.org"}}, {"type": "way", "id": 126925016, "nodes": [1406056524, 1406056566], "tags": {"admin_level": "4", "boundary": "administrative"}}, {"type": "way", "id": 126925160, "nodes": [1406056524, 1406056532, 1406056543], "tags": {"admin_level": "6", "boundary": "administrative"}}, {"type": "way", "id": 126925165, "nodes": [1406056473, 1406056513, 1406056524], "tags": {"admin_level": "4", "boundary": "administrative"}}, {"type": "way", "id": 126925176, "nodes": [1406056577, 1406056576, 1406056543]}, {"type": "way", "id": 126925231, "nodes": [1406056566, 1406056578, 1406056579], "tags": {"admin_level": "4", "boundary": "administrative", "description": "Regional border between Puntland and Galmudug", "name": "Galmudug - Puntland"}}, {"type": "way", "id": 126925338, "nodes": [1406056543, 1406056541, 1406056517, 11618768437, 1406056469]}, {"type": "way", "id": 126925390, "nodes": [1406056473, 1406056468, 1406056461, 1406056452], "tags": {"admin_level": "6", "boundary": "administrative"}}, {"type": "way", "id": 126925496, "nodes": [1406056469, 1406056456, 1406056445, 1406056453, 1406056452], "tags": {"admin_level": "4", "boundary": "administrative"}}, {"type": "relation", "id": 1720091, "members": [{"type": "way", "ref": 126924875, "role": "outer"}, {"type": "way", "ref": 126925231, "role": "outer"}, {"type": "way", "ref": 126925016, "role": "outer"}, {"type": "way", "ref": 126925160, "role": "outer"}, {"type": "way", "ref": 126925176, "role": "outer"}, {"type": "node", "ref": 1404226404, "role": "admin_centre"}], "tags": {"admin_level": "6", "boundary": "administrative", "name": "Cadaado", "name:en": "Adado District", "name:fr": "Adado", "name:zh": "\u963f\u8fbe\u591a\u533a", "source": "UN OCHA COD", "type": "boundary", "wikidata": "Q4678348"}}, {"type": "relation", "id": 1720100, "members": [{"type": "way", "ref": 126925160, "role": "outer"}, {"type": "way", "ref": 126925165, "role": "outer"}, {"type": "way", "ref": 126925390, "role": "outer"}, {"type": "way", "ref": 126925496, "role": "outer"}, {"type": "way", "ref": 126925338, "role": "outer"}, {"type": "node", "ref": 43528267, "role": "admin_centre"}], "tags": {"admin_level": "6", "boundary": "administrative", "name": "Dhuusamarreeb \u062f\u0648\u0633\u0645\u0631\u064a\u0628", "name:ar": "\u062f\u0648\u0633\u0645\u0631\u064a\u0628", "name:en": "Dhusamareb District", "name:fr": "Dhusamareb", "name:nl": "Dhusamarreeb", "name:ur": "\u062f\u06be\u0648\u0633\u0627 \u0645\u0627\u0631\u0628 \u0636\u0644\u0639", "name:zh": "\u675c\u8428\u9a6c\u96f7\u535c\u533a", "name:zu": "Dusmareb District", "source": "UN OCHA COD", "type": "boundary", "wikidata": "Q5269916", "wikipedia": "en:Dusmareb District"}}]}