{"version": 0.6, "generator": "Overpass API 0.7.62.1 084b4234", "osm3s": {"timestamp_osm_base": "2024-09-30T20:35:43Z", "copyright": "The data included in this document is from www.openstreetmap.org. The data is made available under ODbL."}, "elements": [{"type": "node", "id": 1404221535, "lat": 4.68153, "lon": 46.62342, "tags": {"alt_name": "Elbur", "name": "Ceel Buur", "name:en": "El Buur", "name:fa": "\u0627\u0644\u0628\u0648\u0631", "name:fr": "El Buur", "name:it": "El Bur", "name:pt": "Ceelbuur", "name:ro": "Ceelbuur", "name:ru": "\u042d\u043b\u044c-\u0411\u0443\u0440", "name:tr": "El Buur", "name:ur": "\u0627\u0644\u0628\u0631\u060c \u0634\u06c1\u0631", "name:zu": "El Buur", "pcode": "NB-3816-H03-002", "place": "town", "source": "UNDP - 2006, UNDP - 1997, FSAU", "wikidata": "Q2737496", "wikipedia": "en:El Buur"}}, {"type": "node", "id": 1406056332, "lat": 4.2333331, "lon": 46.3958397}, {"type": "node", "id": 1406056350, "lat": 4.3299999, "lon": 46.7099991}, {"type": "node", "id": 1406056378, "lat": 4.4299998, "lon": 46.1500015}, {"type": "node", "id": 1406056388, "lat": 4.4939079, "lon": 47.5006104}, {"type": "node", "id": 1406056416, "lat": 4.7399998, "lon": 46.1100006}, {"type": "node", "id": 1406056431, "lat": 4.9400001, "lon": 46.2099991}, {"type": "node", "id": 1406056452, "lat": 5.0718708, "lon": 46.2288399}, {"type": "node", "id": 1406056461, "lat": 5.1399999, "lon": 46.4900017}, {"type": "node", "id": 1406056468, "lat": 5.1700001, "lon": 47.1100006}, {"type": "node", "id": 1406056471, "lat": 5.1900001, "lon": 47.6100006}, {"type": "node", "id": 1406056473, "lat": 5.198132, "lon": 47.6070099}, {"type": "way", "id": 126925061, "nodes": [1406056378, 1406056332], "tags": {"admin_level": "4", "boundary": "administrative"}}, {"type": "way", "id": 126925180, "nodes": [1406056388, 1406056350, 1406056332], "tags": {"boundary": "administrative"}}, {"type": "way", "id": 126925194, "nodes": [1406056388, 1406056471, 1406056473], "tags": {"admin_level": "4", "boundary": "administrative"}}, {"type": "way", "id": 126925362, "nodes": [1406056452, 1406056431, 1406056416, 1406056378], "tags": {"admin_level": "4", "boundary": "administrative"}}, {"type": "way", "id": 126925390, "nodes": [1406056473, 1406056468, 1406056461, 1406056452], "tags": {"admin_level": "6", "boundary": "administrative"}}, {"type": "relation", "id": 1720097, "members": [{"type": "way", "ref": 126925194, "role": "outer"}, {"type": "way", "ref": 126925180, "role": "outer"}, {"type": "way", "ref": 126925061, "role": "outer"}, {"type": "way", "ref": 126925362, "role": "outer"}, {"type": "way", "ref": 126925390, "role": "outer"}, {"type": "node", "ref": 1404221535, "role": "admin_centre"}], "tags": {"admin_level": "6", "boundary": "administrative", "name": "Ceel Buur", "name:en": "El Buur District", "name:fr": "El Buur", "name:zh": "\u827e\u52d2\u5e03\u5c14\u533a", "source": "UN OCHA COD", "type": "boundary", "wikidata": "Q5350846"}}]}