{"version": 0.6, "generator": "Overpass API 0.7.62.1 084b4234", "osm3s": {"timestamp_osm_base": "2024-09-30T22:49:29Z", "copyright": "The data included in this document is from www.openstreetmap.org. The data is made available under ODbL."}, "elements": [{"type": "node", "id": 1150881215, "lat": 7.25, "lon": 38.15, "tags": {"is_in:country": "Ethiopia", "is_in:country_code": "ET", "name": "Meja Bota", "place": "locality", "source": "GeoDatabase"}}, {"type": "node", "id": 1150881687, "lat": 7.16667, "lon": 38.18333, "tags": {"is_in:country": "Ethiopia", "is_in:country_code": "ET", "name": "Loke Bota", "place": "locality", "source": "GeoDatabase"}}, {"type": "node", "id": 1150882193, "lat": 7.15, "lon": 38.08333, "tags": {"is_in:country": "Ethiopia", "is_in:country_code": "ET", "name": "Shoni", "place": "locality", "source": "GeoDatabase"}}, {"type": "node", "id": 1150886917, "lat": 7.1407441, "lon": 38.1091659, "tags": {"alt_name": "Robi", "name": "Ropi", "place": "village"}}, {"type": "node", "id": 1150886922, "lat": 7.0651581, "lon": 38.0893785, "tags": {"is_in:country": "Ethiopia", "is_in:country_code": "ET", "name": "T'Ido Hayk'", "place": "locality", "source": "GeoDatabase"}}, {"type": "node", "id": 1150890479, "lat": 7.2983141, "lon": 38.3571239, "tags": {"alt_name": "Agge", "name": "Aje", "place": "village"}}, {"type": "node", "id": 1150892027, "lat": 7.1, "lon": 38.33333, "tags": {"is_in:country": "Ethiopia", "is_in:country_code": "ET", "name": "Urufa", "place": "locality", "source": "GeoDatabase"}}, {"type": "node", "id": 1150892914, "lat": 7.25, "lon": 38.48333, "tags": {"is_in:country": "Ethiopia", "is_in:country_code": "ET", "name": "Bura", "place": "locality", "source": "GeoDatabase"}}, {"type": "node", "id": 1150898161, "lat": 7.1187354, "lon": 38.3326219, "tags": {"is_in:country": "Ethiopia", "is_in:country_code": "ET", "name": "Mek'Besa Bota", "place": "locality", "source": "GeoDatabase"}}, {"type": "node", "id": 1150899153, "lat": 7.16667, "lon": 38.3, "tags": {"is_in:country": "Ethiopia", "is_in:country_code": "ET", "name": "Cassi", "place": "locality", "source": "GeoDatabase"}}, {"type": "node", "id": 1150909673, "lat": 7.0186443, "lon": 38.3323517, "tags": {"name": "Dembara", "place": "village", "source": "GeoDatabase"}}, {"type": "node", "id": 1150917715, "lat": 7.1, "lon": 38.36667, "tags": {"is_in:country": "Ethiopia", "is_in:country_code": "ET", "name": "Mek'Besa", "place": "locality", "source": "GeoDatabase"}}, {"type": "node", "id": 1150933394, "lat": 7.0, "lon": 38.25, "tags": {"is_in:country": "Ethiopia", "is_in:country_code": "ET", "name": "Shamena Bota", "place": "locality", "source": "GeoDatabase"}}, {"type": "node", "id": 1150935010, "lat": 7.1, "lon": 38.08333, "tags": {"is_in:country": "Ethiopia", "is_in:country_code": "ET", "name": "Budamada Hayk'", "place": "locality", "source": "GeoDatabase"}}, {"type": "node", "id": 1150946007, "lat": 7.28333, "lon": 38.23333, "tags": {"is_in:country": "Ethiopia", "is_in:country_code": "ET", "name": "Hak'Uli", "place": "locality", "source": "GeoDatabase"}}, {"type": "node", "id": 1150956872, "lat": 7.03333, "lon": 38.08333, "tags": {"is_in:country": "Ethiopia", "is_in:country_code": "ET", "name": "Bode Ameda Hayk'", "place": "locality", "source": "GeoDatabase"}}, {"type": "node", "id": 1150957066, "lat": 7.1, "lon": 38.18333, "tags": {"is_in:country": "Ethiopia", "is_in:country_code": "ET", "name": "Duguna", "place": "locality", "source": "GeoDatabase"}}, {"type": "node", "id": 1150963563, "lat": 7.1194118, "lon": 38.4684331, "tags": {"is_in:country": "Ethiopia", "is_in:country_code": "ET", "name": "Shala Irsha", "place": "locality", "source": "GeoDatabase"}}, {"type": "node", "id": 1150963615, "lat": 7.18333, "lon": 38.2, "tags": {"is_in:country": "Ethiopia", "is_in:country_code": "ET", "name": "Casieno", "place": "locality", "source": "GeoDatabase"}}, {"type": "node", "id": 1151003917, "lat": 7.08333, "lon": 38.1, "tags": {"is_in:country": "Ethiopia", "is_in:country_code": "ET", "name": "T'Ido Bota", "place": "locality", "source": "GeoDatabase"}}, {"type": "node", "id": 1394787650, "lat": 7.0481029, "lon": 38.47861, "tags": {"admin_level": "8", "capital": "4", "name": "\u1200\u12cb\u1233 / Hawassa", "name:am": "\u12a0\u12cb\u1233", "name:ar": "\u0623\u0648\u0627\u0633\u0627", "name:bg": "\u0410\u0443\u0430\u0441\u0430", "name:ca": "Awasa", "name:da": "Awasa", "name:de": "Awassa", "name:el": "\u0391\u03bf\u03c5\u03ac\u03c3\u03b1", "name:en": "Hawassa", "name:eo": "A\u016dasa", "name:es": "Hawassa", "name:et": "Awasa", "name:eu": "Awasa", "name:fi": "Awasa", "name:fr": "Hawassa", "name:he": "\u05d0\u05d5\u05d5\u05e1\u05d4", "name:hr": "Avasa", "name:hu": "Awassa", "name:hy": "\u0531\u0578\u0582\u0561\u057d\u0561 (\u0584\u0561\u0572\u0561\u0584)", "name:id": "Awasa", "name:it": "Auasa", "name:ja": "\u30a2\u30ef\u30c3\u30b5", "name:ko": "\uc544\uc640\uc0ac", "name:lt": "Avasa", "name:mn": "\u0410\u0443\u0430\u0441\u0430", "name:nl": "Awasa", "name:oc": "Awasa", "name:pl": "Auasa", "name:pt": "Awasa", "name:ro": "Awasa", "name:ru": "\u0410\u0443\u0430\u0441\u0430", "name:sid": "Hawassa", "name:sn": "Awasa", "name:sv": "Awasa", "name:sw": "Awasa", "name:tr": "Awasa", "name:uk": "\u0410\u0432\u0430\u0441\u0430", "name:vi": "Awasa", "name:zh": "\u963f\u74e6\u85a9", "name:zu": "Awasa", "place": "city", "population": "160000", "wikidata": "Q755765", "wikipedia": "en:Hawassa"}}, {"type": "node", "id": 2273066044, "lat": 7.0818986, "lon": 38.2925877, "tags": {"name": "Shamena", "name:en": "Shamena", "place": "village"}}, {"type": "node", "id": 3787309335, "lat": 7.2125647, "lon": 38.2082108, "tags": {"name": "Bode Ameda", "place": "town"}}, {"type": "node", "id": 3855197699, "lat": 7.0887974, "lon": 38.1507653, "tags": {"place": "village"}}, {"type": "node", "id": 3855197958, "lat": 7.0243376, "lon": 38.231698, "tags": {"place": "village"}}, {"type": "node", "id": 4502264561, "lat": 7.0583238, "lon": 38.474418, "tags": {"name": "\u1308\u1260\u12eb", "name:en": "Gebeya", "name:fr": "Gebeya", "place": "neighbourhood"}}, {"type": "node", "id": 4502264562, "lat": 7.0483736, "lon": 38.4875608, "tags": {"name": "\u1218\u1290\u1203\u122a\u12eb / Meneharia", "name:en": "Meneharia", "name:fr": "Meneharia", "note": "Written with: http://translator.abyssinica.com/.", "place": "neighbourhood"}}, {"type": "node", "id": 4502264563, "lat": 7.0493053, "lon": 38.4762902, "tags": {"name": "\u1352\u12eb\u1233", "name:en": "Piassa", "name:fr": "Piassa", "place": "suburb"}}, {"type": "node", "id": 4748306262, "lat": 7.0574018, "lon": 38.4769556, "tags": {"name": "Arab Sefer", "name:en": "Arab Sefer", "place": "neighbourhood"}}, {"type": "node", "id": 4748306264, "lat": 7.0386345, "lon": 38.3572707, "tags": {"name": "Dore", "place": "village"}}, {"type": "node", "id": 4748306265, "lat": 7.1454613, "lon": 38.2404719, "tags": {"name": "Wajira Hudo", "place": "village"}}, {"type": "node", "id": 4772163523, "lat": 7.0952265, "lon": 38.4817236, "tags": {"name": "\u1325\u1241\u122d \u12cd\u1203 / Biishaan Gurachaa", "name:am": "\u1325\u1241\u122d \u12cd\u1203", "name:en": "Biishaan Gurachaa", "name:fr": "Biishaan Gurachaa", "name:om": "Biishaan Gurachaa", "place": "village"}}, {"type": "node", "id": 4778886136, "lat": 7.0415749, "lon": 38.4793747, "tags": {"name": "\u1275\u1229\u134b\u1275 / Trufat", "name:am": "\u1275\u1229\u134b\u1275", "name:en": "Trufat", "name:fr": "Trufat", "place": "neighbourhood"}}, {"type": "node", "id": 4788125164, "lat": 7.0646384, "lon": 38.4816551, "tags": {"name": "Mobil", "place": "neighbourhood"}}, {"type": "node", "id": 6591932015, "lat": 7.3130289, "lon": 38.0878776, "tags": {"name": "\u12a0\u120b\u1263 \u1241\u120a\u1276 / Alaba Kulito", "name:am": "\u12a0\u120b\u1263 \u1241\u120a\u1276", "name:en": "Alaba Kulito", "name:fr": "Alaba Kulito", "place": "town", "wikidata": "Q2829449", "wikipedia": "en:Alaba Kulito"}}, {"type": "node", "id": 11755728183, "lat": 7.0148245, "lon": 38.0926262}, {"type": "node", "id": 11755728184, "lat": 7.0175708, "lon": 38.0941167}, {"type": "node", "id": 11755728185, "lat": 7.0182737, "lon": 38.0933015}, {"type": "node", "id": 11755728186, "lat": 7.0217309, "lon": 38.0951296}, {"type": "node", "id": 11755728187, "lat": 7.0219761, "lon": 38.0939273}, {"type": "node", "id": 11755728188, "lat": 7.0185924, "lon": 38.0921568}, {"type": "node", "id": 11755728189, "lat": 7.0208891, "lon": 38.086483}, {"type": "node", "id": 11755728190, "lat": 7.0193525, "lon": 38.0857665}, {"type": "node", "id": 11755728191, "lat": 7.0165001, "lon": 38.0904851}, {"type": "node", "id": 11755728192, "lat": 7.0154821, "lon": 38.0879735}, {"type": "node", "id": 11755728193, "lat": 7.0134224, "lon": 38.0914651}, {"type": "node", "id": 11755728194, "lat": 7.0166835, "lon": 38.0914816, "tags": {"name": "Worqicha", "name:wal": "Worqqicha", "place": "town"}}, {"type": "way", "id": 1265545529, "nodes": [11755728183, 11755728184, 11755728185, 11755728186, 11755728187, 11755728188, 11755728189, 11755728190, 11755728191, 11755728192, 11755728193, 11755728183], "tags": {"name": "Worqicha", "name:wal": "Worqqicha", "place": "village"}}]}