{"version": 0.6, "generator": "Overpass API 0.7.62.1 084b4234", "osm3s": {"timestamp_osm_base": "2024-11-17T17:52:43Z", "copyright": "The data included in this document is from www.openstreetmap.org. The data is made available under ODbL."}, "elements": [{"type": "node", "id": 34684808, "lat": 2.0349312, "lon": 45.3419183, "tags": {"admin_level": "2", "alt_name": "Xamar", "alt_name:ar": "\u0645\u0642\u062f\u0634\u0648;\u0645\u064e\u0642\u0652\u062f\u064e\u0634\u064f\u0648", "capital": "yes", "ele": "9", "name": "Muqdisho \u0645\u0642\u062f\u064a\u0634\u0648", "name:ace": "Mogadishu", "name:af": "Mogadisjoe", "name:am": "\u121e\u1243\u12f2\u123e", "name:an": "Mogadixo", "name:ar": "\u0645\u0642\u062f\u064a\u0634\u0648", "name:az": "Moqadi\u015fo", "name:azb": "\u0645\u0648\u0642\u0627\u062f\u06cc\u0634\u0648", "name:bcl": "Mogadishu", "name:be": "\u041c\u0430\u0433\u0430\u0434\u044b\u0448\u0430", "name:be-tarask": "\u041c\u0430\u0433\u0430\u0434\u0437\u0456\u0448\u0443", "name:bg": "\u041c\u043e\u0433\u0430\u0434\u0438\u0448\u0443", "name:bn": "\u09ae\u09cb\u0997\u09be\u09a6\u09bf\u09b6\u09c1", "name:bo": "\u0f58\u0f7c\u0f0b\u0f42\u0f0b\u0f51\u0f72\u0f0b\u0f64\u0f74\u0f0d", "name:br": "Muqdisho", "name:bs": "Mogadi\u0161", "name:ca": "Mogadixo", "name:ckb": "\u0645\u06c6\u06af\u0627\u062f\u06cc\u0634\u0648", "name:cs": "Mogadi\u0161u", "name:cy": "Mogadishu", "name:da": "Mogadishu", "name:de": "Mogadischu", "name:el": "\u039c\u03bf\u03b3\u03ba\u03b1\u03bd\u03c4\u03af\u03c3\u03bf\u03c5", "name:en": "Mogadishu", "name:eo": "Mogadi\u015do", "name:es": "Mogadiscio", "name:et": "Muqdisho", "name:eu": "Muqdisho", "name:fa": "\u0645\u0648\u06af\u0627\u062f\u06cc\u0634\u0648", "name:fi": "Mogadishu", "name:fo": "Mogadishu", "name:fr": "Mogadiscio", "name:fy": "Mogadisj\u00fb", "name:ga": "Mogaidisi\u00fa", "name:gd": "Mogadishu", "name:gl": "Mogadixo", "name:grc": "\u039c\u03bf\u03b3\u03b1\u03b4\u03b9\u03c3\u03bf\u03c5\u0390\u03b1", "name:he": "\u05de\u05d5\u05d2\u05d3\u05d9\u05e9\u05d5", "name:hi": "\u092e\u094b\u0917\u093e\u0926\u0940\u0936\u0942", "name:hif": "Mogadishu", "name:hr": "Mogadi\u0161u", "name:ht": "Moukdicho", "name:hu": "Mogadishu", "name:hy": "\u0544\u0578\u0563\u0561\u0564\u056b\u0577\u0578", "name:id": "Mogadishu", "name:ie": "Mogadishu", "name:io": "Mogadishu", "name:is": "M\u00f3gadisj\u00fa", "name:it": "Mogadiscio", "name:ja": "\u30e2\u30ac\u30c7\u30a3\u30b7\u30e5", "name:jv": "Mogadishu", "name:ka": "\u10db\u10dd\u10d2\u10d0\u10d3\u10d8\u10e8\u10dd", "name:kab": "Mugadiccu", "name:kk": "\u041c\u043e\u0433\u0430\u0434\u0438\u0448\u043e \u049b\u0430\u043b\u0430\u0441\u044b", "name:kn": "\u0cae\u0cca\u0c97\u0ca6\u0cbf\u0cb6\u0cc1", "name:ko": "\ubaa8\uac00\ub514\uc288", "name:ku": "Mogad\u00ee\u015fu", "name:ky": "\u041c\u043e\u0433\u0430\u0434\u0438\u0448\u043e", "name:la": "Mogadiscio", "name:lij": "Mogadiscio", "name:lmo": "Mugadiss", "name:lt": "Mogadi\u0161as", "name:lv": "Mogad\u012b\u0161o", "name:mk": "\u041c\u043e\u0433\u0430\u0434\u0438\u0448\u0443", "name:ml": "\u0d2e\u0d4a\u0d17\u0d3e\u0d26\u0d3f\u0d37\u0d41", "name:mr": "\u092e\u094b\u0917\u093e\u0926\u093f\u0936\u0942", "name:ms": "Mogadishu", "name:nan": "Mogadishu", "name:nl": "Mogadishu", "name:nn": "Mogadishu", "name:no": "Mogadishu", "name:nov": "Mogadishu", "name:oc": "Mogadisho", "name:pa": "\u0a2e\u0a15\u0a26\u0a40\u0a38\u0a3c\u0a42", "name:pap": "Mogadishu", "name:pl": "Mogadiszu", "name:pms": "Mogadiss", "name:pnb": "\u0645\u0648\u06af\u0627\u062f\u06cc\u0634\u0648", "name:pt": "Mogad\u00edscio", "name:ro": "Mogadishu", "name:ru": "\u041c\u043e\u0433\u0430\u0434\u0438\u0448\u043e", "name:ru:word_stress": "\u041c\u043e\u0433\u0430\u0434\u0438\u0301\u0448\u043e", "name:rw": "Mogadishu", "name:sco": "Mogadishu", "name:sh": "Mogadishu", "name:simple": "Mogadishu", "name:sk": "Mogadi\u0161o", "name:sl": "Mogadi\u0161", "name:so": "Muqdisho", "name:sr": "\u041c\u043e\u0433\u0430\u0434\u0438\u0448\u0443", "name:sv": "Mogadishu", "name:sw": "Mogadishu", "name:ta": "\u0bae\u0bca\u0b95\u0b9f\u0bbf\u0b9a\u0bc1", "name:tg": "\u041c\u043e\u0433\u0430\u0434\u0438\u0448\u043e", "name:th": "\u0e42\u0e21\u0e01\u0e32\u0e14\u0e34\u0e0a\u0e39", "name:tl": "Mogadishu", "name:tr": "Mogadi\u015fu", "name:udm": "\u041c\u043e\u0433\u0430\u0434\u0438\u0448\u043e", "name:uk": "\u041c\u043e\u0491\u0430\u0434\u0456\u0448\u043e", "name:ur": "\u0645\u0648\u063a\u0627\u062f\u06cc\u0634\u0648", "name:vec": "Mogadiscio", "name:vi": "Mogadishu", "name:war": "Mogadishu", "name:wo": "Mogadisu", "name:yo": "Mogadishu", "name:zh": "\u6469\u52a0\u8fea\u6c99", "place": "city", "population": "2610000", "population:date": "2023", "wikidata": "Q2449", "wikipedia": "ar:\u0645\u0642\u062f\u064a\u0634\u0648"}}, {"type": "node", "id": 36422040, "lat": 2.0262453, "lon": 45.2851999, "tags": {"name": "Wadajir (Medina) / \u0645\u062f\u064a\u0646\u0629 \u0648\u062f\u0627\u062c\u064a\u0631", "name:ar": "\u0645\u062f\u064a\u0646\u0629 \u0648\u062f\u0627\u062c\u064a\u0631", "name:en": "Wadajir", "name:fr": "Wadajir", "place": "suburb"}}, {"type": "node", "id": 36426437, "lat": 2.0502921, "lon": 45.3234437, "tags": {"name": "Howlwadaag \u062d\u0648\u0644 \u0648\u062f\u0627\u0643", "name:ar": "\u062d\u0648\u0644 \u0648\u062f\u0627\u0643", "name:en": "Howlwadaag (Black Sea)", "name:fr": "Hawle Wadag", "place": "suburb"}}, {"type": "node", "id": 36841731, "lat": 2.0389713, "lon": 45.3060531, "tags": {"name": "Hodan \u062d\u0648\u062f\u0627\u0646", "name:ar": "\u062d\u0648\u062f\u0627\u0646", "name:en": "Hodan", "name:fr": "Hodan", "place": "suburb"}}, {"type": "node", "id": 36841732, "lat": 2.0310756, "lon": 45.3217067, "tags": {"name": "Waaberi \u0648\u0627\u0628\u0631\u064a", "name:ar": "\u0648\u0627\u0628\u0631\u064a", "name:en": "Waberi", "name:fr": "Waberi", "place": "suburb"}}, {"type": "node", "id": 36847698, "lat": 2.0291458, "lon": 45.3291332, "tags": {"name": "Xamar Jajab \u062d\u0627\u0645\u0627\u0631 \u062c\u0627\u0628\u0627\u0628", "name:ar": "\u062d\u0627\u0645\u0627\u0631 \u062c\u0627\u0628\u0627\u0628", "name:en": "Hamar Jajab", "name:fr": "Hamar Jajab", "place": "suburb"}}, {"type": "node", "id": 36847699, "lat": 2.0325083, "lon": 45.3389705, "tags": {"name": "Xamar Weyne \u062d\u0627\u0645\u0627\u0631 \u0648\u064a\u0646", "name:ar": "\u062d\u0627\u0645\u0627\u0631 \u0648\u064a\u0646", "name:en": "Xamar Weyne", "name:fr": "Hamar Weyne", "place": "suburb"}}, {"type": "node", "id": 36848806, "lat": 2.0524676, "lon": 45.3319003, "tags": {"name": "Wardhiigley \u0648\u0627\u0631\u062f\u064a\u0643\u0644\u064a\u062a", "name:ar": "\u0648\u0627\u0631\u062f\u064a\u0643\u0644\u064a\u062a", "name:en": "Wardhiigley", "name:fr": "Wardhigley", "place": "suburb"}}, {"type": "node", "id": 36848807, "lat": 2.0568632, "lon": 45.3449224, "tags": {"name": "Yaaqshiid \u064a\u0627\u0642\u0634\u064a\u062f", "name:ar": "\u064a\u0627\u0642\u0634\u064a\u062f", "name:en": "Yaqshid", "name:fr": "Yaqshid", "place": "suburb"}}, {"type": "node", "id": 315095986, "lat": 2.0351521, "lon": 45.3522064, "tags": {"name": "\u0627\u0644\u0645\u0631\u0641\u0623 \u0627\u0644\u0642\u062f\u064a\u0645", "name:ar": "\u0627\u0644\u0645\u0631\u0641\u0623 \u0627\u0644\u0642\u062f\u064a\u0645", "name:en": "Old Harbour", "place": "locality"}}, {"type": "node", "id": 315098533, "lat": 2.0360335, "lon": 45.3476428, "tags": {"name": "Shingaani \u0634\u0627\u0646\u0643\u0627\u0646\u064a", "name:ar": "\u0634\u0627\u0646\u0643\u0627\u0646\u064a", "name:en": "Shingaani", "name:fr": "Shangani", "name:it": "Seingani", "place": "suburb"}}, {"type": "node", "id": 315100496, "lat": 2.0838145, "lon": 45.3866653, "tags": {"name": "Huriwa (Heliwa) / \u062d\u0644\u064a\u0644\u0648\u0627", "name:ar": "\u062d\u0644\u064a\u0644\u0648\u0627", "name:en": "Huriwa", "name:fr": "Huriwa", "place": "suburb"}}, {"type": "node", "id": 315100657, "lat": 2.0528069, "lon": 45.369542, "tags": {"name": "Karan (Kaaraan) \u0643\u0627\u0631\u0627\u0646", "name:ar": "\u0643\u0627\u0631\u0627\u0646", "name:en": "Karan", "name:fr": "Karan", "place": "suburb"}}, {"type": "node", "id": 319263779, "lat": 2.031452, "lon": 45.2642228, "tags": {"alt_name": "Dharkenley", "name": "Dharkeynley \u062f\u0647\u0627\u0631\u0643\u0646\u0644\u064a", "name:ar": "\u062f\u0647\u0627\u0631\u0643\u0646\u0644\u064a", "name:en": "Dharkeynley", "name:fr": "Dharkenley", "place": "suburb"}}, {"type": "node", "id": 319266401, "lat": 2.0576223, "lon": 45.28532, "tags": {"name": "Dagmada Dayniile \u062f\u064a\u0646\u064a\u0644", "name:ar": "\u062f\u064a\u0646\u064a\u0644", "name:en": "Dagmada Dayniile", "name:es": "Daynile District", "name:fr": "Daynile", "place": "suburb"}}, {"type": "node", "id": 1401884988, "lat": 2.021478, "lon": 45.328394, "tags": {"alt_name": "Ras Sif", "gns:modify_date": "2011-04-11", "gns:name:generic": "Raas", "gns:type": "PT", "gns:ufi": "-3229451", "name": "Raas Sif \u0631\u0623\u0633 \u0633\u064a\u0641", "name:ar": "\u0631\u0623\u0633 \u0633\u064a\u0641", "name:en": "Raas Sif", "name:fr": "Ras Sif", "place": "suburb", "source": "GNS"}}, {"type": "node", "id": 1404222371, "lat": 2.159273, "lon": 45.3746449, "tags": {"name": "Aqableey", "pcode": "NA-3807-W09-006", "place": "hamlet"}}, {"type": "node", "id": 1404222734, "lat": 2.17934, "lon": 45.39882, "tags": {"alt_name": "Aliyalo", "name": "Caliyaalo", "pcode": "NA-3807-V09-001", "place": "village"}}, {"type": "node", "id": 1404222763, "lat": 2.1582504, "lon": 45.3974477, "tags": {"alt_name": "Ceel Taliso", "name": "Cel Taliso", "pcode": "NA-3807-W09-005", "place": "village"}}, {"type": "node", "id": 1404224271, "lat": 2.1514528, "lon": 45.3300113, "tags": {"alt_name": "Rat Wayne", "name": "Rati-Wayne", "pcode": "NA-3807-W08-002", "place": "village"}}, {"type": "node", "id": 1404225000, "lat": 2.1593068, "lon": 45.4092368, "tags": {"name": "Gudo Weyn", "pcode": "NA-3807-W09-007", "place": "hamlet"}}, {"type": "node", "id": 1404225362, "lat": 2.1428545, "lon": 45.3785345, "tags": {"name": "Yaq-Carafale", "pcode": "NA-3807-W09-004", "place": "hamlet"}}, {"type": "node", "id": 1404227217, "lat": 2.04045, "lon": 45.36, "tags": {"name": "Cabdulcasiis \u0639\u0628\u062f \u0627\u0644\u0639\u0632\u064a\u0632", "name:ar": "\u0639\u0628\u062f \u0627\u0644\u0639\u0632\u064a\u0632", "name:en": "Abdiaziz", "name:fr": "Abdiaziz", "pcode": "NA-3807-Z08-005", "place": "suburb", "source": "OCHA - 2010"}}, {"type": "node", "id": 1404228215, "lat": 2.1635969, "lon": 45.4007578, "tags": {"alt_name": "Guddo", "name": "Gudo", "pcode": "NA-3807-W09-008", "place": "hamlet"}}, {"type": "node", "id": 1404229793, "lat": 2.13682, "lon": 45.357342, "tags": {"name": "Dabandoob", "pcode": "NA-3807-W08-001", "place": "village"}}, {"type": "node", "id": 1404230136, "lat": 2.16905, "lon": 45.35934, "tags": {"alt_name": "Ceel Cali Doob", "name": "Ceel Alidoob", "pcode": "NA-3807-V08-001", "place": "locality"}}, {"type": "node", "id": 1404230404, "lat": 2.047638, "lon": 45.35, "tags": {"name": "Shibis \u0634\u064a\u0628\u064a\u0633", "name:ar": "\u0634\u064a\u0628\u064a\u0633", "name:en": "Shibis", "name:fr": "Shibis", "pcode": "NA-3807-Y08-004", "place": "suburb", "source": "OCHA - 2010"}}, {"type": "node", "id": 2059657056, "lat": 2.1780381, "lon": 45.5915954, "tags": {"alt_name": "Ceelmacaan", "name": "Ceel-Macaan", "note": "News report here (https://radiorisaala.com/madaxweynaha-hir-shabeelle-oo-gaaray-degaanka/) says this town is considered part of Middle Shabelle, not Banaadir region.", "place": "village"}}, {"type": "node", "id": 2164531478, "lat": 2.0356954, "lon": 45.3323753}, {"type": "node", "id": 2164531484, "lat": 2.0357062, "lon": 45.3316658}, {"type": "node", "id": 2208332175, "lat": 2.0783351, "lon": 45.2805421, "tags": {"name": "Banaadir \u0628\u0646\u0627\u062f\u0631", "name:ar": "\u0628\u0646\u0627\u062f\u0631", "name:en": "Banaadir", "name:fr": "Banaadir", "name:hu": "Banaadir", "name:ru": "\u0411\u0435\u043d\u0430\u0434\u0438\u0440", "place": "state", "ref": "BN", "state_code": "BN", "wikipedia": "ar:\u0628\u0646\u0627\u062f\u0631"}}, {"type": "node", "id": 4924241025, "lat": 2.0539352, "lon": 45.3665817, "tags": {"name:ar": "Xaafada Nageyle", "name:en": "Nageyle Neighborhood", "place": "neighbourhood"}}, {"type": "node", "id": 7260189772, "lat": 2.0361873, "lon": 45.3324102}, {"type": "node", "id": 7260189773, "lat": 2.0362007, "lon": 45.3317195}, {"type": "node", "id": 7879398829, "lat": 2.1738064, "lon": 45.3012918, "tags": {"place": "hamlet"}}, {"type": "node", "id": 7879398835, "lat": 2.1664137, "lon": 45.2993969, "tags": {"place": "hamlet"}}, {"type": "node", "id": 7879398836, "lat": 2.167006, "lon": 45.3021166, "tags": {"place": "isolated_dwelling"}}, {"type": "node", "id": 7879398837, "lat": 2.1668774, "lon": 45.3013683, "tags": {"place": "isolated_dwelling"}}, {"type": "node", "id": 7879398838, "lat": 2.1597322, "lon": 45.3023527, "tags": {"place": "hamlet"}}, {"type": "node", "id": 7879398839, "lat": 2.1537294, "lon": 45.3000416, "tags": {"place": "hamlet"}}, {"type": "node", "id": 7879398840, "lat": 2.1520505, "lon": 45.3017935, "tags": {"place": "isolated_dwelling"}}, {"type": "node", "id": 7879398843, "lat": 2.149535, "lon": 45.3045024, "tags": {"place": "hamlet"}}, {"type": "node", "id": 7879398844, "lat": 2.1542433, "lon": 45.3073289, "tags": {"place": "hamlet"}}, {"type": "node", "id": 7879398845, "lat": 2.1594473, "lon": 45.3065829, "tags": {"place": "isolated_dwelling"}}, {"type": "node", "id": 7879398846, "lat": 2.1588704, "lon": 45.3067861, "tags": {"place": "isolated_dwelling"}}, {"type": "node", "id": 7879398847, "lat": 2.1642105, "lon": 45.3023436, "tags": {"place": "isolated_dwelling"}}, {"type": "node", "id": 7879398849, "lat": 2.1630861, "lon": 45.3050661, "tags": {"place": "hamlet"}}, {"type": "node", "id": 7879398850, "lat": 2.1645521, "lon": 45.3066257, "tags": {"place": "isolated_dwelling"}}, {"type": "node", "id": 7879398851, "lat": 2.1637332, "lon": 45.3064532, "tags": {"place": "isolated_dwelling"}}, {"type": "node", "id": 7879398852, "lat": 2.1624329, "lon": 45.3082732, "tags": {"place": "hamlet"}}, {"type": "node", "id": 7879398854, "lat": 2.1666083, "lon": 45.3067612, "tags": {"place": "isolated_dwelling"}}, {"type": "node", "id": 7879398855, "lat": 2.168036, "lon": 45.3081919, "tags": {"place": "hamlet"}}, {"type": "node", "id": 7879398857, "lat": 2.171166, "lon": 45.3076209, "tags": {"place": "isolated_dwelling"}}, {"type": "node", "id": 7879398858, "lat": 2.1734593, "lon": 45.3038556, "tags": {"place": "isolated_dwelling"}}, {"type": "node", "id": 7879398861, "lat": 2.1737131, "lon": 45.3081238, "tags": {"place": "hamlet"}}, {"type": "node", "id": 7879398864, "lat": 2.1677876, "lon": 45.3118401, "tags": {"place": "hamlet"}}, {"type": "node", "id": 7879398869, "lat": 2.1610628, "lon": 45.3147665, "tags": {"place": "village"}}, {"type": "node", "id": 7879398873, "lat": 2.1588448, "lon": 45.3173929, "tags": {"place": "isolated_dwelling"}}, {"type": "node", "id": 7879398884, "lat": 2.1534401, "lon": 45.3127601, "tags": {"place": "hamlet"}}, {"type": "node", "id": 7879553285, "lat": 2.1520488, "lon": 45.3152743, "tags": {"place": "hamlet"}}, {"type": "node", "id": 7879553286, "lat": 2.1521467, "lon": 45.309502, "tags": {"place": "hamlet"}}, {"type": "node", "id": 7879553287, "lat": 2.1538936, "lon": 45.3092274, "tags": {"place": "hamlet"}}, {"type": "node", "id": 7879553288, "lat": 2.151177, "lon": 45.3195349, "tags": {"place": "hamlet"}}, {"type": "node", "id": 7879553289, "lat": 2.154774, "lon": 45.3170399, "tags": {"place": "hamlet"}}, {"type": "node", "id": 7879553293, "lat": 2.1580151, "lon": 45.3234719, "tags": {"place": "isolated_dwelling"}}, {"type": "node", "id": 7879553300, "lat": 2.1623581, "lon": 45.3210864, "tags": {"place": "isolated_dwelling"}}, {"type": "node", "id": 7879553306, "lat": 2.1711363, "lon": 45.3194053, "tags": {"place": "hamlet"}}, {"type": "node", "id": 7879553308, "lat": 2.1702768, "lon": 45.317225, "tags": {"place": "isolated_dwelling"}}, {"type": "node", "id": 7879553309, "lat": 2.1722165, "lon": 45.3160295, "tags": {"place": "hamlet"}}, {"type": "node", "id": 7879553310, "lat": 2.1734172, "lon": 45.3118763, "tags": {"place": "hamlet"}}, {"type": "node", "id": 7879553311, "lat": 2.1738606, "lon": 45.3243114, "tags": {"place": "hamlet"}}, {"type": "node", "id": 7879553312, "lat": 2.1698827, "lon": 45.323196, "tags": {"place": "hamlet"}}, {"type": "node", "id": 7879553314, "lat": 2.1674935, "lon": 45.3232268, "tags": {"place": "hamlet"}}, {"type": "node", "id": 7879553360, "lat": 2.1720855, "lon": 45.3212957, "tags": {"place": "hamlet"}}, {"type": "node", "id": 7879707379, "lat": 2.1549876, "lon": 45.3090901, "tags": {"place": "isolated_dwelling"}}, {"type": "node", "id": 7887122303, "lat": 2.1683848, "lon": 45.3024559, "tags": {"place": "hamlet"}}, {"type": "node", "id": 7894260374, "lat": 2.1735108, "lon": 45.2664667, "tags": {"place": "isolated_dwelling"}}, {"type": "node", "id": 7894260375, "lat": 2.1637492, "lon": 45.2618909, "tags": {"place": "isolated_dwelling"}}, {"type": "node", "id": 7894260376, "lat": 2.1616264, "lon": 45.2611077, "tags": {"place": "isolated_dwelling"}}, {"type": "node", "id": 7894260377, "lat": 2.1558263, "lon": 45.2612096, "tags": {"place": "isolated_dwelling"}}, {"type": "node", "id": 7894260379, "lat": 2.151259, "lon": 45.2615797, "tags": {"place": "isolated_dwelling"}}, {"type": "node", "id": 7894260383, "lat": 2.1677456, "lon": 45.2730811, "tags": {"place": "hamlet"}}, {"type": "node", "id": 7894260384, "lat": 2.1736556, "lon": 45.2699965, "tags": {"place": "hamlet"}}, {"type": "node", "id": 7916234957, "lat": 2.1077836, "lon": 45.2866155, "tags": {"place": "isolated_dwelling"}}, {"type": "node", "id": 7916234959, "lat": 2.1006966, "lon": 45.276348, "tags": {"place": "isolated_dwelling"}}, {"type": "node", "id": 7916234960, "lat": 2.1023102, "lon": 45.2773726, "tags": {"place": "isolated_dwelling"}}, {"type": "node", "id": 7916234961, "lat": 2.1103997, "lon": 45.2763748, "tags": {"place": "hamlet"}}, {"type": "node", "id": 7916234962, "lat": 2.1134071, "lon": 45.2776676, "tags": {"place": "hamlet"}}, {"type": "node", "id": 7916234964, "lat": 2.1105015, "lon": 45.2856821, "tags": {"place": "isolated_dwelling"}}, {"type": "node", "id": 7916234965, "lat": 2.1332954, "lon": 45.2825654, "tags": {"place": "hamlet"}}, {"type": "node", "id": 7916234966, "lat": 2.1210912, "lon": 45.2899345, "tags": {"place": "hamlet"}}, {"type": "node", "id": 7916234967, "lat": 2.1225418, "lon": 45.2894157, "tags": {"place": "isolated_dwelling"}}, {"type": "node", "id": 7916234968, "lat": 2.1187357, "lon": 45.2861273, "tags": {"place": "isolated_dwelling"}}, {"type": "node", "id": 7916234969, "lat": 2.1198025, "lon": 45.287742, "tags": {"place": "hamlet"}}, {"type": "node", "id": 7916234971, "lat": 2.1143935, "lon": 45.2948525, "tags": {"place": "hamlet"}}, {"type": "node", "id": 7916234972, "lat": 2.1119088, "lon": 45.2959925, "tags": {"place": "isolated_dwelling"}}, {"type": "node", "id": 7916234973, "lat": 2.11293, "lon": 45.2990341, "tags": {"place": "hamlet"}}, {"type": "node", "id": 7916234976, "lat": 2.1076442, "lon": 45.2786225, "tags": {"place": "hamlet"}}, {"type": "node", "id": 7916234979, "lat": 2.1144953, "lon": 45.2920228, "tags": {"place": "hamlet"}}, {"type": "node", "id": 7916234980, "lat": 2.1227991, "lon": 45.2937877, "tags": {"place": "isolated_dwelling"}}, {"type": "node", "id": 7916234981, "lat": 2.1220593, "lon": 45.2940613, "tags": {"place": "isolated_dwelling"}}, {"type": "node", "id": 7916234982, "lat": 2.1194379, "lon": 45.2963251, "tags": {"place": "isolated_dwelling"}}, {"type": "node", "id": 7916234983, "lat": 2.1209925, "lon": 45.2956867, "tags": {"place": "hamlet"}}, {"type": "node", "id": 7916431253, "lat": 2.1491416, "lon": 45.2855372, "tags": {"place": "isolated_dwelling"}}, {"type": "node", "id": 7916493240, "lat": 2.147335, "lon": 45.2822649, "tags": {"place": "hamlet"}}, {"type": "node", "id": 7916493242, "lat": 2.1334401, "lon": 45.2981973, "tags": {"place": "hamlet"}}, {"type": "node", "id": 7916493243, "lat": 2.1452336, "lon": 45.2933747, "tags": {"place": "isolated_dwelling"}}, {"type": "node", "id": 7916493244, "lat": 2.1418564, "lon": 45.2897215, "tags": {"place": "hamlet"}}, {"type": "node", "id": 7916493246, "lat": 2.1432931, "lon": 45.2814925, "tags": {"place": "isolated_dwelling"}}, {"type": "node", "id": 7916493247, "lat": 2.1384095, "lon": 45.2786601, "tags": {"place": "hamlet"}}, {"type": "node", "id": 7916493249, "lat": 2.129098, "lon": 45.2877045, "tags": {"place": "village"}}, {"type": "node", "id": 7920867365, "lat": 2.1525348, "lon": 45.2772438, "tags": {"place": "hamlet"}}, {"type": "node", "id": 7920867366, "lat": 2.1743256, "lon": 45.2977413, "tags": {"place": "hamlet"}}, {"type": "node", "id": 7920867367, "lat": 2.1701605, "lon": 45.2965879, "tags": {"place": "hamlet"}}, {"type": "node", "id": 7920867368, "lat": 2.1697745, "lon": 45.2933049, "tags": {"place": "hamlet"}}, {"type": "node", "id": 7920867369, "lat": 2.170064, "lon": 45.2860469, "tags": {"place": "hamlet"}}, {"type": "node", "id": 7920867370, "lat": 2.1684826, "lon": 45.2851725, "tags": {"place": "isolated_dwelling"}}, {"type": "node", "id": 7920867371, "lat": 2.1668959, "lon": 45.2849793, "tags": {"place": "hamlet"}}, {"type": "node", "id": 7920867372, "lat": 2.174138, "lon": 45.2764177, "tags": {"place": "hamlet"}}, {"type": "node", "id": 7920867373, "lat": 2.1663974, "lon": 45.2779895, "tags": {"place": "hamlet"}}, {"type": "node", "id": 7920867374, "lat": 2.1687239, "lon": 45.2812886, "tags": {"place": "isolated_dwelling"}}, {"type": "node", "id": 7920867375, "lat": 2.1688525, "lon": 45.2899897, "tags": {"place": "hamlet"}}, {"type": "node", "id": 7920867376, "lat": 2.1670085, "lon": 45.2937984, "tags": {"place": "hamlet"}}, {"type": "node", "id": 7920867377, "lat": 2.1641406, "lon": 45.2894372, "tags": {"place": "hamlet"}}, {"type": "node", "id": 7920867378, "lat": 2.1509213, "lon": 45.2851886, "tags": {"place": "isolated_dwelling"}}, {"type": "node", "id": 7920867379, "lat": 2.1534783, "lon": 45.2912021, "tags": {"place": "isolated_dwelling"}}, {"type": "node", "id": 7920867381, "lat": 2.1540787, "lon": 45.2972317, "tags": {"place": "hamlet"}}, {"type": "node", "id": 7920867382, "lat": 2.1575792, "lon": 45.2898395, "tags": {"place": "isolated_dwelling"}}, {"type": "node", "id": 7920867383, "lat": 2.1588979, "lon": 45.2887344, "tags": {"place": "isolated_dwelling"}}, {"type": "node", "id": 7920867384, "lat": 2.1586031, "lon": 45.2809668, "tags": {"place": "isolated_dwelling"}}, {"type": "node", "id": 7920901487, "lat": 2.1520792, "lon": 45.2861381, "tags": {"place": "hamlet"}}, {"type": "node", "id": 7920901488, "lat": 2.1560943, "lon": 45.2930367, "tags": {"place": "hamlet"}}, {"type": "node", "id": 7921019963, "lat": 2.1776653, "lon": 45.2796686, "tags": {"place": "hamlet"}}, {"type": "node", "id": 7921019964, "lat": 2.1767861, "lon": 45.2995276, "tags": {"place": "hamlet"}}, {"type": "node", "id": 7921019965, "lat": 2.1789304, "lon": 45.2931547, "tags": {"place": "hamlet"}}, {"type": "node", "id": 7928019655, "lat": 2.177676, "lon": 45.2614081, "tags": {"place": "village"}}, {"type": "node", "id": 7928019657, "lat": 2.1804957, "lon": 45.2685481, "tags": {"place": "hamlet"}}, {"type": "node", "id": 7934791980, "lat": 2.0864154, "lon": 45.2740574, "tags": {"place": "hamlet"}}, {"type": "node", "id": 7978396767, "lat": 2.1281652, "lon": 45.3071451, "tags": {"place": "hamlet"}}, {"type": "node", "id": 7978396768, "lat": 2.1316818, "lon": 45.3021884, "tags": {"place": "hamlet"}}, {"type": "node", "id": 7978396769, "lat": 2.1252918, "lon": 45.3022313, "tags": {"place": "hamlet"}}, {"type": "node", "id": 7978426918, "lat": 2.1112896, "lon": 45.3092587, "tags": {"place": "hamlet"}}, {"type": "node", "id": 7978498187, "lat": 2.181943, "lon": 45.3178257, "tags": {"place": "hamlet"}}, {"type": "node", "id": 7978498188, "lat": 2.1791609, "lon": 45.3056592, "tags": {"place": "hamlet"}}, {"type": "node", "id": 7992296856, "lat": 2.1115417, "lon": 45.4664421, "tags": {"place": "hamlet"}}, {"type": "node", "id": 7992296895, "lat": 2.1227455, "lon": 45.4718703, "tags": {"place": "hamlet"}}, {"type": "node", "id": 7992296896, "lat": 2.1047236, "lon": 45.4626123, "tags": {"place": "town"}}, {"type": "node", "id": 7992304623, "lat": 2.1352078, "lon": 45.4357544, "tags": {"place": "isolated_dwelling"}}, {"type": "node", "id": 7992304624, "lat": 2.1348232, "lon": 45.4331714, "tags": {"place": "hamlet"}}, {"type": "node", "id": 7992304625, "lat": 2.1363671, "lon": 45.4366368, "tags": {"place": "hamlet"}}, {"type": "node", "id": 7992304626, "lat": 2.1299541, "lon": 45.4357753, "tags": {"place": "isolated_dwelling"}}, {"type": "node", "id": 7992304627, "lat": 2.128117, "lon": 45.4321682, "tags": {"place": "hamlet"}}, {"type": "node", "id": 7992304628, "lat": 2.1276452, "lon": 45.4277158, "tags": {"place": "isolated_dwelling"}}, {"type": "node", "id": 7992304629, "lat": 2.1200833, "lon": 45.4313296, "tags": {"place": "hamlet"}}, {"type": "node", "id": 7992325480, "lat": 2.1489325, "lon": 45.444434, "tags": {"place": "isolated_dwelling"}}, {"type": "node", "id": 7992325481, "lat": 2.1494766, "lon": 45.4455954, "tags": {"place": "isolated_dwelling"}}, {"type": "node", "id": 7992358746, "lat": 2.1458214, "lon": 45.4332945, "tags": {"place": "hamlet"}}, {"type": "node", "id": 7992358747, "lat": 2.1432984, "lon": 45.4329568, "tags": {"place": "hamlet"}}, {"type": "node", "id": 7992358748, "lat": 2.1395973, "lon": 45.429251, "tags": {"place": "hamlet"}}, {"type": "node", "id": 7992358749, "lat": 2.1436835, "lon": 45.4277868, "tags": {"place": "hamlet"}}, {"type": "node", "id": 7992423804, "lat": 2.1477318, "lon": 45.4495523, "tags": {"place": "hamlet"}}, {"type": "node", "id": 7992423805, "lat": 2.1467868, "lon": 45.4464605, "tags": {"place": "hamlet"}}, {"type": "node", "id": 7992423843, "lat": 2.141642, "lon": 45.4472423, "tags": {"place": "hamlet"}}, {"type": "node", "id": 7992423844, "lat": 2.1396731, "lon": 45.4420986, "tags": {"place": "isolated_dwelling"}}, {"type": "node", "id": 7992423845, "lat": 2.1407041, "lon": 45.4411806, "tags": {"place": "isolated_dwelling"}}, {"type": "node", "id": 7992423846, "lat": 2.1430732, "lon": 45.4422579, "tags": {"place": "isolated_dwelling"}}, {"type": "node", "id": 7992423847, "lat": 2.1430353, "lon": 45.4382485, "tags": {"place": "isolated_dwelling"}}, {"type": "node", "id": 7992423848, "lat": 2.1460602, "lon": 45.4387075, "tags": {"place": "hamlet"}}, {"type": "node", "id": 7992423970, "lat": 2.1307652, "lon": 45.4426107, "tags": {"place": "hamlet"}}, {"type": "node", "id": 7992423971, "lat": 2.1329791, "lon": 45.4478672, "tags": {"place": "hamlet"}}, {"type": "node", "id": 7992423972, "lat": 2.1373052, "lon": 45.448283, "tags": {"place": "isolated_dwelling"}}, {"type": "node", "id": 7992483764, "lat": 2.1127371, "lon": 45.4296834, "tags": {"place": "hamlet"}}, {"type": "node", "id": 7992483765, "lat": 2.1043715, "lon": 45.4403168, "tags": {"place": "isolated_dwelling"}}, {"type": "node", "id": 7992483766, "lat": 2.1124717, "lon": 45.4377402, "tags": {"place": "hamlet"}}, {"type": "node", "id": 7992483767, "lat": 2.105709, "lon": 45.4285043, "tags": {"place": "hamlet"}}, {"type": "node", "id": 7999454080, "lat": 2.1201992, "lon": 45.3064799, "tags": {"place": "hamlet"}}, {"type": "node", "id": 7999557412, "lat": 2.1350805, "lon": 45.2852261, "tags": {"place": "isolated_dwelling"}}, {"type": "node", "id": 7999557413, "lat": 2.1360669, "lon": 45.2830052, "tags": {"place": "isolated_dwelling"}}, {"type": "node", "id": 8002583811, "lat": 2.1601603, "lon": 45.2754039, "tags": {"place": "isolated_dwelling"}}, {"type": "node", "id": 8002583874, "lat": 2.1635938, "lon": 45.2742076, "tags": {"place": "hamlet"}}, {"type": "node", "id": 8002583958, "lat": 2.1703428, "lon": 45.2999031, "tags": {"place": "hamlet"}}, {"type": "node", "id": 8002761923, "lat": 2.1826988, "lon": 45.2778876, "tags": {"place": "isolated_dwelling"}}, {"type": "node", "id": 8002761924, "lat": 2.1825916, "lon": 45.2763319, "tags": {"place": "isolated_dwelling"}}, {"type": "node", "id": 8002761925, "lat": 2.1841569, "lon": 45.2757767, "tags": {"place": "isolated_dwelling"}}, {"type": "node", "id": 8002761955, "lat": 2.1778583, "lon": 45.2836651, "tags": {"place": "isolated_dwelling"}}, {"type": "node", "id": 8002761956, "lat": 2.1789786, "lon": 45.2827746, "tags": {"place": "isolated_dwelling"}}, {"type": "node", "id": 8002761972, "lat": 2.1798041, "lon": 45.2886003, "tags": {"place": "isolated_dwelling"}}, {"type": "node", "id": 8002761973, "lat": 2.1760249, "lon": 45.294646, "tags": {"place": "isolated_dwelling"}}, {"type": "node", "id": 8002761974, "lat": 2.177408, "lon": 45.2931654, "tags": {"place": "isolated_dwelling"}}, {"type": "node", "id": 8002761975, "lat": 2.1786731, "lon": 45.2911752, "tags": {"place": "isolated_dwelling"}}, {"type": "node", "id": 8002761976, "lat": 2.1786945, "lon": 45.2895391, "tags": {"place": "isolated_dwelling"}}, {"type": "node", "id": 8005683482, "lat": 2.1757891, "lon": 45.2605283, "tags": {"place": "isolated_dwelling"}}, {"type": "node", "id": 8005683483, "lat": 2.1752745, "lon": 45.2611291, "tags": {"place": "isolated_dwelling"}}, {"type": "node", "id": 8005683590, "lat": 2.1811603, "lon": 45.2736443, "tags": {"place": "isolated_dwelling"}}, {"type": "node", "id": 8005683591, "lat": 2.1808441, "lon": 45.2738965, "tags": {"place": "isolated_dwelling"}}, {"type": "node", "id": 8005683592, "lat": 2.1812944, "lon": 45.270769, "tags": {"place": "isolated_dwelling"}}, {"type": "node", "id": 8020553138, "lat": 2.0849104, "lon": 45.4145701, "tags": {"place": "locality"}}, {"type": "node", "id": 8111140248, "lat": 2.1205423, "lon": 45.3349113, "tags": {"place": "hamlet"}}, {"type": "node", "id": 8111140256, "lat": 2.1158891, "lon": 45.3363383, "tags": {"place": "isolated_dwelling"}}, {"type": "node", "id": 8111140257, "lat": 2.1173794, "lon": 45.3357911, "tags": {"place": "isolated_dwelling"}}, {"type": "node", "id": 8111140258, "lat": 2.1164681, "lon": 45.3336346, "tags": {"place": "isolated_dwelling"}}, {"type": "node", "id": 8111140259, "lat": 2.1118471, "lon": 45.3342676, "tags": {"place": "isolated_dwelling"}}, {"type": "node", "id": 8111140260, "lat": 2.1198453, "lon": 45.3485906, "tags": {"place": "isolated_dwelling"}}, {"type": "node", "id": 8111140261, "lat": 2.1190841, "lon": 45.344637, "tags": {"place": "isolated_dwelling"}}, {"type": "node", "id": 8111140262, "lat": 2.1206495, "lon": 45.3454578, "tags": {"place": "isolated_dwelling"}}, {"type": "node", "id": 8111140263, "lat": 2.1213464, "lon": 45.3450394, "tags": {"place": "isolated_dwelling"}}, {"type": "node", "id": 8111140264, "lat": 2.1239463, "lon": 45.3479791, "tags": {"place": "isolated_dwelling"}}, {"type": "node", "id": 8111140265, "lat": 2.1247611, "lon": 45.346874, "tags": {"place": "isolated_dwelling"}}, {"type": "node", "id": 8111140266, "lat": 2.123362, "lon": 45.3366172, "tags": {"place": "isolated_dwelling"}}, {"type": "node", "id": 8111140267, "lat": 2.1226651, "lon": 45.3347719, "tags": {"place": "isolated_dwelling"}}, {"type": "node", "id": 8111140268, "lat": 2.1214, "lon": 45.3474211, "tags": {"place": "hamlet"}}, {"type": "node", "id": 8111140345, "lat": 2.1078908, "lon": 45.3135181, "tags": {"place": "isolated_dwelling"}}, {"type": "node", "id": 8111140346, "lat": 2.1049906, "lon": 45.3129709, "tags": {"place": "isolated_dwelling"}}, {"type": "node", "id": 8111140347, "lat": 2.1052265, "lon": 45.3115815, "tags": {"place": "isolated_dwelling"}}, {"type": "node", "id": 8111140362, "lat": 2.1301659, "lon": 45.3126556, "tags": {"place": "hamlet"}}, {"type": "node", "id": 8111140363, "lat": 2.1250453, "lon": 45.3131318, "tags": {"place": "hamlet"}}, {"type": "node", "id": 8111140364, "lat": 2.118012, "lon": 45.3133035, "tags": {"place": "hamlet"}}, {"type": "node", "id": 8111140365, "lat": 2.1146883, "lon": 45.3078961, "tags": {"place": "hamlet"}}, {"type": "node", "id": 8111140366, "lat": 2.1227777, "lon": 45.3142476, "tags": {"place": "hamlet"}}, {"type": "node", "id": 8111140367, "lat": 2.1316282, "lon": 45.3088725, "tags": {"place": "hamlet"}}, {"type": "node", "id": 8111140689, "lat": 2.1391975, "lon": 45.3069091, "tags": {"place": "hamlet"}}, {"type": "node", "id": 8111140690, "lat": 2.1401946, "lon": 45.3021562, "tags": {"place": "hamlet"}}, {"type": "node", "id": 8111140691, "lat": 2.142757, "lon": 45.3026793, "tags": {"place": "hamlet"}}, {"type": "node", "id": 8111140786, "lat": 2.1135947, "lon": 45.3023493, "tags": {"place": "isolated_dwelling"}}, {"type": "node", "id": 8111140787, "lat": 2.1142273, "lon": 45.3009331, "tags": {"place": "isolated_dwelling"}}, {"type": "node", "id": 8111140788, "lat": 2.1164574, "lon": 45.2994901, "tags": {"place": "isolated_dwelling"}}, {"type": "node", "id": 8111140789, "lat": 2.1163769, "lon": 45.30074, "tags": {"place": "isolated_dwelling"}}, {"type": "node", "id": 8111140790, "lat": 2.1176876, "lon": 45.3006488, "tags": {"place": "isolated_dwelling"}}, {"type": "node", "id": 8137479031, "lat": 2.11364, "lon": 45.4855835, "tags": {"place": "hamlet"}}, {"type": "node", "id": 8137479032, "lat": 2.1209229, "lon": 45.4882305, "tags": {"place": "hamlet"}}, {"type": "node", "id": 8137479042, "lat": 2.1158603, "lon": 45.4885976, "tags": {"place": "isolated_dwelling"}}, {"type": "node", "id": 8137567368, "lat": 2.1177072, "lon": 45.4777548, "tags": {"place": "isolated_dwelling"}}, {"type": "node", "id": 8137567394, "lat": 2.1174919, "lon": 45.4788254, "tags": {"place": "hamlet"}}, {"type": "node", "id": 8137567416, "lat": 2.1155674, "lon": 45.4788829, "tags": {"place": "isolated_dwelling"}}, {"type": "node", "id": 8137711990, "lat": 2.1594581, "lon": 45.3841379, "tags": {"place": "isolated_dwelling"}}, {"type": "node", "id": 8137711991, "lat": 2.1570351, "lon": 45.3830489, "tags": {"place": "isolated_dwelling"}}, {"type": "node", "id": 8137711992, "lat": 2.1576113, "lon": 45.3821209, "tags": {"place": "isolated_dwelling"}}, {"type": "node", "id": 8137711993, "lat": 2.1580241, "lon": 45.3813538, "tags": {"place": "isolated_dwelling"}}, {"type": "node", "id": 8137711994, "lat": 2.1614603, "lon": 45.3814396, "tags": {"place": "isolated_dwelling"}}, {"type": "node", "id": 8137711995, "lat": 2.1618837, "lon": 45.385986, "tags": {"place": "isolated_dwelling"}}, {"type": "node", "id": 8137711999, "lat": 2.1625109, "lon": 45.3840387, "tags": {"place": "hamlet"}}, {"type": "node", "id": 8137712000, "lat": 2.1637492, "lon": 45.3845751, "tags": {"place": "isolated_dwelling"}}, {"type": "node", "id": 8137712001, "lat": 2.1638645, "lon": 45.3831241, "tags": {"place": "isolated_dwelling"}}, {"type": "node", "id": 8137712002, "lat": 2.1637305, "lon": 45.3818554, "tags": {"place": "isolated_dwelling"}}, {"type": "node", "id": 8137719628, "lat": 2.1517522, "lon": 45.3915328, "tags": {"place": "hamlet"}}, {"type": "node", "id": 8137719629, "lat": 2.1526876, "lon": 45.3940648, "tags": {"place": "hamlet"}}, {"type": "node", "id": 8137719630, "lat": 2.1567536, "lon": 45.387834, "tags": {"place": "isolated_dwelling"}}, {"type": "node", "id": 8137719660, "lat": 2.1670219, "lon": 45.3937429, "tags": {"place": "hamlet"}}, {"type": "node", "id": 8137719717, "lat": 2.1633901, "lon": 45.3934264, "tags": {"place": "isolated_dwelling"}}, {"type": "node", "id": 8137719718, "lat": 2.1631757, "lon": 45.3924501, "tags": {"place": "isolated_dwelling"}}, {"type": "node", "id": 8137719719, "lat": 2.1626262, "lon": 45.3921819, "tags": {"place": "isolated_dwelling"}}, {"type": "node", "id": 8137719720, "lat": 2.1634866, "lon": 45.3909695, "tags": {"place": "isolated_dwelling"}}, {"type": "node", "id": 8137719721, "lat": 2.1635697, "lon": 45.3917527, "tags": {"place": "isolated_dwelling"}}, {"type": "node", "id": 8137719722, "lat": 2.1631596, "lon": 45.3911331, "tags": {"place": "isolated_dwelling"}}, {"type": "node", "id": 8137719723, "lat": 2.1633954, "lon": 45.3905725, "tags": {"place": "isolated_dwelling"}}, {"type": "node", "id": 8137719724, "lat": 2.1626986, "lon": 45.3903258, "tags": {"place": "isolated_dwelling"}}, {"type": "node", "id": 8137719739, "lat": 2.1626825, "lon": 45.3884912, "tags": {"place": "hamlet"}}, {"type": "node", "id": 8137719740, "lat": 2.1604283, "lon": 45.3895184, "tags": {"place": "isolated_dwelling"}}, {"type": "node", "id": 8137719751, "lat": 2.1573969, "lon": 45.3936169, "tags": {"place": "hamlet"}}, {"type": "node", "id": 8137719752, "lat": 2.159635, "lon": 45.3923696, "tags": {"place": "isolated_dwelling"}}, {"type": "node", "id": 8138429208, "lat": 2.135677, "lon": 45.3662742, "tags": {"place": "hamlet"}}, {"type": "node", "id": 8138429209, "lat": 2.1394431, "lon": 45.3628763, "tags": {"place": "hamlet"}}, {"type": "node", "id": 8138429212, "lat": 2.1391863, "lon": 45.3551242, "tags": {"place": "hamlet"}}, {"type": "node", "id": 8138479160, "lat": 2.140898, "lon": 45.3521203, "tags": {"place": "hamlet"}}, {"type": "node", "id": 8138479163, "lat": 2.1329832, "lon": 45.3513208, "tags": {"place": "hamlet"}}, {"type": "node", "id": 8138479165, "lat": 2.1269182, "lon": 45.356019, "tags": {"place": "hamlet"}}, {"type": "node", "id": 8138479166, "lat": 2.1312511, "lon": 45.3579527, "tags": {"place": "hamlet"}}, {"type": "node", "id": 8138479184, "lat": 2.1405976, "lon": 45.3595932, "tags": {"place": "hamlet"}}, {"type": "node", "id": 8138513024, "lat": 2.1298945, "lon": 45.3687408, "tags": {"place": "hamlet"}}, {"type": "node", "id": 8138513025, "lat": 2.1293359, "lon": 45.3674443, "tags": {"place": "isolated_dwelling"}}, {"type": "node", "id": 8138513026, "lat": 2.1368762, "lon": 45.3715845, "tags": {"place": "hamlet"}}, {"type": "node", "id": 8138513027, "lat": 2.141727, "lon": 45.3678361, "tags": {"place": "hamlet"}}, {"type": "node", "id": 8138513028, "lat": 2.1416782, "lon": 45.3723976, "tags": {"place": "isolated_dwelling"}}, {"type": "node", "id": 8138513029, "lat": 2.1435227, "lon": 45.3727879, "tags": {"place": "isolated_dwelling"}}, {"type": "node", "id": 8138574551, "lat": 2.1459393, "lon": 45.3712216, "tags": {"place": "hamlet"}}, {"type": "node", "id": 8138574684, "lat": 2.1492656, "lon": 45.3787331, "tags": {"place": "hamlet"}}, {"type": "node", "id": 8138574694, "lat": 2.1471926, "lon": 45.375443, "tags": {"place": "isolated_dwelling"}}, {"type": "node", "id": 8138574736, "lat": 2.1441934, "lon": 45.3832053, "tags": {"place": "hamlet"}}, {"type": "node", "id": 8138574744, "lat": 2.1387415, "lon": 45.3687348, "tags": {"place": "isolated_dwelling"}}, {"type": "node", "id": 8138637895, "lat": 2.1396026, "lon": 45.3439, "tags": {"place": "hamlet"}}, {"type": "node", "id": 8138637896, "lat": 2.1386963, "lon": 45.3397365, "tags": {"place": "hamlet"}}, {"type": "node", "id": 8138637897, "lat": 2.1391984, "lon": 45.3376161, "tags": {"place": "isolated_dwelling"}}, {"type": "node", "id": 8138637898, "lat": 2.1359648, "lon": 45.3391659, "tags": {"place": "hamlet"}}, {"type": "node", "id": 8138637899, "lat": 2.1460359, "lon": 45.3466239, "tags": {"place": "hamlet"}}, {"type": "node", "id": 8138637900, "lat": 2.1477335, "lon": 45.343066, "tags": {"place": "isolated_dwelling"}}, {"type": "node", "id": 8138679020, "lat": 2.1326263, "lon": 45.3535485, "tags": {"place": "isolated_dwelling"}}, {"type": "node", "id": 8270110737, "lat": 2.1820389, "lon": 45.4491654, "tags": {"place": "isolated_dwelling"}}, {"type": "node", "id": 8270110738, "lat": 2.1822766, "lon": 45.4485149, "tags": {"place": "isolated_dwelling"}}, {"type": "node", "id": 8270110739, "lat": 2.1813695, "lon": 45.4474105, "tags": {"place": "isolated_dwelling"}}, {"type": "node", "id": 8270110740, "lat": 2.1827135, "lon": 45.4465337, "tags": {"place": "isolated_dwelling"}}, {"type": "node", "id": 8270110741, "lat": 2.1798715, "lon": 45.4488665, "tags": {"place": "isolated_dwelling"}}, {"type": "node", "id": 8270110742, "lat": 2.1795378, "lon": 45.4455279, "tags": {"place": "isolated_dwelling"}}, {"type": "node", "id": 8270110743, "lat": 2.1751199, "lon": 45.446232, "tags": {"place": "isolated_dwelling"}}, {"type": "node", "id": 8270110744, "lat": 2.1755147, "lon": 45.4448543, "tags": {"place": "isolated_dwelling"}}, {"type": "node", "id": 8270110745, "lat": 2.1750594, "lon": 45.4384305, "tags": {"place": "isolated_dwelling"}}, {"type": "node", "id": 8270110746, "lat": 2.1757013, "lon": 45.4366999, "tags": {"place": "isolated_dwelling"}}, {"type": "node", "id": 8270110747, "lat": 2.1758808, "lon": 45.4282752, "tags": {"place": "isolated_dwelling"}}, {"type": "node", "id": 8270110750, "lat": 2.1801546, "lon": 45.4258274, "tags": {"place": "isolated_dwelling"}}, {"type": "node", "id": 8270110763, "lat": 2.1841464, "lon": 45.440217, "tags": {"place": "hamlet"}}, {"type": "node", "id": 8270110764, "lat": 2.1796734, "lon": 45.4318663, "tags": {"place": "isolated_dwelling"}}, {"type": "node", "id": 8270110765, "lat": 2.178659, "lon": 45.4279701, "tags": {"place": "isolated_dwelling"}}, {"type": "node", "id": 8270110766, "lat": 2.1813042, "lon": 45.42983, "tags": {"place": "isolated_dwelling"}}, {"type": "node", "id": 8328440854, "lat": 2.1651215, "lon": 45.5090457, "tags": {"place": "isolated_dwelling"}}, {"type": "node", "id": 8328440855, "lat": 2.1652689, "lon": 45.5099683, "tags": {"place": "isolated_dwelling"}}, {"type": "node", "id": 8328440860, "lat": 2.1831223, "lon": 45.5261904, "tags": {"place": "isolated_dwelling"}}, {"type": "node", "id": 8328457410, "lat": 2.172034, "lon": 45.5095607, "tags": {"place": "isolated_dwelling"}}, {"type": "node", "id": 8328457613, "lat": 2.1689919, "lon": 45.5146944, "tags": {"place": "isolated_dwelling"}}, {"type": "node", "id": 8328457621, "lat": 2.1808896, "lon": 45.5051056, "tags": {"place": "isolated_dwelling"}}, {"type": "node", "id": 8328457634, "lat": 2.1782844, "lon": 45.503507, "tags": {"place": "isolated_dwelling"}}, {"type": "node", "id": 8328457636, "lat": 2.1798845, "lon": 45.5031583, "tags": {"place": "isolated_dwelling"}}, {"type": "node", "id": 8328457876, "lat": 2.1834252, "lon": 45.5141339, "tags": {"place": "isolated_dwelling"}}, {"type": "node", "id": 8328458000, "lat": 2.1709914, "lon": 45.5487907, "tags": {"place": "village"}}, {"type": "node", "id": 8328458078, "lat": 2.1702383, "lon": 45.538145, "tags": {"place": "hamlet"}}, {"type": "node", "id": 8328458117, "lat": 2.1446708, "lon": 45.5112264, "tags": {"place": "isolated_dwelling"}}, {"type": "node", "id": 8328458124, "lat": 2.1425989, "lon": 45.5063903, "tags": {"place": "isolated_dwelling"}}, {"type": "node", "id": 8329128887, "lat": 2.1836004, "lon": 45.494259, "tags": {"place": "isolated_dwelling"}}, {"type": "node", "id": 8332407446, "lat": 2.1569708, "lon": 45.5050063, "tags": {"place": "isolated_dwelling"}}, {"type": "node", "id": 8332407451, "lat": 2.1634973, "lon": 45.5078226, "tags": {"place": "isolated_dwelling"}}, {"type": "node", "id": 8332407452, "lat": 2.1642746, "lon": 45.5073935, "tags": {"place": "isolated_dwelling"}}, {"type": "node", "id": 8332407540, "lat": 2.1764055, "lon": 45.5344033, "tags": {"place": "isolated_dwelling"}}, {"type": "node", "id": 8332407555, "lat": 2.1757355, "lon": 45.5273303, "tags": {"place": "isolated_dwelling"}}, {"type": "node", "id": 8332407556, "lat": 2.1747947, "lon": 45.5262494, "tags": {"place": "isolated_dwelling"}}, {"type": "node", "id": 8332407557, "lat": 2.1752343, "lon": 45.5266142, "tags": {"place": "isolated_dwelling"}}, {"type": "node", "id": 8332407558, "lat": 2.1643603, "lon": 45.5150109, "tags": {"place": "isolated_dwelling"}}, {"type": "node", "id": 8332407563, "lat": 2.164682, "lon": 45.5471492, "tags": {"place": "isolated_dwelling"}}, {"type": "node", "id": 8332407661, "lat": 2.1653092, "lon": 45.5481926, "tags": {"place": "isolated_dwelling"}}, {"type": "node", "id": 8332407672, "lat": 2.1786087, "lon": 45.5372733, "tags": {"place": "isolated_dwelling"}}, {"type": "node", "id": 8333893824, "lat": 2.1518567, "lon": 45.5140239, "tags": {"place": "hamlet"}}, {"type": "node", "id": 8333893953, "lat": 2.1576328, "lon": 45.5222583, "tags": {"place": "isolated_dwelling"}}, {"type": "node", "id": 8333893988, "lat": 2.1832483, "lon": 45.6012815, "tags": {"place": "isolated_dwelling"}}, {"type": "node", "id": 8334905825, "lat": 2.1783675, "lon": 45.5123998, "tags": {"place": "isolated_dwelling"}}, {"type": "node", "id": 8334905826, "lat": 2.1826023, "lon": 45.5179748, "tags": {"place": "isolated_dwelling"}}, {"type": "node", "id": 8334905845, "lat": 2.1808896, "lon": 45.5302539, "tags": {"place": "isolated_dwelling"}}, {"type": "node", "id": 8334905904, "lat": 2.1570458, "lon": 45.5412349, "tags": {"place": "isolated_dwelling"}}, {"type": "node", "id": 8334905944, "lat": 2.1600772, "lon": 45.5443543, "tags": {"place": "hamlet"}}, {"type": "node", "id": 8334905978, "lat": 2.1685952, "lon": 45.5615151, "tags": {"place": "isolated_dwelling"}}, {"type": "node", "id": 8338635942, "lat": 2.1797612, "lon": 45.5586129, "tags": {"place": "isolated_dwelling"}}, {"type": "node", "id": 8338635991, "lat": 2.1835887, "lon": 45.5445045, "tags": {"place": "isolated_dwelling"}}, {"type": "node", "id": 8338636028, "lat": 2.1737306, "lon": 45.5611476, "tags": {"place": "isolated_dwelling"}}, {"type": "node", "id": 8338636041, "lat": 2.1782295, "lon": 45.5585875, "tags": {"place": "isolated_dwelling"}}, {"type": "node", "id": 8338636347, "lat": 2.1563409, "lon": 45.5357498, "tags": {"place": "isolated_dwelling"}}, {"type": "node", "id": 8338636348, "lat": 2.1560728, "lon": 45.5350256, "tags": {"place": "isolated_dwelling"}}, {"type": "node", "id": 8338636362, "lat": 2.1550677, "lon": 45.5346152, "tags": {"place": "isolated_dwelling"}}, {"type": "node", "id": 8339559158, "lat": 2.1832456, "lon": 45.5005377, "tags": {"place": "isolated_dwelling"}}, {"type": "node", "id": 8350106108, "lat": 2.1549927, "lon": 45.5142438, "tags": {"place": "isolated_dwelling"}}, {"type": "node", "id": 8350106465, "lat": 2.1636769, "lon": 45.5144235, "tags": {"place": "isolated_dwelling"}}, {"type": "node", "id": 8350106817, "lat": 2.1808602, "lon": 45.516175, "tags": {"place": "isolated_dwelling"}}, {"type": "node", "id": 8350106915, "lat": 2.1806028, "lon": 45.5230643, "tags": {"place": "isolated_dwelling"}}, {"type": "node", "id": 8350106932, "lat": 2.1808494, "lon": 45.5221564, "tags": {"place": "isolated_dwelling"}}, {"type": "node", "id": 8350107134, "lat": 2.183192, "lon": 45.5095728, "tags": {"place": "isolated_dwelling"}}, {"type": "node", "id": 8350107232, "lat": 2.18346, "lon": 45.5111647, "tags": {"place": "isolated_dwelling"}}, {"type": "node", "id": 8350108236, "lat": 2.165482, "lon": 45.5185528, "tags": {"place": "isolated_dwelling"}}, {"type": "node", "id": 8350108237, "lat": 2.1698978, "lon": 45.5170521, "tags": {"place": "isolated_dwelling"}}, {"type": "node", "id": 8350108338, "lat": 2.1644863, "lon": 45.5096063, "tags": {"place": "isolated_dwelling"}}, {"type": "node", "id": 8354603713, "lat": 2.1801365, "lon": 45.5442175, "tags": {"place": "isolated_dwelling"}}, {"type": "node", "id": 8354603746, "lat": 2.1814739, "lon": 45.5423292, "tags": {"place": "isolated_dwelling"}}, {"type": "node", "id": 8354603747, "lat": 2.1813131, "lon": 45.5438983, "tags": {"place": "isolated_dwelling"}}, {"type": "node", "id": 8354603861, "lat": 2.18372, "lon": 45.5290765, "tags": {"place": "isolated_dwelling"}}, {"type": "node", "id": 8354603862, "lat": 2.1830848, "lon": 45.5290014, "tags": {"place": "isolated_dwelling"}}, {"type": "node", "id": 8354604008, "lat": 2.181289, "lon": 45.5369836, "tags": {"place": "isolated_dwelling"}}, {"type": "node", "id": 8354604009, "lat": 2.1820234, "lon": 45.5363318, "tags": {"place": "isolated_dwelling"}}, {"type": "node", "id": 8354604030, "lat": 2.1773061, "lon": 45.5366698, "tags": {"place": "isolated_dwelling"}}, {"type": "node", "id": 8354604031, "lat": 2.1768397, "lon": 45.5364525, "tags": {"place": "isolated_dwelling"}}, {"type": "node", "id": 8354604060, "lat": 2.178657, "lon": 45.5319008, "tags": {"place": "isolated_dwelling"}}, {"type": "node", "id": 8354604798, "lat": 2.174583, "lon": 45.530085, "tags": {"place": "isolated_dwelling"}}, {"type": "node", "id": 8354604846, "lat": 2.1687024, "lon": 45.530313, "tags": {"place": "isolated_dwelling"}}, {"type": "node", "id": 8354604865, "lat": 2.1564829, "lon": 45.5403686, "tags": {"place": "isolated_dwelling"}}, {"type": "node", "id": 8354604878, "lat": 2.1482101, "lon": 45.5313858, "tags": {"place": "isolated_dwelling"}}, {"type": "node", "id": 8354604879, "lat": 2.1488655, "lon": 45.5275851, "tags": {"place": "isolated_dwelling"}}, {"type": "node", "id": 8354605359, "lat": 2.1701029, "lon": 45.509377, "tags": {"place": "isolated_dwelling"}}, {"type": "node", "id": 8371954351, "lat": 2.1356447, "lon": 45.5052048, "tags": {"place": "hamlet"}}, {"type": "node", "id": 8371954352, "lat": 2.1529489, "lon": 45.5028552, "tags": {"place": "hamlet"}}, {"type": "node", "id": 8372103122, "lat": 2.1711629, "lon": 45.5393708, "tags": {"place": "hamlet"}}, {"type": "node", "id": 8372103123, "lat": 2.170458, "lon": 45.5400977, "tags": {"place": "hamlet"}}, {"type": "node", "id": 8372103124, "lat": 2.1725379, "lon": 45.5428871, "tags": {"place": "hamlet"}}, {"type": "node", "id": 8372103125, "lat": 2.1837977, "lon": 45.5331454, "tags": {"place": "hamlet"}}, {"type": "node", "id": 8372103126, "lat": 2.1758534, "lon": 45.5178595, "tags": {"place": "hamlet"}}, {"type": "node", "id": 8372103127, "lat": 2.1447083, "lon": 45.534052, "tags": {"place": "hamlet"}}, {"type": "node", "id": 8430141206, "lat": 2.0468812, "lon": 45.3104094, "tags": {"alt_name": "Shilson", "name": "Guryaha Ruushka", "place": "suburb"}}, {"type": "node", "id": 8458644851, "lat": 2.1764967, "lon": 45.350444, "tags": {"place": "isolated_dwelling"}}, {"type": "node", "id": 8458644852, "lat": 2.1817018, "lon": 45.3570718, "tags": {"place": "hamlet"}}, {"type": "node", "id": 8458644853, "lat": 2.1804474, "lon": 45.356589, "tags": {"place": "hamlet"}}, {"type": "node", "id": 8458644854, "lat": 2.1798524, "lon": 45.3584397, "tags": {"place": "hamlet"}}, {"type": "node", "id": 8458644855, "lat": 2.1760357, "lon": 45.365628, "tags": {"place": "isolated_dwelling"}}, {"type": "node", "id": 8458644856, "lat": 2.1753066, "lon": 45.3631496, "tags": {"place": "isolated_dwelling"}}, {"type": "node", "id": 8458644857, "lat": 2.1781102, "lon": 45.3638845, "tags": {"place": "isolated_dwelling"}}, {"type": "node", "id": 8458644858, "lat": 2.1810424, "lon": 45.3671837, "tags": {"place": "hamlet"}}, {"type": "node", "id": 8458644860, "lat": 2.1818358, "lon": 45.3598452, "tags": {"place": "hamlet"}}, {"type": "node", "id": 8458644861, "lat": 2.1834091, "lon": 45.3595877, "tags": {"place": "hamlet"}}, {"type": "node", "id": 8458644867, "lat": 2.1830955, "lon": 45.3702441, "tags": {"place": "hamlet"}}, {"type": "node", "id": 8458644873, "lat": 2.1811603, "lon": 45.352689, "tags": {"place": "hamlet"}}, {"type": "node", "id": 8458644874, "lat": 2.1773008, "lon": 45.3525174, "tags": {"place": "hamlet"}}, {"type": "node", "id": 8458644875, "lat": 2.1765878, "lon": 45.3557789, "tags": {"place": "hamlet"}}, {"type": "node", "id": 8458644876, "lat": 2.1815677, "lon": 45.3719687, "tags": {"place": "hamlet"}}, {"type": "node", "id": 8458644877, "lat": 2.1798256, "lon": 45.3636754, "tags": {"place": "hamlet"}}, {"type": "node", "id": 8458670831, "lat": 2.1770595, "lon": 45.3852296, "tags": {"place": "isolated_dwelling"}}, {"type": "node", "id": 8458670832, "lat": 2.1835324, "lon": 45.3854281, "tags": {"place": "isolated_dwelling"}}, {"type": "node", "id": 8458670837, "lat": 2.1787558, "lon": 45.3777204, "tags": {"place": "hamlet"}}, {"type": "node", "id": 8458670838, "lat": 2.177936, "lon": 45.3804941, "tags": {"place": "isolated_dwelling"}}, {"type": "node", "id": 8458670839, "lat": 2.1764457, "lon": 45.3800127, "tags": {"place": "hamlet"}}, {"type": "node", "id": 8458670840, "lat": 2.1793324, "lon": 45.3825635, "tags": {"place": "hamlet"}}, {"type": "node", "id": 8458670841, "lat": 2.1837884, "lon": 45.3837678, "tags": {"place": "isolated_dwelling"}}, {"type": "node", "id": 8458670842, "lat": 2.1820824, "lon": 45.3827619, "tags": {"place": "hamlet"}}, {"type": "node", "id": 8458670843, "lat": 2.1823182, "lon": 45.3842533, "tags": {"place": "hamlet"}}, {"type": "node", "id": 8458670844, "lat": 2.181943, "lon": 45.3856426, "tags": {"place": "hamlet"}}, {"type": "node", "id": 8458670845, "lat": 2.1787334, "lon": 45.3921778, "tags": {"place": "isolated_dwelling"}}, {"type": "node", "id": 8458670846, "lat": 2.1752771, "lon": 45.3844383, "tags": {"place": "isolated_dwelling"}}, {"type": "node", "id": 8458670867, "lat": 2.1773436, "lon": 45.3824776, "tags": {"place": "isolated_dwelling"}}, {"type": "node", "id": 8458676105, "lat": 2.1774777, "lon": 45.3903888, "tags": {"place": "hamlet"}}, {"type": "node", "id": 8458676117, "lat": 2.1762126, "lon": 45.3933674, "tags": {"place": "hamlet"}}, {"type": "node", "id": 8458676141, "lat": 2.1772077, "lon": 45.3878792, "tags": {"place": "hamlet"}}, {"type": "node", "id": 8458676149, "lat": 2.1784023, "lon": 45.3897853, "tags": {"place": "isolated_dwelling"}}, {"type": "node", "id": 8458676150, "lat": 2.1794852, "lon": 45.3889927, "tags": {"place": "isolated_dwelling"}}, {"type": "node", "id": 8458676151, "lat": 2.1794879, "lon": 45.3873982, "tags": {"place": "isolated_dwelling"}}, {"type": "node", "id": 8458676152, "lat": 2.1799381, "lon": 45.3865948, "tags": {"place": "isolated_dwelling"}}, {"type": "node", "id": 8458676153, "lat": 2.180308, "lon": 45.387893, "tags": {"place": "hamlet"}}, {"type": "node", "id": 8458676162, "lat": 2.1813265, "lon": 45.3892247, "tags": {"place": "isolated_dwelling"}}, {"type": "node", "id": 8458676163, "lat": 2.1821467, "lon": 45.3876811, "tags": {"place": "hamlet"}}, {"type": "node", "id": 8464198495, "lat": 2.1836905, "lon": 45.3354531, "tags": {"place": "isolated_dwelling"}}, {"type": "node", "id": 8464198496, "lat": 2.1831813, "lon": 45.3347236, "tags": {"place": "isolated_dwelling"}}, {"type": "node", "id": 8464198691, "lat": 2.1813747, "lon": 45.3258294, "tags": {"place": "hamlet"}}, {"type": "node", "id": 8464198723, "lat": 2.1777832, "lon": 45.3066677, "tags": {"place": "isolated_dwelling"}}, {"type": "node", "id": 8464198724, "lat": 2.1797934, "lon": 45.3098327, "tags": {"place": "isolated_dwelling"}}, {"type": "node", "id": 8464198726, "lat": 2.1781698, "lon": 45.3092592, "tags": {"place": "hamlet"}}, {"type": "node", "id": 8464198728, "lat": 2.1762394, "lon": 45.3074133, "tags": {"place": "isolated_dwelling"}}, {"type": "node", "id": 8464198729, "lat": 2.1762662, "lon": 45.3056699, "tags": {"place": "isolated_dwelling"}}, {"type": "node", "id": 8464198743, "lat": 2.1624627, "lon": 45.3370356, "tags": {"place": "hamlet"}}, {"type": "node", "id": 8464198744, "lat": 2.1697638, "lon": 45.3382373, "tags": {"place": "hamlet"}}, {"type": "node", "id": 8464198745, "lat": 2.1683111, "lon": 45.3367889, "tags": {"place": "hamlet"}}, {"type": "node", "id": 8464198746, "lat": 2.1656576, "lon": 45.3353405, "tags": {"place": "hamlet"}}, {"type": "node", "id": 8464198747, "lat": 2.167314, "lon": 45.3339136, "tags": {"place": "hamlet"}}, {"type": "node", "id": 8464198748, "lat": 2.1681128, "lon": 45.3299224, "tags": {"place": "hamlet"}}, {"type": "node", "id": 8464198749, "lat": 2.1647463, "lon": 45.329681, "tags": {"place": "hamlet"}}, {"type": "node", "id": 8464198750, "lat": 2.1621786, "lon": 45.3309095, "tags": {"place": "hamlet"}}, {"type": "node", "id": 8464198752, "lat": 2.1620607, "lon": 45.3283668, "tags": {"place": "isolated_dwelling"}}, {"type": "node", "id": 8464198774, "lat": 2.1637546, "lon": 45.3272295, "tags": {"place": "hamlet"}}, {"type": "node", "id": 8464198775, "lat": 2.1594393, "lon": 45.3252339, "tags": {"place": "isolated_dwelling"}}, {"type": "node", "id": 8464198785, "lat": 2.1577936, "lon": 45.3251427, "tags": {"place": "hamlet"}}, {"type": "node", "id": 8464198786, "lat": 2.1569627, "lon": 45.3274977, "tags": {"place": "hamlet"}}, {"type": "node", "id": 8464198788, "lat": 2.1568877, "lon": 45.3320253, "tags": {"place": "hamlet"}}, {"type": "node", "id": 8464198789, "lat": 2.1553224, "lon": 45.3360271, "tags": {"place": "hamlet"}}, {"type": "node", "id": 8464198790, "lat": 2.1584744, "lon": 45.3368157, "tags": {"place": "hamlet"}}, {"type": "node", "id": 8464198791, "lat": 2.1562176, "lon": 45.3454149, "tags": {"place": "hamlet"}}, {"type": "node", "id": 8464198795, "lat": 2.1517844, "lon": 45.3435802, "tags": {"place": "hamlet"}}, {"type": "node", "id": 8464198798, "lat": 2.1511732, "lon": 45.339793, "tags": {"place": "hamlet"}}, {"type": "node", "id": 8464199326, "lat": 2.1819644, "lon": 45.3191829, "tags": {"place": "isolated_dwelling"}}, {"type": "node", "id": 8464199327, "lat": 2.1824656, "lon": 45.3222405, "tags": {"place": "hamlet"}}, {"type": "node", "id": 8464199328, "lat": 2.1829293, "lon": 45.3213179, "tags": {"place": "isolated_dwelling"}}, {"type": "node", "id": 8474951834, "lat": 2.1785444, "lon": 45.3459299, "tags": {"place": "isolated_dwelling"}}, {"type": "node", "id": 8474951835, "lat": 2.1789518, "lon": 45.3452432, "tags": {"place": "isolated_dwelling"}}, {"type": "node", "id": 8474951838, "lat": 2.1809808, "lon": 45.3440966, "tags": {"place": "hamlet"}}, {"type": "node", "id": 8474951846, "lat": 2.1804394, "lon": 45.3460546, "tags": {"place": "hamlet"}}, {"type": "node", "id": 8474951857, "lat": 2.1791073, "lon": 45.3425074, "tags": {"place": "isolated_dwelling"}}, {"type": "node", "id": 8474951858, "lat": 2.1793646, "lon": 45.341987, "tags": {"place": "isolated_dwelling"}}, {"type": "node", "id": 8474951859, "lat": 2.1809245, "lon": 45.3427005, "tags": {"place": "isolated_dwelling"}}, {"type": "node", "id": 8474951860, "lat": 2.1683701, "lon": 45.3406298, "tags": {"place": "isolated_dwelling"}}, {"type": "node", "id": 8474951861, "lat": 2.1676839, "lon": 45.3416812, "tags": {"place": "isolated_dwelling"}}, {"type": "node", "id": 8474951862, "lat": 2.1654861, "lon": 45.3438914, "tags": {"place": "hamlet"}}, {"type": "node", "id": 8474951863, "lat": 2.1696137, "lon": 45.3417241, "tags": {"place": "isolated_dwelling"}}, {"type": "node", "id": 8474951864, "lat": 2.1710155, "lon": 45.3361157, "tags": {"place": "hamlet"}}, {"type": "node", "id": 8474951865, "lat": 2.181348, "lon": 45.349111, "tags": {"place": "hamlet"}}, {"type": "node", "id": 8474951866, "lat": 2.1824576, "lon": 45.3473809, "tags": {"place": "hamlet"}}, {"type": "node", "id": 8474951867, "lat": 2.1839049, "lon": 45.3470242, "tags": {"place": "hamlet"}}, {"type": "node", "id": 8474951868, "lat": 2.1837227, "lon": 45.3436983, "tags": {"place": "hamlet"}}, {"type": "node", "id": 8474951886, "lat": 2.1754246, "lon": 45.3448248, "tags": {"place": "hamlet"}}, {"type": "node", "id": 8474951887, "lat": 2.1760035, "lon": 45.3479469, "tags": {"place": "hamlet"}}, {"type": "node", "id": 8474951888, "lat": 2.176754, "lon": 45.3455114, "tags": {"place": "hamlet"}}, {"type": "node", "id": 8474951889, "lat": 2.1807637, "lon": 45.3390098, "tags": {"place": "hamlet"}}, {"type": "node", "id": 8474951890, "lat": 2.176561, "lon": 45.3430116, "tags": {"place": "isolated_dwelling"}}, {"type": "node", "id": 8474951891, "lat": 2.1771185, "lon": 45.3425825, "tags": {"place": "isolated_dwelling"}}, {"type": "node", "id": 8474951892, "lat": 2.1770059, "lon": 45.3409892, "tags": {"place": "isolated_dwelling"}}, {"type": "node", "id": 8474951893, "lat": 2.1801418, "lon": 45.350039, "tags": {"place": "isolated_dwelling"}}, {"type": "node", "id": 8481040898, "lat": 2.1648642, "lon": 45.3685141, "tags": {"place": "isolated_dwelling"}}, {"type": "node", "id": 8481040899, "lat": 2.1641674, "lon": 45.3671783, "tags": {"place": "isolated_dwelling"}}, {"type": "node", "id": 8481040900, "lat": 2.165336, "lon": 45.3669959, "tags": {"place": "isolated_dwelling"}}, {"type": "node", "id": 8481040911, "lat": 2.1674427, "lon": 45.376845, "tags": {"place": "isolated_dwelling"}}, {"type": "node", "id": 8481040912, "lat": 2.1674427, "lon": 45.3749138, "tags": {"place": "isolated_dwelling"}}, {"type": "node", "id": 8481040913, "lat": 2.1683325, "lon": 45.3746778, "tags": {"place": "isolated_dwelling"}}, {"type": "node", "id": 8481040914, "lat": 2.1723369, "lon": 45.3737497, "tags": {"place": "hamlet"}}, {"type": "node", "id": 8481049398, "lat": 2.1555046, "lon": 45.4223299, "tags": {"place": "isolated_dwelling"}}, {"type": "node", "id": 8481049408, "lat": 2.1544539, "lon": 45.4212087, "tags": {"place": "hamlet"}}, {"type": "node", "id": 8481049409, "lat": 2.1562792, "lon": 45.4193848, "tags": {"place": "isolated_dwelling"}}, {"type": "node", "id": 8481056446, "lat": 2.1708413, "lon": 45.3688681, "tags": {"place": "hamlet"}}, {"type": "node", "id": 8481056447, "lat": 2.1704875, "lon": 45.365349, "tags": {"place": "isolated_dwelling"}}, {"type": "node", "id": 8481056448, "lat": 2.1702677, "lon": 45.363847, "tags": {"place": "isolated_dwelling"}}, {"type": "node", "id": 8481056449, "lat": 2.1739558, "lon": 45.3698015, "tags": {"place": "isolated_dwelling"}}, {"type": "node", "id": 8481056450, "lat": 2.1744436, "lon": 45.3676665, "tags": {"place": "isolated_dwelling"}}, {"type": "node", "id": 8481056451, "lat": 2.1736502, "lon": 45.3605881, "tags": {"place": "hamlet"}}, {"type": "node", "id": 8481056467, "lat": 2.1742988, "lon": 45.3621036, "tags": {"place": "isolated_dwelling"}}, {"type": "node", "id": 8481056468, "lat": 2.1745722, "lon": 45.3626239, "tags": {"place": "isolated_dwelling"}}, {"type": "node", "id": 8481056481, "lat": 2.172294, "lon": 45.3656548, "tags": {"place": "hamlet"}}, {"type": "node", "id": 8481056482, "lat": 2.1678662, "lon": 45.3659713, "tags": {"place": "hamlet"}}, {"type": "node", "id": 8481056483, "lat": 2.1673355, "lon": 45.364134, "tags": {"place": "isolated_dwelling"}}, {"type": "node", "id": 8481056484, "lat": 2.1725781, "lon": 45.3573775, "tags": {"place": "isolated_dwelling"}}, {"type": "node", "id": 8481056507, "lat": 2.172026, "lon": 45.3556609, "tags": {"place": "hamlet"}}, {"type": "node", "id": 8481056508, "lat": 2.1734144, "lon": 45.3574902, "tags": {"place": "hamlet"}}, {"type": "node", "id": 8481056509, "lat": 2.1725674, "lon": 45.3584665, "tags": {"place": "hamlet"}}, {"type": "node", "id": 8481056510, "lat": 2.1745562, "lon": 45.3537404, "tags": {"place": "hamlet"}}, {"type": "node", "id": 8481056511, "lat": 2.1746794, "lon": 45.3554195, "tags": {"place": "isolated_dwelling"}}, {"type": "node", "id": 8481056532, "lat": 2.1740415, "lon": 45.3496367, "tags": {"place": "hamlet"}}, {"type": "node", "id": 8481056559, "lat": 2.1606433, "lon": 45.2957954, "tags": {"place": "hamlet"}}, {"type": "node", "id": 8481056560, "lat": 2.1629773, "lon": 45.2977091, "tags": {"place": "hamlet"}}, {"type": "node", "id": 8481056561, "lat": 2.1598789, "lon": 45.2927792, "tags": {"place": "isolated_dwelling"}}, {"type": "node", "id": 8481056562, "lat": 2.1742908, "lon": 45.2896062, "tags": {"place": "isolated_dwelling"}}, {"type": "node", "id": 8481056563, "lat": 2.1735859, "lon": 45.289236, "tags": {"place": "isolated_dwelling"}}, {"type": "node", "id": 8481056564, "lat": 2.1484715, "lon": 45.2702272, "tags": {"place": "hamlet"}}, {"type": "node", "id": 8481056576, "lat": 2.1525188, "lon": 45.2642941, "tags": {"place": "isolated_dwelling"}}, {"type": "node", "id": 8481056595, "lat": 2.1724334, "lon": 45.2628136, "tags": {"place": "hamlet"}}, {"type": "node", "id": 8481056596, "lat": 2.1784238, "lon": 45.473249, "tags": {"place": "hamlet"}}, {"type": "node", "id": 8481056599, "lat": 2.1787856, "lon": 45.4704004, "tags": {"place": "isolated_dwelling"}}, {"type": "node", "id": 8481056600, "lat": 2.1781102, "lon": 45.470556, "tags": {"place": "isolated_dwelling"}}, {"type": "node", "id": 8481056603, "lat": 2.1752155, "lon": 45.458808, "tags": {"place": "hamlet"}}, {"type": "node", "id": 8481056619, "lat": 2.1781584, "lon": 45.4545003, "tags": {"place": "isolated_dwelling"}}, {"type": "node", "id": 8481056620, "lat": 2.1832831, "lon": 45.4619354, "tags": {"place": "isolated_dwelling"}}, {"type": "node", "id": 8481056621, "lat": 2.1838459, "lon": 45.4568767, "tags": {"place": "hamlet"}}, {"type": "node", "id": 8481056680, "lat": 2.1819483, "lon": 45.4708028, "tags": {"place": "isolated_dwelling"}}, {"type": "node", "id": 8481056681, "lat": 2.1819644, "lon": 45.4693812, "tags": {"place": "isolated_dwelling"}}, {"type": "node", "id": 8481056682, "lat": 2.181289, "lon": 45.4681528, "tags": {"place": "isolated_dwelling"}}, {"type": "node", "id": 8481056683, "lat": 2.1804152, "lon": 45.4666293, "tags": {"place": "isolated_dwelling"}}, {"type": "node", "id": 8481056684, "lat": 2.1813319, "lon": 45.4654437, "tags": {"place": "isolated_dwelling"}}, {"type": "node", "id": 8481056685, "lat": 2.1805707, "lon": 45.4647142, "tags": {"place": "isolated_dwelling"}}, {"type": "node", "id": 8481056764, "lat": 2.1775822, "lon": 45.4252052, "tags": {"place": "hamlet"}}, {"type": "node", "id": 8481056765, "lat": 2.1795522, "lon": 45.4247975, "tags": {"place": "isolated_dwelling"}}, {"type": "node", "id": 8481056766, "lat": 2.1799596, "lon": 45.4238641, "tags": {"place": "isolated_dwelling"}}, {"type": "node", "id": 8481056777, "lat": 2.1774884, "lon": 45.4232687, "tags": {"place": "hamlet"}}, {"type": "node", "id": 8481056802, "lat": 2.1807261, "lon": 45.4189235, "tags": {"place": "hamlet"}}, {"type": "node", "id": 8481056803, "lat": 2.1795656, "lon": 45.4202699, "tags": {"place": "hamlet"}}, {"type": "node", "id": 8481056806, "lat": 2.1763734, "lon": 45.4109412, "tags": {"place": "isolated_dwelling"}}, {"type": "node", "id": 8481056807, "lat": 2.179059, "lon": 45.4119444, "tags": {"place": "isolated_dwelling"}}, {"type": "node", "id": 8481056808, "lat": 2.1824227, "lon": 45.4126257, "tags": {"place": "isolated_dwelling"}}, {"type": "node", "id": 8481056809, "lat": 2.1692385, "lon": 45.4237354, "tags": {"place": "hamlet"}}, {"type": "node", "id": 8481056826, "lat": 2.1722779, "lon": 45.4131567, "tags": {"place": "isolated_dwelling"}}, {"type": "node", "id": 8481056827, "lat": 2.173409, "lon": 45.4114133, "tags": {"place": "isolated_dwelling"}}, {"type": "node", "id": 8481056828, "lat": 2.1713398, "lon": 45.4106194, "tags": {"place": "isolated_dwelling"}}, {"type": "node", "id": 8481056836, "lat": 2.1738807, "lon": 45.4094124, "tags": {"place": "hamlet"}}, {"type": "node", "id": 8481056837, "lat": 2.1728997, "lon": 45.4057485, "tags": {"place": "isolated_dwelling"}}, {"type": "node", "id": 8481056838, "lat": 2.1735537, "lon": 45.4050565, "tags": {"place": "isolated_dwelling"}}, {"type": "node", "id": 8481056839, "lat": 2.1744543, "lon": 45.4036671, "tags": {"place": "isolated_dwelling"}}, {"type": "node", "id": 8481056840, "lat": 2.1738754, "lon": 45.4013872, "tags": {"place": "hamlet"}}, {"type": "node", "id": 8481056841, "lat": 2.1722994, "lon": 45.4020309, "tags": {"place": "hamlet"}}, {"type": "node", "id": 8481056856, "lat": 2.1690187, "lon": 45.404638, "tags": {"place": "hamlet"}}, {"type": "node", "id": 8481056857, "lat": 2.1685148, "lon": 45.4011726, "tags": {"place": "hamlet"}}, {"type": "node", "id": 8481056896, "lat": 2.1755264, "lon": 45.4066336, "tags": {"place": "hamlet"}}, {"type": "node", "id": 8481056904, "lat": 2.178866, "lon": 45.4105228, "tags": {"place": "hamlet"}}, {"type": "node", "id": 8481056905, "lat": 2.1823611, "lon": 45.4079962, "tags": {"place": "hamlet"}}, {"type": "node", "id": 8481056906, "lat": 2.1816535, "lon": 45.4052496, "tags": {"place": "hamlet"}}, {"type": "node", "id": 8481056921, "lat": 2.1803777, "lon": 45.4026747, "tags": {"place": "isolated_dwelling"}}, {"type": "node", "id": 8481056958, "lat": 2.1774911, "lon": 45.3691645, "tags": {"place": "isolated_dwelling"}}, {"type": "node", "id": 8481056968, "lat": 2.1789036, "lon": 45.3857499, "tags": {"place": "isolated_dwelling"}}, {"type": "node", "id": 8481057048, "lat": 2.1778904, "lon": 45.3174716, "tags": {"place": "hamlet"}}, {"type": "node", "id": 8481057049, "lat": 2.1768558, "lon": 45.3149128, "tags": {"place": "hamlet"}}, {"type": "node", "id": 8481057080, "lat": 2.1756202, "lon": 45.477275, "tags": {"place": "isolated_dwelling"}}, {"type": "node", "id": 8481057083, "lat": 2.1792574, "lon": 45.4834038, "tags": {"place": "hamlet"}}, {"type": "node", "id": 8481057086, "lat": 2.1772793, "lon": 45.4858661, "tags": {"place": "isolated_dwelling"}}, {"type": "node", "id": 8481057372, "lat": 2.1823182, "lon": 45.3963178, "tags": {"place": "hamlet"}}, {"type": "node", "id": 8481057373, "lat": 2.1800293, "lon": 45.3920156, "tags": {"place": "hamlet"}}, {"type": "node", "id": 8481057374, "lat": 2.1799489, "lon": 45.390653, "tags": {"place": "hamlet"}}, {"type": "node", "id": 8481057398, "lat": 2.1791555, "lon": 45.3957331, "tags": {"place": "hamlet"}}, {"type": "node", "id": 8481057399, "lat": 2.1754942, "lon": 45.3863668, "tags": {"place": "isolated_dwelling"}}, {"type": "node", "id": 8481057400, "lat": 2.1751244, "lon": 45.3859618, "tags": {"place": "isolated_dwelling"}}, {"type": "node", "id": 8481057401, "lat": 2.1761884, "lon": 45.3840762, "tags": {"place": "isolated_dwelling"}}, {"type": "node", "id": 8481089027, "lat": 2.156373, "lon": 45.4168957, "tags": {"place": "hamlet"}}, {"type": "node", "id": 8481089028, "lat": 2.1577882, "lon": 45.4151952, "tags": {"place": "isolated_dwelling"}}, {"type": "node", "id": 8481089029, "lat": 2.1575256, "lon": 45.4140848, "tags": {"place": "isolated_dwelling"}}, {"type": "node", "id": 8481089030, "lat": 2.1546362, "lon": 45.4164076, "tags": {"place": "isolated_dwelling"}}, {"type": "node", "id": 8481089031, "lat": 2.1555797, "lon": 45.415222, "tags": {"place": "isolated_dwelling"}}, {"type": "node", "id": 8481089032, "lat": 2.1561211, "lon": 45.4139131, "tags": {"place": "isolated_dwelling"}}, {"type": "node", "id": 8481089033, "lat": 2.15722, "lon": 45.4119176, "tags": {"place": "isolated_dwelling"}}, {"type": "node", "id": 8481089034, "lat": 2.1566732, "lon": 45.4110271, "tags": {"place": "isolated_dwelling"}}, {"type": "node", "id": 8481089035, "lat": 2.1590587, "lon": 45.4121321, "tags": {"place": "isolated_dwelling"}}, {"type": "node", "id": 8481089054, "lat": 2.1624734, "lon": 45.4193258, "tags": {"place": "hamlet"}}, {"type": "node", "id": 8481089055, "lat": 2.1668155, "lon": 45.4157317, "tags": {"place": "isolated_dwelling"}}, {"type": "node", "id": 8481089056, "lat": 2.1677697, "lon": 45.4157531, "tags": {"place": "isolated_dwelling"}}, {"type": "node", "id": 8481089057, "lat": 2.1694368, "lon": 45.4143637, "tags": {"place": "isolated_dwelling"}}, {"type": "node", "id": 8481089058, "lat": 2.1685952, "lon": 45.4155761, "tags": {"place": "isolated_dwelling"}}, {"type": "node", "id": 8481089059, "lat": 2.164414, "lon": 45.4138648, "tags": {"place": "isolated_dwelling"}}, {"type": "node", "id": 8481089060, "lat": 2.1655718, "lon": 45.4137683, "tags": {"place": "isolated_dwelling"}}, {"type": "node", "id": 8481089061, "lat": 2.1668101, "lon": 45.4125237, "tags": {"place": "isolated_dwelling"}}, {"type": "node", "id": 8481089084, "lat": 2.1727872, "lon": 45.4169869, "tags": {"place": "hamlet"}}, {"type": "node", "id": 8481089085, "lat": 2.175387, "lon": 45.4158711, "tags": {"place": "isolated_dwelling"}}, {"type": "node", "id": 8481089086, "lat": 2.1765664, "lon": 45.4165631, "tags": {"place": "isolated_dwelling"}}, {"type": "node", "id": 8481089087, "lat": 2.1789304, "lon": 45.4158711, "tags": {"place": "isolated_dwelling"}}, {"type": "node", "id": 8481089088, "lat": 2.1799703, "lon": 45.4136288, "tags": {"place": "isolated_dwelling"}}, {"type": "node", "id": 8481089111, "lat": 2.1615353, "lon": 45.405609, "tags": {"place": "isolated_dwelling"}}, {"type": "node", "id": 8481089112, "lat": 2.1648642, "lon": 45.4037476, "tags": {"place": "isolated_dwelling"}}, {"type": "node", "id": 8481089113, "lat": 2.1640333, "lon": 45.4038495, "tags": {"place": "isolated_dwelling"}}, {"type": "node", "id": 8481089114, "lat": 2.1630416, "lon": 45.4044771, "tags": {"place": "isolated_dwelling"}}, {"type": "node", "id": 8481089115, "lat": 2.1633043, "lon": 45.4033506, "tags": {"place": "isolated_dwelling"}}, {"type": "node", "id": 8481089116, "lat": 2.1647195, "lon": 45.4050296, "tags": {"place": "isolated_dwelling"}}, {"type": "node", "id": 8481089117, "lat": 2.1647088, "lon": 45.4063761, "tags": {"place": "isolated_dwelling"}}, {"type": "node", "id": 8481089118, "lat": 2.1651752, "lon": 45.4072934, "tags": {"place": "isolated_dwelling"}}, {"type": "node", "id": 8481089119, "lat": 2.1660811, "lon": 45.4074061, "tags": {"place": "isolated_dwelling"}}, {"type": "node", "id": 8481089120, "lat": 2.1652234, "lon": 45.4091978, "tags": {"place": "isolated_dwelling"}}, {"type": "node", "id": 8481089121, "lat": 2.16101, "lon": 45.411467, "tags": {"place": "isolated_dwelling"}}, {"type": "node", "id": 8481089122, "lat": 2.1597985, "lon": 45.4125613, "tags": {"place": "isolated_dwelling"}}, {"type": "node", "id": 8481089123, "lat": 2.1605007, "lon": 45.4131192, "tags": {"place": "isolated_dwelling"}}, {"type": "node", "id": 8481089124, "lat": 2.1594179, "lon": 45.4140258, "tags": {"place": "isolated_dwelling"}}, {"type": "node", "id": 8481089125, "lat": 2.1495061, "lon": 45.3905296, "tags": {"place": "isolated_dwelling"}}, {"type": "node", "id": 8481089126, "lat": 2.1500046, "lon": 45.3897357, "tags": {"place": "isolated_dwelling"}}, {"type": "node", "id": 8481089127, "lat": 2.1511786, "lon": 45.3889471, "tags": {"place": "isolated_dwelling"}}, {"type": "node", "id": 8481089130, "lat": 2.1493292, "lon": 45.3834486, "tags": {"place": "isolated_dwelling"}}, {"type": "node", "id": 8481089131, "lat": 2.1496615, "lon": 45.3855783, "tags": {"place": "hamlet"}}, {"type": "node", "id": 8481089132, "lat": 2.1481606, "lon": 45.3871554, "tags": {"place": "hamlet"}}, {"type": "node", "id": 8481089133, "lat": 2.1475602, "lon": 45.3832877, "tags": {"place": "hamlet"}}, {"type": "node", "id": 8481089134, "lat": 2.1461128, "lon": 45.387032, "tags": {"place": "hamlet"}}, {"type": "node", "id": 8481089135, "lat": 2.1502941, "lon": 45.3875577, "tags": {"place": "hamlet"}}, {"type": "node", "id": 8481089136, "lat": 2.1577293, "lon": 45.387091, "tags": {"place": "hamlet"}}, {"type": "node", "id": 8481089149, "lat": 2.1290158, "lon": 45.3763497, "tags": {"place": "village"}}, {"type": "node", "id": 8481089150, "lat": 2.1248844, "lon": 45.3708261, "tags": {"place": "hamlet"}}, {"type": "node", "id": 8481089151, "lat": 2.1270287, "lon": 45.3695977, "tags": {"place": "isolated_dwelling"}}, {"type": "node", "id": 8481089152, "lat": 2.1268304, "lon": 45.3680259, "tags": {"place": "isolated_dwelling"}}, {"type": "node", "id": 8481089153, "lat": 2.1283743, "lon": 45.3677255, "tags": {"place": "isolated_dwelling"}}, {"type": "node", "id": 8481089267, "lat": 2.1486001, "lon": 45.3631657, "tags": {"place": "hamlet"}}, {"type": "node", "id": 8481089269, "lat": 2.1469544, "lon": 45.3644103, "tags": {"place": "isolated_dwelling"}}, {"type": "node", "id": 8481089270, "lat": 2.1467829, "lon": 45.363552, "tags": {"place": "isolated_dwelling"}}, {"type": "node", "id": 8481089271, "lat": 2.1537678, "lon": 45.3680366, "tags": {"place": "isolated_dwelling"}}, {"type": "node", "id": 8481089272, "lat": 2.1506157, "lon": 45.3680956, "tags": {"place": "isolated_dwelling"}}, {"type": "node", "id": 8481089273, "lat": 2.1502887, "lon": 45.3674304, "tags": {"place": "isolated_dwelling"}}, {"type": "node", "id": 8481089274, "lat": 2.1508838, "lon": 45.3669316, "tags": {"place": "isolated_dwelling"}}, {"type": "node", "id": 8481089275, "lat": 2.1519344, "lon": 45.3670764, "tags": {"place": "hamlet"}}, {"type": "node", "id": 8481089276, "lat": 2.1459788, "lon": 45.3515625, "tags": {"place": "hamlet"}}, {"type": "node", "id": 8481089277, "lat": 2.1513662, "lon": 45.3512514, "tags": {"place": "hamlet"}}, {"type": "node", "id": 8481089278, "lat": 2.1485626, "lon": 45.3524798, "tags": {"place": "hamlet"}}, {"type": "node", "id": 8481089279, "lat": 2.1476352, "lon": 45.3565139, "tags": {"place": "hamlet"}}, {"type": "node", "id": 8481089280, "lat": 2.1491469, "lon": 45.359652, "tags": {"place": "hamlet"}}, {"type": "node", "id": 8481089281, "lat": 2.1515056, "lon": 45.3601724, "tags": {"place": "hamlet"}}, {"type": "node", "id": 8481089282, "lat": 2.155376, "lon": 45.3590298, "tags": {"place": "hamlet"}}, {"type": "node", "id": 8481089283, "lat": 2.1548506, "lon": 45.3616261, "tags": {"place": "hamlet"}}, {"type": "node", "id": 8481089298, "lat": 2.161278, "lon": 45.3543466, "tags": {"place": "hamlet"}}, {"type": "node", "id": 8481089299, "lat": 2.1609885, "lon": 45.3563315, "tags": {"place": "hamlet"}}, {"type": "node", "id": 8481089300, "lat": 2.1639583, "lon": 45.3540301, "tags": {"place": "hamlet"}}, {"type": "node", "id": 8481089311, "lat": 2.1684129, "lon": 45.3463644, "tags": {"place": "hamlet"}}, {"type": "node", "id": 8481089312, "lat": 2.1667297, "lon": 45.3499102, "tags": {"place": "hamlet"}}, {"type": "node", "id": 8481089350, "lat": 2.1666011, "lon": 45.355972, "tags": {"place": "hamlet"}}, {"type": "node", "id": 8481089351, "lat": 2.1640441, "lon": 45.3588581, "tags": {"place": "hamlet"}}, {"type": "node", "id": 8481089352, "lat": 2.1636259, "lon": 45.3624308, "tags": {"place": "hamlet"}}, {"type": "node", "id": 8481089353, "lat": 2.1601469, "lon": 45.3690719, "tags": {"place": "isolated_dwelling"}}, {"type": "node", "id": 8481089363, "lat": 2.1598574, "lon": 45.3671408, "tags": {"place": "hamlet"}}, {"type": "node", "id": 8481089364, "lat": 2.1612619, "lon": 45.3660035, "tags": {"place": "isolated_dwelling"}}, {"type": "node", "id": 8481089380, "lat": 2.1576167, "lon": 45.3689218, "tags": {"place": "hamlet"}}, {"type": "node", "id": 8481089381, "lat": 2.1627522, "lon": 45.3708744, "tags": {"place": "hamlet"}}, {"type": "node", "id": 8481089425, "lat": 2.1548077, "lon": 45.3754127, "tags": {"place": "hamlet"}}, {"type": "node", "id": 8481089426, "lat": 2.1523821, "lon": 45.3768826, "tags": {"place": "hamlet"}}, {"type": "node", "id": 8481089427, "lat": 2.1503423, "lon": 45.3741789, "tags": {"place": "hamlet"}}, {"type": "node", "id": 8481089428, "lat": 2.1522561, "lon": 45.3737283, "tags": {"place": "hamlet"}}, {"type": "node", "id": 8481089448, "lat": 2.1702516, "lon": 45.3967684, "tags": {"place": "hamlet"}}, {"type": "node", "id": 8481089449, "lat": 2.1750064, "lon": 45.3913718, "tags": {"place": "isolated_dwelling"}}, {"type": "node", "id": 8481089450, "lat": 2.1744489, "lon": 45.3908247, "tags": {"place": "isolated_dwelling"}}, {"type": "node", "id": 8481089462, "lat": 2.1731517, "lon": 45.3885072, "tags": {"place": "isolated_dwelling"}}, {"type": "node", "id": 8481089468, "lat": 2.1737735, "lon": 45.3858197, "tags": {"place": "isolated_dwelling"}}, {"type": "node", "id": 8481089486, "lat": 2.1693296, "lon": 45.3904062, "tags": {"place": "isolated_dwelling"}}, {"type": "node", "id": 8481089487, "lat": 2.167105, "lon": 45.3911251, "tags": {"place": "isolated_dwelling"}}, {"type": "node", "id": 8481089488, "lat": 2.1722254, "lon": 45.3907618, "tags": {"place": "hamlet"}}, {"type": "node", "id": 8481089489, "lat": 2.1706322, "lon": 45.3866029, "tags": {"place": "hamlet"}}, {"type": "node", "id": 8481089490, "lat": 2.1715542, "lon": 45.3840387, "tags": {"place": "hamlet"}}, {"type": "node", "id": 8481089491, "lat": 2.1641566, "lon": 45.3972995, "tags": {"place": "hamlet"}}, {"type": "node", "id": 8481089537, "lat": 2.1482463, "lon": 45.4049706, "tags": {"place": "hamlet"}}, {"type": "node", "id": 8481089538, "lat": 2.152315, "lon": 45.4004162, "tags": {"place": "hamlet"}}, {"type": "node", "id": 8481089539, "lat": 2.1510339, "lon": 45.4028678, "tags": {"place": "hamlet"}}, {"type": "node", "id": 8481089540, "lat": 2.1582385, "lon": 45.3494328, "tags": {"place": "isolated_dwelling"}}, {"type": "node", "id": 8481089541, "lat": 2.1558477, "lon": 45.3534776, "tags": {"place": "hamlet"}}, {"type": "node", "id": 8481089542, "lat": 2.1563998, "lon": 45.350216, "tags": {"place": "hamlet"}}, {"type": "node", "id": 8483394878, "lat": 2.1299383, "lon": 45.4874767, "tags": {"place": "isolated_dwelling"}}, {"type": "node", "id": 8483394879, "lat": 2.1398448, "lon": 45.479827, "tags": {"place": "hamlet"}}, {"type": "node", "id": 8483394881, "lat": 2.1411187, "lon": 45.476369, "tags": {"place": "isolated_dwelling"}}, {"type": "node", "id": 8483394882, "lat": 2.144124, "lon": 45.4860109, "tags": {"place": "isolated_dwelling"}}, {"type": "node", "id": 8483394883, "lat": 2.1438667, "lon": 45.4814297, "tags": {"place": "isolated_dwelling"}}, {"type": "node", "id": 8483394884, "lat": 2.1458555, "lon": 45.485056, "tags": {"place": "isolated_dwelling"}}, {"type": "node", "id": 8483394885, "lat": 2.1468311, "lon": 45.4837579, "tags": {"place": "isolated_dwelling"}}, {"type": "node", "id": 8483394890, "lat": 2.1463473, "lon": 45.4758105, "tags": {"place": "isolated_dwelling"}}, {"type": "node", "id": 8483394891, "lat": 2.1498465, "lon": 45.4794663, "tags": {"place": "hamlet"}}, {"type": "node", "id": 8483680422, "lat": 2.1833984, "lon": 45.3897679, "tags": {"place": "isolated_dwelling"}}, {"type": "node", "id": 8483680423, "lat": 2.1832188, "lon": 45.3909293, "tags": {"place": "isolated_dwelling"}}, {"type": "node", "id": 8483680668, "lat": 2.1831156, "lon": 45.3770247, "tags": {"place": "isolated_dwelling"}}, {"type": "node", "id": 8489449709, "lat": 2.1025327, "lon": 45.2627385, "tags": {"place": "hamlet"}}, {"type": "node", "id": 8489463624, "lat": 2.1005573, "lon": 45.2624086, "tags": {"place": "hamlet"}}, {"type": "node", "id": 8489463633, "lat": 2.104543, "lon": 45.2680224, "tags": {"place": "hamlet"}}, {"type": "node", "id": 8489463642, "lat": 2.1199579, "lon": 45.2691624, "tags": {"place": "hamlet"}}, {"type": "node", "id": 8498064227, "lat": 2.1177684, "lon": 45.4091463, "tags": {"place": "hamlet"}}, {"type": "node", "id": 8498064282, "lat": 2.1078855, "lon": 45.4205435, "tags": {"place": "isolated_dwelling"}}, {"type": "node", "id": 8498064283, "lat": 2.1073976, "lon": 45.4197335, "tags": {"place": "isolated_dwelling"}}, {"type": "node", "id": 8498064284, "lat": 2.1047065, "lon": 45.4197228, "tags": {"place": "isolated_dwelling"}}, {"type": "node", "id": 8498064285, "lat": 2.1052104, "lon": 45.4175878, "tags": {"place": "isolated_dwelling"}}, {"type": "node", "id": 8498064286, "lat": 2.1064917, "lon": 45.418666, "tags": {"place": "isolated_dwelling"}}, {"type": "node", "id": 8498064287, "lat": 2.1058537, "lon": 45.4187465, "tags": {"place": "isolated_dwelling"}}, {"type": "node", "id": 8498064288, "lat": 2.1072208, "lon": 45.4165685, "tags": {"place": "hamlet"}}, {"type": "node", "id": 8498064302, "lat": 2.1210934, "lon": 45.4206529, "tags": {"place": "hamlet"}}, {"type": "node", "id": 8498071320, "lat": 2.1210783, "lon": 45.411585, "tags": {"place": "hamlet"}}, {"type": "node", "id": 8498071321, "lat": 2.1220433, "lon": 45.4129851, "tags": {"place": "hamlet"}}, {"type": "node", "id": 8498071322, "lat": 2.1228098, "lon": 45.410555, "tags": {"place": "isolated_dwelling"}}, {"type": "node", "id": 8498071323, "lat": 2.1201456, "lon": 45.4074383, "tags": {"place": "isolated_dwelling"}}, {"type": "node", "id": 8498071345, "lat": 2.1186933, "lon": 45.4057571, "tags": {"place": "hamlet"}}, {"type": "node", "id": 8498071346, "lat": 2.1180441, "lon": 45.4041177, "tags": {"place": "isolated_dwelling"}}, {"type": "node", "id": 8498071347, "lat": 2.11724, "lon": 45.3923106, "tags": {"place": "hamlet"}}, {"type": "node", "id": 8498071362, "lat": 2.1189436, "lon": 45.3915724, "tags": {"place": "hamlet"}}, {"type": "node", "id": 8498071364, "lat": 2.1223059, "lon": 45.3852189, "tags": {"place": "hamlet"}}, {"type": "node", "id": 8498071365, "lat": 2.114045, "lon": 45.390197, "tags": {"place": "hamlet"}}, {"type": "node", "id": 8498071366, "lat": 2.1186874, "lon": 45.3897893, "tags": {"place": "hamlet"}}, {"type": "node", "id": 8498071367, "lat": 2.1190204, "lon": 45.3840718, "tags": {"place": "hamlet"}}, {"type": "node", "id": 8498071371, "lat": 2.131119, "lon": 45.3879547, "tags": {"place": "hamlet"}}, {"type": "node", "id": 8498071372, "lat": 2.1285512, "lon": 45.3877991, "tags": {"place": "hamlet"}}, {"type": "node", "id": 8498071373, "lat": 2.126037, "lon": 45.3998101, "tags": {"place": "hamlet"}}, {"type": "node", "id": 8498071374, "lat": 2.1280741, "lon": 45.3983724, "tags": {"place": "isolated_dwelling"}}, {"type": "node", "id": 8498071375, "lat": 2.1290926, "lon": 45.3968489, "tags": {"place": "hamlet"}}, {"type": "node", "id": 8498071391, "lat": 2.1394392, "lon": 45.3984887, "tags": {"place": "hamlet"}}, {"type": "node", "id": 8498071393, "lat": 2.133539, "lon": 45.3971312, "tags": {"place": "hamlet"}}, {"type": "node", "id": 8498071394, "lat": 2.1357988, "lon": 45.3950036, "tags": {"place": "hamlet"}}, {"type": "node", "id": 8498071395, "lat": 2.1386829, "lon": 45.3935873, "tags": {"place": "hamlet"}}, {"type": "node", "id": 8498071396, "lat": 2.1375893, "lon": 45.3921121, "tags": {"place": "hamlet"}}, {"type": "node", "id": 8498071415, "lat": 2.1386452, "lon": 45.3847413, "tags": {"place": "hamlet"}}, {"type": "node", "id": 8498071418, "lat": 2.1423389, "lon": 45.3812599, "tags": {"place": "isolated_dwelling"}}, {"type": "node", "id": 8498071426, "lat": 2.1391439, "lon": 45.3821826, "tags": {"place": "hamlet"}}, {"type": "node", "id": 8498071467, "lat": 2.1302076, "lon": 45.4198354, "tags": {"place": "hamlet"}}, {"type": "node", "id": 8498071468, "lat": 2.1280419, "lon": 45.4225767, "tags": {"place": "isolated_dwelling"}}, {"type": "node", "id": 8498071469, "lat": 2.1274147, "lon": 45.4182422, "tags": {"place": "hamlet"}}, {"type": "node", "id": 8498071470, "lat": 2.1279293, "lon": 45.4152381, "tags": {"place": "hamlet"}}, {"type": "node", "id": 8498071471, "lat": 2.1303611, "lon": 45.4105049, "tags": {"place": "hamlet"}}, {"type": "node", "id": 8498071473, "lat": 2.1346088, "lon": 45.4150879, "tags": {"place": "isolated_dwelling"}}, {"type": "node", "id": 8498071474, "lat": 2.1357908, "lon": 45.4151067, "tags": {"place": "isolated_dwelling"}}, {"type": "node", "id": 8498071475, "lat": 2.1361044, "lon": 45.4165068, "tags": {"place": "isolated_dwelling"}}, {"type": "node", "id": 8498071479, "lat": 2.144185, "lon": 45.4142387, "tags": {"place": "hamlet"}}, {"type": "node", "id": 8498071480, "lat": 2.1507658, "lon": 45.414589, "tags": {"place": "isolated_dwelling"}}, {"type": "node", "id": 8498071481, "lat": 2.1493638, "lon": 45.4132642, "tags": {"place": "hamlet"}}, {"type": "node", "id": 8498071484, "lat": 2.1495088, "lon": 45.4153966, "tags": {"place": "hamlet"}}, {"type": "node", "id": 8498071487, "lat": 2.1460778, "lon": 45.4230134, "tags": {"place": "isolated_dwelling"}}, {"type": "node", "id": 8498071488, "lat": 2.1434807, "lon": 45.4233786, "tags": {"place": "isolated_dwelling"}}, {"type": "node", "id": 8498071489, "lat": 2.1386454, "lon": 45.4239339, "tags": {"place": "isolated_dwelling"}}, {"type": "node", "id": 8498071491, "lat": 2.1335956, "lon": 45.4222548, "tags": {"place": "isolated_dwelling"}}, {"type": "node", "id": 8498071492, "lat": 2.1347722, "lon": 45.4210478, "tags": {"place": "hamlet"}}, {"type": "node", "id": 8498071495, "lat": 2.1376751, "lon": 45.4182208, "tags": {"place": "isolated_dwelling"}}, {"type": "node", "id": 8498071496, "lat": 2.1391814, "lon": 45.4174966, "tags": {"place": "isolated_dwelling"}}, {"type": "node", "id": 8498071497, "lat": 2.1398596, "lon": 45.4143906, "tags": {"place": "isolated_dwelling"}}, {"type": "node", "id": 8498071498, "lat": 2.1392833, "lon": 45.4138327, "tags": {"place": "isolated_dwelling"}}, {"type": "node", "id": 8498071499, "lat": 2.1446868, "lon": 45.4088008, "tags": {"place": "isolated_dwelling"}}, {"type": "node", "id": 8498071500, "lat": 2.1427034, "lon": 45.4105282, "tags": {"place": "isolated_dwelling"}}, {"type": "node", "id": 8498071501, "lat": 2.1387498, "lon": 45.410984, "tags": {"place": "hamlet"}}, {"type": "node", "id": 8498071502, "lat": 2.1381629, "lon": 45.4067489, "tags": {"place": "isolated_dwelling"}}, {"type": "node", "id": 8498071512, "lat": 2.1324591, "lon": 45.4027873, "tags": {"place": "isolated_dwelling"}}, {"type": "node", "id": 8498071513, "lat": 2.1316175, "lon": 45.4056305, "tags": {"place": "hamlet"}}, {"type": "node", "id": 8498071514, "lat": 2.1299932, "lon": 45.4046971, "tags": {"place": "isolated_dwelling"}}, {"type": "node", "id": 8498071515, "lat": 2.1264069, "lon": 45.4021651, "tags": {"place": "isolated_dwelling"}}, {"type": "node", "id": 8498071553, "lat": 2.1473779, "lon": 45.4621339, "tags": {"place": "hamlet"}}, {"type": "node", "id": 8498071554, "lat": 2.1469598, "lon": 45.4602671, "tags": {"place": "hamlet"}}, {"type": "node", "id": 8498071555, "lat": 2.1436254, "lon": 45.4616082, "tags": {"place": "isolated_dwelling"}}, {"type": "node", "id": 8498071556, "lat": 2.1430947, "lon": 45.4618227, "tags": {"place": "isolated_dwelling"}}, {"type": "node", "id": 8498071557, "lat": 2.1422424, "lon": 45.46031, "tags": {"place": "isolated_dwelling"}}, {"type": "node", "id": 8498071564, "lat": 2.1487341, "lon": 45.4683834, "tags": {"place": "isolated_dwelling"}}, {"type": "node", "id": 8498071565, "lat": 2.1480855, "lon": 45.469864, "tags": {"place": "isolated_dwelling"}}, {"type": "node", "id": 8498071566, "lat": 2.1498867, "lon": 45.4640758, "tags": {"place": "isolated_dwelling"}}, {"type": "node", "id": 8498071567, "lat": 2.1451157, "lon": 45.4684853, "tags": {"place": "hamlet"}}, {"type": "node", "id": 8498071580, "lat": 2.1312262, "lon": 45.4933119, "tags": {"place": "hamlet"}}, {"type": "node", "id": 8498071581, "lat": 2.1304757, "lon": 45.491842, "tags": {"place": "isolated_dwelling"}}, {"type": "node", "id": 8498071582, "lat": 2.1302505, "lon": 45.4892564, "tags": {"place": "isolated_dwelling"}}, {"type": "node", "id": 8498071583, "lat": 2.1279776, "lon": 45.4907423, "tags": {"place": "hamlet"}}, {"type": "node", "id": 8498071587, "lat": 2.1474395, "lon": 45.4895045, "tags": {"place": "isolated_dwelling"}}, {"type": "node", "id": 8498071588, "lat": 2.1701391, "lon": 45.4750407, "tags": {"place": "hamlet"}}, {"type": "node", "id": 8498071591, "lat": 2.1512563, "lon": 45.4913029, "tags": {"place": "isolated_dwelling"}}, {"type": "node", "id": 8498071592, "lat": 2.16049, "lon": 45.4978502, "tags": {"place": "isolated_dwelling"}}, {"type": "node", "id": 8498071593, "lat": 2.1611225, "lon": 45.4981667, "tags": {"place": "isolated_dwelling"}}, {"type": "node", "id": 8498071594, "lat": 2.1540841, "lon": 45.4974639, "tags": {"place": "isolated_dwelling"}}, {"type": "node", "id": 8498071595, "lat": 2.1526367, "lon": 45.4929739, "tags": {"place": "isolated_dwelling"}}, {"type": "node", "id": 8498071596, "lat": 2.1549686, "lon": 45.492062, "tags": {"place": "isolated_dwelling"}}, {"type": "node", "id": 8498071597, "lat": 2.1573916, "lon": 45.487631, "tags": {"place": "isolated_dwelling"}}, {"type": "node", "id": 8498071598, "lat": 2.1619159, "lon": 45.493269, "tags": {"place": "isolated_dwelling"}}, {"type": "node", "id": 8498071599, "lat": 2.1622483, "lon": 45.4907262, "tags": {"place": "isolated_dwelling"}}, {"type": "node", "id": 8498071600, "lat": 2.1634919, "lon": 45.4915845, "tags": {"place": "isolated_dwelling"}}, {"type": "node", "id": 8498071601, "lat": 2.1649178, "lon": 45.4894495, "tags": {"place": "isolated_dwelling"}}, {"type": "node", "id": 8498071602, "lat": 2.1714712, "lon": 45.4923329, "tags": {"place": "isolated_dwelling"}}, {"type": "node", "id": 8498071603, "lat": 2.1695199, "lon": 45.4905814, "tags": {"place": "isolated_dwelling"}}, {"type": "node", "id": 8498071604, "lat": 2.170919, "lon": 45.4867861, "tags": {"place": "isolated_dwelling"}}, {"type": "node", "id": 8498071605, "lat": 2.1668798, "lon": 45.4862013, "tags": {"place": "isolated_dwelling"}}, {"type": "node", "id": 8498071606, "lat": 2.1666587, "lon": 45.4829064, "tags": {"place": "hamlet"}}, {"type": "node", "id": 8498071608, "lat": 2.1611279, "lon": 45.4819769, "tags": {"place": "isolated_dwelling"}}, {"type": "node", "id": 8498071609, "lat": 2.1605597, "lon": 45.4810327, "tags": {"place": "isolated_dwelling"}}, {"type": "node", "id": 8498071610, "lat": 2.1613959, "lon": 45.4798686, "tags": {"place": "isolated_dwelling"}}, {"type": "node", "id": 8498071611, "lat": 2.1623501, "lon": 45.4796004, "tags": {"place": "isolated_dwelling"}}, {"type": "node", "id": 8498071612, "lat": 2.1704769, "lon": 45.4798295, "tags": {"place": "hamlet"}}, {"type": "node", "id": 8498071615, "lat": 2.171833, "lon": 45.4779053, "tags": {"place": "isolated_dwelling"}}, {"type": "node", "id": 8498071616, "lat": 2.1710182, "lon": 45.4772669, "tags": {"place": "hamlet"}}, {"type": "node", "id": 8498071617, "lat": 2.1681503, "lon": 45.4755664, "tags": {"place": "hamlet"}}, {"type": "node", "id": 8498071618, "lat": 2.1640923, "lon": 45.4753143, "tags": {"place": "isolated_dwelling"}}, {"type": "node", "id": 8498071620, "lat": 2.1620351, "lon": 45.4752246, "tags": {"place": "isolated_dwelling"}}, {"type": "node", "id": 8498071621, "lat": 2.1536445, "lon": 45.4632175, "tags": {"place": "isolated_dwelling"}}, {"type": "node", "id": 8498071622, "lat": 2.152701, "lon": 45.4638666, "tags": {"place": "isolated_dwelling"}}, {"type": "node", "id": 8498071623, "lat": 2.1526152, "lon": 45.4644889, "tags": {"place": "isolated_dwelling"}}, {"type": "node", "id": 8498071624, "lat": 2.1524115, "lon": 45.4653257, "tags": {"place": "isolated_dwelling"}}, {"type": "node", "id": 8498071625, "lat": 2.1647356, "lon": 45.455718, "tags": {"place": "isolated_dwelling"}}, {"type": "node", "id": 8498071626, "lat": 2.16547, "lon": 45.4561096, "tags": {"place": "isolated_dwelling"}}, {"type": "node", "id": 8498071627, "lat": 2.1657273, "lon": 45.455659, "tags": {"place": "isolated_dwelling"}}, {"type": "node", "id": 8498071642, "lat": 2.1531218, "lon": 45.4550287, "tags": {"place": "hamlet"}}, {"type": "node", "id": 8498071643, "lat": 2.1635563, "lon": 45.4502249, "tags": {"place": "hamlet"}}, {"type": "node", "id": 8498071644, "lat": 2.1591364, "lon": 45.4257604, "tags": {"place": "hamlet"}}, {"type": "node", "id": 8498071645, "lat": 2.172235, "lon": 45.4267877, "tags": {"place": "isolated_dwelling"}}, {"type": "node", "id": 8498071646, "lat": 2.172235, "lon": 45.4281503, "tags": {"place": "isolated_dwelling"}}, {"type": "node", "id": 8498071647, "lat": 2.1733795, "lon": 45.4269594, "tags": {"place": "isolated_dwelling"}}, {"type": "node", "id": 8498071648, "lat": 2.1733741, "lon": 45.4260796, "tags": {"place": "isolated_dwelling"}}, {"type": "node", "id": 8498071649, "lat": 2.1748349, "lon": 45.4309559, "tags": {"place": "isolated_dwelling"}}, {"type": "node", "id": 8498071650, "lat": 2.1713237, "lon": 45.4321146, "tags": {"place": "isolated_dwelling"}}, {"type": "node", "id": 8498071651, "lat": 2.1719509, "lon": 45.4348129, "tags": {"place": "isolated_dwelling"}}, {"type": "node", "id": 8498071652, "lat": 2.172696, "lon": 45.4351455, "tags": {"place": "isolated_dwelling"}}, {"type": "node", "id": 8498071653, "lat": 2.1739236, "lon": 45.4443508, "tags": {"place": "isolated_dwelling"}}, {"type": "node", "id": 8498071654, "lat": 2.1743846, "lon": 45.44846, "tags": {"place": "isolated_dwelling"}}, {"type": "node", "id": 8498071655, "lat": 2.1736288, "lon": 45.446915, "tags": {"place": "isolated_dwelling"}}, {"type": "node", "id": 8498071656, "lat": 2.1644676, "lon": 45.4463679, "tags": {"place": "isolated_dwelling"}}, {"type": "node", "id": 8498071657, "lat": 2.1618301, "lon": 45.4478967, "tags": {"place": "isolated_dwelling"}}, {"type": "node", "id": 8498071658, "lat": 2.1569949, "lon": 45.4457939, "tags": {"place": "isolated_dwelling"}}, {"type": "node", "id": 8498071659, "lat": 2.1516476, "lon": 45.4505146, "tags": {"place": "hamlet"}}, {"type": "node", "id": 8498071660, "lat": 2.1527493, "lon": 45.449506, "tags": {"place": "isolated_dwelling"}}, {"type": "node", "id": 8498071661, "lat": 2.1534783, "lon": 45.447253, "tags": {"place": "isolated_dwelling"}}, {"type": "node", "id": 8498071662, "lat": 2.1527439, "lon": 45.4470867, "tags": {"place": "isolated_dwelling"}}, {"type": "node", "id": 8498071663, "lat": 2.151926, "lon": 45.4432543, "tags": {"place": "hamlet"}}, {"type": "node", "id": 8498071672, "lat": 2.1651594, "lon": 45.4270692, "tags": {"place": "hamlet"}}, {"type": "node", "id": 8498071673, "lat": 2.1618998, "lon": 45.4262727, "tags": {"place": "isolated_dwelling"}}, {"type": "node", "id": 8498071674, "lat": 2.1607955, "lon": 45.4274824, "tags": {"place": "isolated_dwelling"}}, {"type": "node", "id": 8498071682, "lat": 2.1610261, "lon": 45.4296765, "tags": {"place": "isolated_dwelling"}}, {"type": "node", "id": 8498071683, "lat": 2.151066, "lon": 45.4334557, "tags": {"place": "isolated_dwelling"}}, {"type": "node", "id": 8498071684, "lat": 2.1517522, "lon": 45.4333967, "tags": {"place": "isolated_dwelling"}}, {"type": "node", "id": 8498071685, "lat": 2.1526581, "lon": 45.4331177, "tags": {"place": "isolated_dwelling"}}, {"type": "node", "id": 8498071686, "lat": 2.1538804, "lon": 45.4262459, "tags": {"place": "isolated_dwelling"}}, {"type": "node", "id": 8498071687, "lat": 2.1517736, "lon": 45.4292607, "tags": {"place": "hamlet"}}, {"type": "node", "id": 8498071688, "lat": 2.1525616, "lon": 45.426439, "tags": {"place": "hamlet"}}, {"type": "node", "id": 8498071760, "lat": 2.133869, "lon": 45.3882605, "tags": {"place": "hamlet"}}, {"type": "node", "id": 8498071761, "lat": 2.135102, "lon": 45.3899825, "tags": {"place": "hamlet"}}, {"type": "node", "id": 8498071763, "lat": 2.128117, "lon": 45.3859752, "tags": {"place": "hamlet"}}, {"type": "node", "id": 8498071765, "lat": 2.1306901, "lon": 45.3914255, "tags": {"place": "hamlet"}}, {"type": "node", "id": 8498071767, "lat": 2.1343193, "lon": 45.4025459, "tags": {"place": "hamlet"}}, {"type": "node", "id": 8498071768, "lat": 2.1439042, "lon": 45.4178345, "tags": {"place": "hamlet"}}, {"type": "node", "id": 8498071769, "lat": 2.1474958, "lon": 45.4076099, "tags": {"place": "hamlet"}}, {"type": "node", "id": 8498071770, "lat": 2.1493185, "lon": 45.4096055, "tags": {"place": "hamlet"}}, {"type": "node", "id": 8498071771, "lat": 2.1557887, "lon": 45.4061776, "tags": {"place": "hamlet"}}, {"type": "node", "id": 8514902548, "lat": 2.1058124, "lon": 45.264117, "tags": {"place": "isolated_dwelling"}}, {"type": "node", "id": 8514902549, "lat": 2.1064502, "lon": 45.2630744, "tags": {"place": "isolated_dwelling"}}, {"type": "node", "id": 8514902550, "lat": 2.1066562, "lon": 45.2645094, "tags": {"place": "isolated_dwelling"}}, {"type": "node", "id": 8514902551, "lat": 2.1084547, "lon": 45.2616591, "tags": {"place": "isolated_dwelling"}}, {"type": "node", "id": 8514902553, "lat": 2.1028646, "lon": 45.2647568, "tags": {"place": "isolated_dwelling"}}, {"type": "node", "id": 8514902554, "lat": 2.1017248, "lon": 45.2673036, "tags": {"place": "hamlet"}}, {"type": "node", "id": 8518786209, "lat": 2.1481125, "lon": 45.4543194, "tags": {"place": "isolated_dwelling"}}, {"type": "node", "id": 8518823639, "lat": 2.1331204, "lon": 45.4655961, "tags": {"place": "isolated_dwelling"}}, {"type": "node", "id": 8518823648, "lat": 2.1299829, "lon": 45.4662068, "tags": {"place": "isolated_dwelling"}}, {"type": "node", "id": 8518823794, "lat": 2.1440905, "lon": 45.4702904, "tags": {"place": "isolated_dwelling"}}, {"type": "node", "id": 8518823882, "lat": 2.1450766, "lon": 45.4617967, "tags": {"place": "isolated_dwelling"}}, {"type": "node", "id": 8522156328, "lat": 2.1203834, "lon": 45.4279725, "tags": {"place": "isolated_dwelling"}}, {"type": "node", "id": 8522156397, "lat": 2.1161737, "lon": 45.4263255, "tags": {"place": "isolated_dwelling"}}, {"type": "node", "id": 8522156398, "lat": 2.114137, "lon": 45.425841, "tags": {"place": "isolated_dwelling"}}, {"type": "node", "id": 8522156400, "lat": 2.1143615, "lon": 45.4267048, "tags": {"place": "isolated_dwelling"}}, {"type": "node", "id": 8522178495, "lat": 2.1642256, "lon": 45.3365754, "tags": {"place": "isolated_dwelling"}}, {"type": "node", "id": 8522178496, "lat": 2.1740879, "lon": 45.3421162, "tags": {"place": "isolated_dwelling"}}, {"type": "node", "id": 8522201124, "lat": 2.1667464, "lon": 45.3430936, "tags": {"place": "isolated_dwelling"}}, {"type": "node", "id": 8522201161, "lat": 2.1638748, "lon": 45.343919, "tags": {"place": "isolated_dwelling"}}, {"type": "node", "id": 8522201177, "lat": 2.1524536, "lon": 45.3467648, "tags": {"place": "isolated_dwelling"}}, {"type": "node", "id": 8522368700, "lat": 2.1201766, "lon": 45.4680725, "tags": {"place": "hamlet"}}, {"type": "node", "id": 8523771494, "lat": 2.1618612, "lon": 45.4623496, "tags": {"place": "isolated_dwelling"}}, {"type": "node", "id": 8523771495, "lat": 2.1437855, "lon": 45.4576982, "tags": {"place": "isolated_dwelling"}}, {"type": "node", "id": 8523771992, "lat": 2.140133, "lon": 45.4515656, "tags": {"place": "isolated_dwelling"}}, {"type": "node", "id": 8523771993, "lat": 2.1383104, "lon": 45.4534305, "tags": {"place": "isolated_dwelling"}}, {"type": "node", "id": 8524312724, "lat": 2.1495058, "lon": 45.4640588, "tags": {"place": "isolated_dwelling"}}, {"type": "node", "id": 8524312725, "lat": 2.1458117, "lon": 45.4560996, "tags": {"place": "isolated_dwelling"}}, {"type": "node", "id": 8524920380, "lat": 2.1418745, "lon": 45.4649419, "tags": {"place": "isolated_dwelling"}}, {"type": "node", "id": 8524921238, "lat": 2.141344, "lon": 45.4635496, "tags": {"place": "isolated_dwelling"}}, {"type": "node", "id": 8526247169, "lat": 2.1010766, "lon": 45.2699245, "tags": {"place": "isolated_dwelling"}}, {"type": "node", "id": 8526247170, "lat": 2.1007491, "lon": 45.2704889, "tags": {"place": "isolated_dwelling"}}, {"type": "node", "id": 8530146402, "lat": 2.1596721, "lon": 45.4685806, "tags": {"place": "isolated_dwelling"}}, {"type": "node", "id": 8530146403, "lat": 2.1599802, "lon": 45.4551928, "tags": {"place": "isolated_dwelling"}}, {"type": "node", "id": 8557814848, "lat": 2.1391816, "lon": 45.4596431, "tags": {"place": "hamlet"}}, {"type": "node", "id": 8557814860, "lat": 2.1802062, "lon": 45.3611433, "tags": {"place": "isolated_dwelling"}}, {"type": "node", "id": 8571212612, "lat": 2.1826727, "lon": 45.4744737, "tags": {"place": "isolated_dwelling"}}, {"type": "node", "id": 8571212613, "lat": 2.1838554, "lon": 45.4742385, "tags": {"place": "isolated_dwelling"}}, {"type": "node", "id": 8574149147, "lat": 2.1815575, "lon": 45.3633327, "tags": {"place": "isolated_dwelling"}}, {"type": "node", "id": 8574149148, "lat": 2.1822843, "lon": 45.3626351, "tags": {"place": "isolated_dwelling"}}, {"type": "node", "id": 8574149149, "lat": 2.183806, "lon": 45.3639086, "tags": {"place": "isolated_dwelling"}}, {"type": "node", "id": 8574788621, "lat": 2.1255116, "lon": 45.4259562, "tags": {"place": "hamlet"}}, {"type": "node", "id": 8575522171, "lat": 2.1732803, "lon": 45.3316176, "tags": {"place": "hamlet"}}, {"type": "node", "id": 8575522186, "lat": 2.1751828, "lon": 45.3330797, "tags": {"place": "hamlet"}}, {"type": "node", "id": 8575522196, "lat": 2.1760697, "lon": 45.3350597, "tags": {"place": "isolated_dwelling"}}, {"type": "node", "id": 8575522197, "lat": 2.1783943, "lon": 45.3349113, "tags": {"place": "hamlet"}}, {"type": "node", "id": 8575522261, "lat": 2.175613, "lon": 45.330138, "tags": {"place": "hamlet"}}, {"type": "node", "id": 8575522270, "lat": 2.1782455, "lon": 45.3307279, "tags": {"place": "hamlet"}}, {"type": "node", "id": 8575522280, "lat": 2.1774401, "lon": 45.3285089, "tags": {"place": "isolated_dwelling"}}, {"type": "node", "id": 8576066118, "lat": 2.1780633, "lon": 45.3024016, "tags": {"place": "hamlet"}}, {"type": "node", "id": 8578866057, "lat": 2.1740532, "lon": 45.3400554, "tags": {"place": "hamlet"}}, {"type": "node", "id": 8579320641, "lat": 2.1694422, "lon": 45.3505298, "tags": {"place": "hamlet"}}, {"type": "node", "id": 8579320893, "lat": 2.1779612, "lon": 45.3647511, "tags": {"place": "isolated_dwelling"}}, {"type": "node", "id": 8579519467, "lat": 2.164956, "lon": 45.3763394, "tags": {"place": "hamlet"}}, {"type": "node", "id": 8579519494, "lat": 2.1677155, "lon": 45.3854469, "tags": {"place": "hamlet"}}, {"type": "node", "id": 8579519508, "lat": 2.1666428, "lon": 45.3833075, "tags": {"place": "hamlet"}}, {"type": "node", "id": 8579519519, "lat": 2.1692894, "lon": 45.3787789, "tags": {"place": "hamlet"}}, {"type": "node", "id": 8579519619, "lat": 2.1840449, "lon": 45.3654908, "tags": {"place": "isolated_dwelling"}}, {"type": "node", "id": 8579519620, "lat": 2.1837606, "lon": 45.3664315, "tags": {"place": "isolated_dwelling"}}, {"type": "node", "id": 8582065853, "lat": 2.1684639, "lon": 45.4294378, "tags": {"place": "isolated_dwelling"}}, {"type": "node", "id": 8582065887, "lat": 2.1744811, "lon": 45.4141197, "tags": {"place": "isolated_dwelling"}}, {"type": "node", "id": 8582065894, "lat": 2.1773888, "lon": 45.4204355, "tags": {"place": "isolated_dwelling"}}, {"type": "node", "id": 8582065895, "lat": 2.1810353, "lon": 45.4276047, "tags": {"place": "isolated_dwelling"}}, {"type": "node", "id": 8582066077, "lat": 2.1760115, "lon": 45.4184058, "tags": {"place": "isolated_dwelling"}}, {"type": "node", "id": 8582066083, "lat": 2.17317, "lon": 45.4195612, "tags": {"place": "isolated_dwelling"}}, {"type": "node", "id": 8582142036, "lat": 2.182404, "lon": 45.4360896, "tags": {"place": "isolated_dwelling"}}, {"type": "node", "id": 8582142037, "lat": 2.1823771, "lon": 45.4387226, "tags": {"place": "isolated_dwelling"}}, {"type": "node", "id": 8582142038, "lat": 2.1817934, "lon": 45.4402816, "tags": {"place": "isolated_dwelling"}}, {"type": "node", "id": 8582142058, "lat": 2.1813158, "lon": 45.4517806, "tags": {"place": "hamlet"}}, {"type": "node", "id": 8582142261, "lat": 2.1680109, "lon": 45.451743, "tags": {"place": "isolated_dwelling"}}, {"type": "node", "id": 8582142262, "lat": 2.1689329, "lon": 45.4559594, "tags": {"place": "isolated_dwelling"}}, {"type": "node", "id": 8582142263, "lat": 2.171565, "lon": 45.4542214, "tags": {"place": "isolated_dwelling"}}, {"type": "node", "id": 8582142264, "lat": 2.1723959, "lon": 45.4517055, "tags": {"place": "isolated_dwelling"}}, {"type": "node", "id": 8582142265, "lat": 2.1736127, "lon": 45.4532665, "tags": {"place": "isolated_dwelling"}}, {"type": "node", "id": 8582142368, "lat": 2.1683864, "lon": 45.4353353, "tags": {"place": "isolated_dwelling"}}, {"type": "node", "id": 8582142369, "lat": 2.1714226, "lon": 45.4371484, "tags": {"place": "isolated_dwelling"}}, {"type": "node", "id": 8582142412, "lat": 2.1611065, "lon": 45.4438734, "tags": {"place": "hamlet"}}, {"type": "node", "id": 8582142426, "lat": 2.1672229, "lon": 45.4436749, "tags": {"place": "hamlet"}}, {"type": "node", "id": 8582142438, "lat": 2.1547633, "lon": 45.4372547, "tags": {"place": "hamlet"}}, {"type": "node", "id": 8582142439, "lat": 2.1646981, "lon": 45.4304194, "tags": {"place": "isolated_dwelling"}}, {"type": "node", "id": 8582142440, "lat": 2.1640709, "lon": 45.4332036, "tags": {"place": "isolated_dwelling"}}, {"type": "node", "id": 8582142441, "lat": 2.1628647, "lon": 45.433622, "tags": {"place": "isolated_dwelling"}}, {"type": "node", "id": 8582142442, "lat": 2.1614495, "lon": 45.433917, "tags": {"place": "isolated_dwelling"}}, {"type": "node", "id": 8582142443, "lat": 2.1603881, "lon": 45.4376507, "tags": {"place": "hamlet"}}, {"type": "node", "id": 8582142455, "lat": 2.164414, "lon": 45.4372537, "tags": {"place": "hamlet"}}, {"type": "node", "id": 8582142472, "lat": 2.1687314, "lon": 45.4401185, "tags": {"place": "hamlet"}}, {"type": "node", "id": 8582436256, "lat": 2.1628409, "lon": 45.4597826, "tags": {"place": "isolated_dwelling"}}, {"type": "node", "id": 8582436257, "lat": 2.1640601, "lon": 45.4612192, "tags": {"place": "hamlet"}}, {"type": "node", "id": 8582446464, "lat": 2.1810201, "lon": 45.4583943, "tags": {"place": "hamlet"}}, {"type": "node", "id": 8582446553, "lat": 2.1780446, "lon": 45.4526172, "tags": {"place": "hamlet"}}, {"type": "node", "id": 8582548151, "lat": 2.169335, "lon": 45.4662189, "tags": {"place": "hamlet"}}, {"type": "node", "id": 8582862906, "lat": 2.1598464, "lon": 45.4600161, "tags": {"place": "isolated_dwelling"}}, {"type": "node", "id": 8582893958, "lat": 2.1824112, "lon": 45.4875398, "tags": {"place": "isolated_dwelling"}}, {"type": "node", "id": 8583080346, "lat": 2.1580528, "lon": 45.4669103, "tags": {"place": "isolated_dwelling"}}, {"type": "node", "id": 8583080645, "lat": 2.1656669, "lon": 45.4704682, "tags": {"place": "isolated_dwelling"}}, {"type": "node", "id": 8583080646, "lat": 2.165337, "lon": 45.4688215, "tags": {"place": "isolated_dwelling"}}, {"type": "node", "id": 8583080883, "lat": 2.1544542, "lon": 45.441718, "tags": {"place": "hamlet"}}, {"type": "node", "id": 8583081012, "lat": 2.1492008, "lon": 45.4176097, "tags": {"place": "isolated_dwelling"}}, {"type": "node", "id": 8583081277, "lat": 2.1461966, "lon": 45.4010295, "tags": {"place": "hamlet"}}, {"type": "node", "id": 8583278438, "lat": 2.1541909, "lon": 45.4300817, "tags": {"place": "isolated_dwelling"}}, {"type": "node", "id": 8583340425, "lat": 2.131512, "lon": 45.4373912, "tags": {"place": "isolated_dwelling"}}, {"type": "node", "id": 8583340432, "lat": 2.1315006, "lon": 45.4333514, "tags": {"place": "isolated_dwelling"}}, {"type": "node", "id": 8583340434, "lat": 2.1270846, "lon": 45.4318152, "tags": {"place": "isolated_dwelling"}}, {"type": "node", "id": 8583340435, "lat": 2.1269135, "lon": 45.4331124, "tags": {"place": "isolated_dwelling"}}, {"type": "node", "id": 8583340436, "lat": 2.1257609, "lon": 45.4335228, "tags": {"place": "isolated_dwelling"}}, {"type": "node", "id": 8583340437, "lat": 2.1252007, "lon": 45.4326859, "tags": {"place": "isolated_dwelling"}}, {"type": "node", "id": 8583340441, "lat": 2.1253026, "lon": 45.4369748, "tags": {"place": "isolated_dwelling"}}, {"type": "node", "id": 8583340442, "lat": 2.1262085, "lon": 45.4367468, "tags": {"place": "isolated_dwelling"}}, {"type": "node", "id": 8583340443, "lat": 2.1272726, "lon": 45.4357517, "tags": {"place": "isolated_dwelling"}}, {"type": "node", "id": 8583340449, "lat": 2.1257797, "lon": 45.4408157, "tags": {"place": "isolated_dwelling"}}, {"type": "node", "id": 8583340450, "lat": 2.1266428, "lon": 45.4414165, "tags": {"place": "isolated_dwelling"}}, {"type": "node", "id": 8583340832, "lat": 2.1567402, "lon": 45.4583788, "tags": {"place": "hamlet"}}, {"type": "node", "id": 8583377961, "lat": 2.1565124, "lon": 45.3903687, "tags": {"place": "isolated_dwelling"}}, {"type": "node", "id": 8583377981, "lat": 2.1622912, "lon": 45.4235637, "tags": {"place": "isolated_dwelling"}}, {"type": "node", "id": 8583377982, "lat": 2.1617417, "lon": 45.4241565, "tags": {"place": "isolated_dwelling"}}, {"type": "node", "id": 8583380724, "lat": 2.1505444, "lon": 45.4277868, "tags": {"place": "isolated_dwelling"}}, {"type": "node", "id": 8583380726, "lat": 2.1613852, "lon": 45.3987586, "tags": {"place": "isolated_dwelling"}}, {"type": "node", "id": 8583380727, "lat": 2.155963, "lon": 45.3986219, "tags": {"place": "hamlet"}}, {"type": "node", "id": 8586439893, "lat": 2.1404948, "lon": 45.3707135, "tags": {"place": "isolated_dwelling"}}, {"type": "node", "id": 8586469323, "lat": 2.1424743, "lon": 45.3396173, "tags": {"place": "hamlet"}}, {"type": "node", "id": 8586469333, "lat": 2.1491898, "lon": 45.3344071, "tags": {"place": "hamlet"}}, {"type": "node", "id": 8586469334, "lat": 2.1481223, "lon": 45.3353233, "tags": {"place": "isolated_dwelling"}}, {"type": "node", "id": 8586469335, "lat": 2.1473831, "lon": 45.335164, "tags": {"place": "isolated_dwelling"}}, {"type": "node", "id": 8586469336, "lat": 2.146462, "lon": 45.3354675, "tags": {"place": "isolated_dwelling"}}, {"type": "node", "id": 8586477432, "lat": 2.1592589, "lon": 45.3647872, "tags": {"place": "isolated_dwelling"}}, {"type": "node", "id": 8586477433, "lat": 2.1580611, "lon": 45.364167, "tags": {"place": "isolated_dwelling"}}, {"type": "node", "id": 8586477434, "lat": 2.158823, "lon": 45.3609807, "tags": {"place": "hamlet"}}, {"type": "node", "id": 8586766792, "lat": 2.1676812, "lon": 45.3042832, "tags": {"place": "isolated_dwelling"}}, {"type": "node", "id": 8586766795, "lat": 2.1567533, "lon": 45.2997544, "tags": {"place": "isolated_dwelling"}}, {"type": "node", "id": 8586781196, "lat": 2.1710396, "lon": 45.3273904, "tags": {"place": "hamlet"}}, {"type": "node", "id": 8586781233, "lat": 2.1494686, "lon": 45.3260601, "tags": {"place": "hamlet"}}, {"type": "node", "id": 8586781238, "lat": 2.1463125, "lon": 45.3309657, "tags": {"place": "hamlet"}}, {"type": "node", "id": 8586962092, "lat": 2.1323144, "lon": 45.2703023, "tags": {"place": "hamlet"}}, {"type": "node", "id": 8586962122, "lat": 2.1430278, "lon": 45.2623836, "tags": {"place": "hamlet"}}, {"type": "node", "id": 8589853214, "lat": 2.143604, "lon": 45.4489857, "tags": {"place": "hamlet"}}, {"type": "node", "id": 8589853215, "lat": 2.1356305, "lon": 45.4485433, "tags": {"place": "hamlet"}}, {"type": "node", "id": 8589855128, "lat": 2.1323459, "lon": 45.4407008, "tags": {"place": "isolated_dwelling"}}, {"type": "node", "id": 8589855136, "lat": 2.1377399, "lon": 45.4521487, "tags": {"place": "isolated_dwelling"}}, {"type": "node", "id": 8590221970, "lat": 2.1449837, "lon": 45.4198855, "tags": {"place": "isolated_dwelling"}}, {"type": "node", "id": 8590221971, "lat": 2.1429254, "lon": 45.4200372, "tags": {"place": "isolated_dwelling"}}, {"type": "node", "id": 8590292250, "lat": 2.1411488, "lon": 45.4259402, "tags": {"place": "isolated_dwelling"}}, {"type": "node", "id": 8590292251, "lat": 2.1396612, "lon": 45.42303, "tags": {"place": "isolated_dwelling"}}, {"type": "node", "id": 8590292418, "lat": 2.1318024, "lon": 45.4299125, "tags": {"place": "isolated_dwelling"}}, {"type": "node", "id": 8597931775, "lat": 2.1130432, "lon": 45.4173611, "tags": {"place": "hamlet"}}, {"type": "node", "id": 8597931830, "lat": 2.1269262, "lon": 45.3722803, "tags": {"place": "isolated_dwelling"}}, {"type": "node", "id": 8597931831, "lat": 2.1264955, "lon": 45.3737271, "tags": {"place": "isolated_dwelling"}}, {"type": "node", "id": 8597932007, "lat": 2.1363921, "lon": 45.3994816, "tags": {"place": "isolated_dwelling"}}, {"type": "node", "id": 8597932008, "lat": 2.1320197, "lon": 45.3999509, "tags": {"place": "isolated_dwelling"}}, {"type": "node", "id": 8597932165, "lat": 2.1271263, "lon": 45.3957986, "tags": {"place": "isolated_dwelling"}}, {"type": "node", "id": 8598014642, "lat": 2.1276122, "lon": 45.4025815, "tags": {"place": "isolated_dwelling"}}, {"type": "node", "id": 8598014643, "lat": 2.1375776, "lon": 45.3782208, "tags": {"place": "hamlet"}}, {"type": "node", "id": 8598266371, "lat": 2.1312782, "lon": 45.354529, "tags": {"place": "hamlet"}}, {"type": "node", "id": 8598266384, "lat": 2.1257076, "lon": 45.3344073, "tags": {"place": "hamlet"}}, {"type": "node", "id": 8598271722, "lat": 2.13433, "lon": 45.3411305, "tags": {"place": "hamlet"}}, {"type": "node", "id": 8598271731, "lat": 2.1325284, "lon": 45.3416309, "tags": {"place": "hamlet"}}, {"type": "node", "id": 8598271739, "lat": 2.1317269, "lon": 45.3435435, "tags": {"place": "hamlet"}}, {"type": "node", "id": 8598271762, "lat": 2.1282979, "lon": 45.3425706, "tags": {"place": "hamlet"}}, {"type": "node", "id": 8598271773, "lat": 2.1313809, "lon": 45.3386317, "tags": {"place": "hamlet"}}, {"type": "node", "id": 8598603871, "lat": 2.1227414, "lon": 45.4178266, "tags": {"place": "isolated_dwelling"}}, {"type": "node", "id": 8598604204, "lat": 2.138937, "lon": 45.3340353, "tags": {"place": "village"}}, {"type": "node", "id": 8599223305, "lat": 2.1478637, "lon": 45.2616638, "tags": {"place": "isolated_dwelling"}}, {"type": "node", "id": 8599249912, "lat": 2.1127401, "lon": 45.2674274, "tags": {"place": "hamlet"}}, {"type": "node", "id": 8599250010, "lat": 2.1185834, "lon": 45.2631674, "tags": {"place": "hamlet"}}, {"type": "node", "id": 8599250027, "lat": 2.161053, "lon": 45.2659479, "tags": {"place": "hamlet"}}, {"type": "node", "id": 8599459756, "lat": 2.1439605, "lon": 45.3066677, "tags": {"place": "isolated_dwelling"}}, {"type": "node", "id": 8599459757, "lat": 2.1445528, "lon": 45.3052086, "tags": {"place": "hamlet"}}, {"type": "node", "id": 8599602050, "lat": 2.1229867, "lon": 45.4049814, "tags": {"place": "hamlet"}}, {"type": "node", "id": 8599602086, "lat": 2.1096212, "lon": 45.410577, "tags": {"place": "hamlet"}}, {"type": "node", "id": 8599602102, "lat": 2.1085749, "lon": 45.4089421, "tags": {"place": "hamlet"}}, {"type": "node", "id": 8599602115, "lat": 2.1055576, "lon": 45.4100876, "tags": {"place": "hamlet"}}, {"type": "node", "id": 8599602221, "lat": 2.1126082, "lon": 45.4108539, "tags": {"place": "hamlet"}}, {"type": "node", "id": 8661896800, "lat": 2.1683008, "lon": 45.4531337, "tags": {"place": "isolated_dwelling"}}, {"type": "node", "id": 8664175104, "lat": 2.1786099, "lon": 45.4343623, "tags": {"place": "isolated_dwelling"}}, {"type": "node", "id": 8665798198, "lat": 2.1802919, "lon": 45.3921926, "tags": {"place": "hamlet"}}, {"type": "node", "id": 8668212311, "lat": 2.1616166, "lon": 45.387628, "tags": {"place": "isolated_dwelling"}}, {"type": "node", "id": 8668212359, "lat": 2.1663661, "lon": 45.3849993, "tags": {"place": "isolated_dwelling"}}, {"type": "node", "id": 8675956803, "lat": 2.183397, "lon": 45.3088148, "tags": {"place": "isolated_dwelling"}}, {"type": "node", "id": 8681114305, "lat": 2.1741112, "lon": 45.2951717, "tags": {"place": "isolated_dwelling"}}, {"type": "node", "id": 8681196450, "lat": 2.1745669, "lon": 45.2801782, "tags": {"place": "isolated_dwelling"}}, {"type": "node", "id": 8682423281, "lat": 2.1791528, "lon": 45.2633849, "tags": {"place": "isolated_dwelling"}}, {"type": "node", "id": 8682971835, "lat": 2.1611048, "lon": 45.3080312, "tags": {"place": "isolated_dwelling"}}, {"type": "node", "id": 8684363553, "lat": 2.156687, "lon": 45.2996671, "tags": {"place": "hamlet"}}, {"type": "node", "id": 8691386177, "lat": 2.1535503, "lon": 45.365688, "tags": {"place": "isolated_dwelling"}}, {"type": "node", "id": 8693967146, "lat": 2.1551234, "lon": 45.3772308, "tags": {"place": "isolated_dwelling"}}, {"type": "node", "id": 8693967278, "lat": 2.1609537, "lon": 45.3697693, "tags": {"place": "isolated_dwelling"}}, {"type": "node", "id": 8694042695, "lat": 2.1456598, "lon": 45.3858867, "tags": {"place": "hamlet"}}, {"type": "node", "id": 8694042795, "lat": 2.1516932, "lon": 45.3860423, "tags": {"place": "isolated_dwelling"}}, {"type": "node", "id": 8694851851, "lat": 2.1526671, "lon": 45.4069924, "tags": {"place": "hamlet"}}, {"type": "node", "id": 8696423977, "lat": 2.1470295, "lon": 45.4155305, "tags": {"place": "isolated_dwelling"}}, {"type": "node", "id": 8696424002, "lat": 2.1599033, "lon": 45.4065713, "tags": {"place": "isolated_dwelling"}}, {"type": "node", "id": 8697020965, "lat": 2.1417733, "lon": 45.4162627, "tags": {"place": "isolated_dwelling"}}, {"type": "node", "id": 8697453101, "lat": 2.1584225, "lon": 45.4336423, "tags": {"place": "isolated_dwelling"}}, {"type": "node", "id": 8697453344, "lat": 2.1524096, "lon": 45.428593, "tags": {"place": "isolated_dwelling"}}, {"type": "node", "id": 8697453462, "lat": 2.1367029, "lon": 45.4285383, "tags": {"place": "hamlet"}}, {"type": "node", "id": 8697453578, "lat": 2.1377797, "lon": 45.4332286, "tags": {"place": "isolated_dwelling"}}, {"type": "node", "id": 8699106099, "lat": 2.1494449, "lon": 45.4378017, "tags": {"place": "isolated_dwelling"}}, {"type": "node", "id": 8699156127, "lat": 2.1493903, "lon": 45.4378073, "tags": {"place": "isolated_dwelling"}}, {"type": "node", "id": 8701514090, "lat": 2.1585235, "lon": 45.4523213, "tags": {"place": "isolated_dwelling"}}, {"type": "node", "id": 8701514249, "lat": 2.1588657, "lon": 45.4601195, "tags": {"place": "isolated_dwelling"}}, {"type": "node", "id": 8702999521, "lat": 2.1580665, "lon": 45.4736262, "tags": {"place": "isolated_dwelling"}}, {"type": "node", "id": 8707239268, "lat": 2.1439543, "lon": 45.4919747, "tags": {"place": "isolated_dwelling"}}, {"type": "node", "id": 8707239396, "lat": 2.148364, "lon": 45.4942766, "tags": {"place": "isolated_dwelling"}}, {"type": "node", "id": 8707239397, "lat": 2.1472844, "lon": 45.4929622, "tags": {"place": "hamlet"}}, {"type": "node", "id": 8708861293, "lat": 2.1131085, "lon": 45.4320959, "tags": {"place": "isolated_dwelling"}}, {"type": "node", "id": 8708875037, "lat": 2.1204082, "lon": 45.4788065, "tags": {"place": "isolated_dwelling"}}, {"type": "node", "id": 8710731163, "lat": 2.1162313, "lon": 45.4237609, "tags": {"place": "isolated_dwelling"}}, {"type": "node", "id": 8710731301, "lat": 2.1183078, "lon": 45.4395072, "tags": {"place": "isolated_dwelling"}}, {"type": "node", "id": 8710731302, "lat": 2.1178659, "lon": 45.4277801, "tags": {"place": "isolated_dwelling"}}, {"type": "node", "id": 8710731619, "lat": 2.1401853, "lon": 45.4385114, "tags": {"place": "hamlet"}}, {"type": "node", "id": 8710786150, "lat": 2.1334211, "lon": 45.4508745, "tags": {"place": "hamlet"}}, {"type": "node", "id": 8711698531, "lat": 2.1160671, "lon": 45.4700148, "tags": {"place": "hamlet"}}, {"type": "node", "id": 8714946535, "lat": 2.1123778, "lon": 45.3874558, "tags": {"place": "isolated_dwelling"}}, {"type": "node", "id": 8714946547, "lat": 2.1007663, "lon": 45.41188, "tags": {"place": "isolated_dwelling"}}, {"type": "node", "id": 8715552899, "lat": 2.1174521, "lon": 45.3972895, "tags": {"place": "isolated_dwelling"}}, {"type": "node", "id": 8715553136, "lat": 2.1135476, "lon": 45.398557, "tags": {"place": "isolated_dwelling"}}, {"type": "node", "id": 8715553409, "lat": 2.1141181, "lon": 45.4151409, "tags": {"place": "hamlet"}}, {"type": "node", "id": 8717936943, "lat": 2.1411307, "lon": 45.3898883, "tags": {"place": "isolated_dwelling"}}, {"type": "node", "id": 8718570578, "lat": 2.1321475, "lon": 45.3830544, "tags": {"place": "isolated_dwelling"}}, {"type": "node", "id": 8718775897, "lat": 2.1234093, "lon": 45.396707, "tags": {"place": "isolated_dwelling"}}, {"type": "node", "id": 8718790396, "lat": 2.1134823, "lon": 45.3955063, "tags": {"place": "isolated_dwelling"}}, {"type": "node", "id": 8718863509, "lat": 2.1222409, "lon": 45.3576979, "tags": {"place": "isolated_dwelling"}}, {"type": "node", "id": 8718863632, "lat": 2.1249373, "lon": 45.3573667, "tags": {"place": "isolated_dwelling"}}, {"type": "node", "id": 8721251560, "lat": 2.1193669, "lon": 45.3564326, "tags": {"place": "isolated_dwelling"}}, {"type": "node", "id": 8721258247, "lat": 2.1177672, "lon": 45.3550139, "tags": {"place": "hamlet"}}, {"type": "node", "id": 8721258623, "lat": 2.1210234, "lon": 45.3513307, "tags": {"place": "hamlet"}}, {"type": "node", "id": 8721258698, "lat": 2.1179871, "lon": 45.3448633, "tags": {"place": "isolated_dwelling"}}, {"type": "node", "id": 8721333770, "lat": 2.1211181, "lon": 45.3433384, "tags": {"place": "isolated_dwelling"}}, {"type": "node", "id": 8721410752, "lat": 2.1052855, "lon": 45.323351, "tags": {"place": "isolated_dwelling"}}, {"type": "node", "id": 8721410753, "lat": 2.1035808, "lon": 45.3204328, "tags": {"place": "isolated_dwelling"}}, {"type": "node", "id": 8722128652, "lat": 2.1005842, "lon": 45.3146465, "tags": {"place": "isolated_dwelling"}}, {"type": "node", "id": 8722128944, "lat": 2.0952152, "lon": 45.3180054, "tags": {"place": "isolated_dwelling"}}, {"type": "node", "id": 8722128945, "lat": 2.0963115, "lon": 45.317544, "tags": {"place": "isolated_dwelling"}}, {"type": "node", "id": 8726329228, "lat": 2.1093785, "lon": 45.312649, "tags": {"place": "isolated_dwelling"}}, {"type": "node", "id": 8727864201, "lat": 2.145692, "lon": 45.3044307, "tags": {"place": "isolated_dwelling"}}, {"type": "node", "id": 8727864202, "lat": 2.1467587, "lon": 45.3026551, "tags": {"place": "isolated_dwelling"}}, {"type": "node", "id": 8727888665, "lat": 2.140208, "lon": 45.2899602, "tags": {"place": "isolated_dwelling"}}, {"type": "node", "id": 8727888679, "lat": 2.1406101, "lon": 45.2867255, "tags": {"place": "isolated_dwelling"}}, {"type": "node", "id": 8728317571, "lat": 2.1329562, "lon": 45.3142482, "tags": {"place": "isolated_dwelling"}}, {"type": "node", "id": 8728318021, "lat": 2.1251659, "lon": 45.3101251, "tags": {"place": "isolated_dwelling"}}, {"type": "node", "id": 8728416864, "lat": 2.120379, "lon": 45.3135693, "tags": {"place": "isolated_dwelling"}}, {"type": "node", "id": 8728417142, "lat": 2.1269329, "lon": 45.3124047, "tags": {"place": "isolated_dwelling"}}, {"type": "node", "id": 8728417199, "lat": 2.1290633, "lon": 45.310235, "tags": {"place": "isolated_dwelling"}}, {"type": "node", "id": 8728417333, "lat": 2.1388809, "lon": 45.2998985, "tags": {"place": "isolated_dwelling"}}, {"type": "node", "id": 8728570934, "lat": 2.1145149, "lon": 45.3167138, "tags": {"place": "isolated_dwelling"}}, {"type": "node", "id": 8728572321, "lat": 2.1204082, "lon": 45.3135878, "tags": {"place": "isolated_dwelling"}}, {"type": "node", "id": 8730587563, "lat": 2.1454272, "lon": 45.2687183, "tags": {"place": "isolated_dwelling"}}, {"type": "node", "id": 8730587694, "lat": 2.1460792, "lon": 45.2728225, "tags": {"place": "hamlet"}}, {"type": "node", "id": 8730587695, "lat": 2.1474779, "lon": 45.2748936, "tags": {"place": "hamlet"}}, {"type": "node", "id": 8730675686, "lat": 2.1601308, "lon": 45.2753609, "tags": {"place": "isolated_dwelling"}}, {"type": "node", "id": 8730720248, "lat": 2.1557164, "lon": 45.275318, "tags": {"place": "hamlet"}}, {"type": "node", "id": 8730720603, "lat": 2.1533041, "lon": 45.2797866, "tags": {"place": "isolated_dwelling"}}, {"type": "node", "id": 8730795634, "lat": 2.1377323, "lon": 45.262835, "tags": {"place": "hamlet"}}, {"type": "node", "id": 8730795895, "lat": 2.1457494, "lon": 45.2742298, "tags": {"place": "isolated_dwelling"}}, {"type": "node", "id": 8731012438, "lat": 2.1326066, "lon": 45.2607885, "tags": {"place": "isolated_dwelling"}}, {"type": "node", "id": 8731012834, "lat": 2.1315764, "lon": 45.2726329, "tags": {"place": "isolated_dwelling"}}, {"type": "node", "id": 8732029106, "lat": 2.1167683, "lon": 45.2647018, "tags": {"place": "hamlet"}}, {"type": "node", "id": 8734608005, "lat": 2.1134714, "lon": 45.2744329, "tags": {"place": "isolated_dwelling"}}, {"type": "node", "id": 8734608057, "lat": 2.102916, "lon": 45.273293, "tags": {"place": "hamlet"}}, {"type": "node", "id": 8734608090, "lat": 2.1000641, "lon": 45.2768415, "tags": {"place": "isolated_dwelling"}}, {"type": "node", "id": 8734608091, "lat": 2.0991661, "lon": 45.276863, "tags": {"place": "isolated_dwelling"}}, {"type": "node", "id": 8734608092, "lat": 2.0994958, "lon": 45.2716112, "tags": {"place": "isolated_dwelling"}}, {"type": "node", "id": 8734608417, "lat": 2.1217057, "lon": 45.2883292, "tags": {"place": "isolated_dwelling"}}, {"type": "node", "id": 8734608744, "lat": 2.1257958, "lon": 45.2804545, "tags": {"place": "isolated_dwelling"}}, {"type": "node", "id": 8735670321, "lat": 2.1116487, "lon": 45.2722469, "tags": {"place": "isolated_dwelling"}}, {"type": "node", "id": 8735890383, "lat": 2.0858423, "lon": 45.2791837, "tags": {"place": "isolated_dwelling"}}, {"type": "node", "id": 8735890384, "lat": 2.0846747, "lon": 45.2780306, "tags": {"place": "isolated_dwelling"}}, {"type": "node", "id": 8956741168, "lat": 1.9909061, "lon": 45.263299, "tags": {"place": "hamlet"}}, {"type": "node", "id": 9208192860, "lat": 2.0428562, "lon": 45.3098759, "tags": {"description": "This is where Siyad Barre's government used to preach to the people and hold events in the country", "name": "Barxadii Tarabuunka", "name:en": "Tribune Square", "place": "locality"}}, {"type": "node", "id": 11960200725, "lat": 2.1339112, "lon": 45.3202973, "tags": {"name": "Daru-Salaam City", "note": "Area misssing", "place": "city"}}, {"type": "way", "id": 777930414, "nodes": [7260189773, 2164531484, 2164531478, 7260189772, 7260189773], "tags": {"memorial": "statue", "name": "Taalada Dhagaxtuur \u062a\u0645\u062b\u0627\u0644 \u0630\u063a\u062e\u062a\u0648\u0631", "name:ar": "\u062a\u0645\u062b\u0627\u0644 \u0630\u063a\u062e\u062a\u0648\u0631", "name:fr": "Statue de pierre", "name:so": "Taalada Dhagaxtuur", "place": "square", "tourism": "attraction"}}]}