{"version": 0.6, "generator": "Overpass API 0.7.62.1 084b4234", "osm3s": {"timestamp_osm_base": "2024-09-30T21:29:45Z", "copyright": "The data included in this document is from www.openstreetmap.org. The data is made available under ODbL."}, "elements": [{"type": "node", "id": 316829724, "lat": 11.5081383, "lon": 42.1037241, "tags": {"GNS:dsg_code": "PPL", "GNS:dsg_name": "populated place", "GNS:id": "-2037694", "GNS:modify_date": "2009-03-18", "alt_name": "Yoboki", "alt_name:ar": "\u064a\u0648\u0628\u0648\u0643", "name": "Yoboki \u064a\u0648\u0628\u0648\u0643\u064a", "name:ar": "\u064a\u0648\u0628\u0648\u0643\u064a", "name:azb": "\u06cc\u0648\u0628\u0648\u06a9\u06cc", "name:de": "Yoboki", "name:en": "Yoboki", "name:fa": "\u06cc\u0648\u0628\u0648\u06a9\u06cc", "name:fr": "Yoboki", "name:sv": "Yoboki", "name:ur": "\u06cc\u0648\u0628\u0648\u06a9\u06cc", "place": "town", "population": "20644", "source": "wikipedia", "wikidata": "Q2301477", "wikipedia": "ar:\u064a\u0648\u0628\u0648\u0643\u064a"}}, {"type": "node", "id": 1150669030, "lat": 11.2891803, "lon": 42.2220402, "tags": {"alt_name": "\u063a\u0648\u0631\u0627\u0628\u0648", "alt_name:ar": "\u063a\u0648\u0631\u0627\u0628\u0648", "name": "Gour A'Bbous \u063a\u0648\u0631 \u0622\u0628\u0648\u0633", "name:ar": "\u063a\u0648\u0631 \u0622\u0628\u0648\u0633", "name:en": "Gour A'Bbous", "name:fr": "Gour A'Bbous", "place": "village", "source": "300TDI", "wikidata": "Q5584359"}}, {"type": "node", "id": 2208274522, "lat": 11.4225322, "lon": 42.2093773, "tags": {"name": "Dikhil \u062f\u062e\u064a\u0644", "name:ar": "\u062f\u062e\u064a\u0644", "name:en": "Dikhil", "name:fr": "Dikhil", "place": "state"}}, {"type": "node", "id": 2515112103, "lat": 11.4301651, "lon": 42.0246187, "tags": {"name": "Agna \u0623\u063a\u0646\u0627", "name:ar": "\u0623\u063a\u0646\u0627", "name:de": "Agna", "name:en": "Agna", "name:fr": "Agna", "place": "hamlet"}}, {"type": "node", "id": 2515112104, "lat": 11.3984841, "lon": 42.0801531, "tags": {"name": "\u0647\u0627\u0646\u0644\u0647", "name:ar": "\u0647\u0627\u0646\u0644\u0647", "name:de": "Hanle", "name:en": "Hanle", "name:fr": "Hanle", "place": "hamlet"}}, {"type": "node", "id": 4906966606, "lat": 11.4283682, "lon": 42.0656605, "tags": {"GNS:dsg_code": "PPL", "GNS:dsg_name": "populated place", "GNS:id": "-2037495", "GNS:modify_date": "2009-03-18", "alt_name": "Tew`o;Teoao;Tewao;Tew\u2018o", "name": "Tewao \u062a\u064a\u0648", "name:ar": "\u062a\u064a\u0648", "name:en": "Tew`o", "name:fr": "Tewao", "place": "village", "wikidata": "Q7707181"}}]}