{"version": 0.6, "generator": "Overpass API 0.7.62.1 084b4234", "osm3s": {"timestamp_osm_base": "2024-09-30T22:40:13Z", "copyright": "The data included in this document is from www.openstreetmap.org. The data is made available under ODbL."}, "elements": [{"type": "node", "id": 281214573, "lat": 8.9577358, "lon": 38.7274968, "tags": {"name": "\u1295\u134b\u1235 \u1235\u120d\u12ad \u120b\u134d\u1276", "name:en": "Nefas Silk-Lafto", "name:fr": "Nefas Silk-Lafto", "place": "suburb"}}, {"type": "node", "id": 281214575, "lat": 9.0049643, "lon": 38.6874854, "tags": {"name": "\u12ae\u120d\u134c \u1240\u122b\u1292\u12ce", "name:en": "Kolfe Keranyo", "name:fr": "Kolfe Keranyo", "place": "suburb"}}, {"type": "node", "id": 281214854, "lat": 9.0023309, "lon": 38.7564134, "tags": {"name": "\u1242\u122d\u1246\u1235 \u12ad\u134d\u1208 \u12a8\u1270\u121b Kirkos", "name:am": "\u1242\u122d\u1246\u1235 \u12ad\u134d\u1208 \u12a8\u1270\u121b", "name:en": "Kirkos", "name:fr": "Kirkos", "place": "suburb"}}, {"type": "node", "id": 321732075, "lat": 9.0, "lon": 38.75, "tags": {"description": "A astedader akababiwach (chartered city), admimistratively at the same level as a Kilil (state)", "gns:dsg": "ADM1", "gns:uni": "9094740", "is_in:country": "Ethiopia", "is_in:country_code": "ET", "name": "\u12a3\u12f2\u1235 \u12a3\u1260\u1263 / Addis Ababa", "name:am": "\u12a3\u12f2\u1235 \u12a3\u1260\u1263", "name:de": "Addis Abeba", "name:en": "Addis Ababa", "name:fi": "Addis Abeba", "name:fr": "Addis-Abeba", "name:lt": "Adis Abeba", "name:ru": "\u0410\u0434\u0434\u0438\u0441-\u0410\u0431\u0435\u0431\u0430", "name:uk": "\u0410\u0434\u0434\u0438\u0441-\u0410\u0431\u0435\u0431\u0430", "place": "state", "population": "3147000", "source": "GNS;GeoDatabase", "wikidata": "Q3624", "wikipedia": "en:Addis Ababa"}}, {"type": "node", "id": 622356997, "lat": 8.9532491, "lon": 38.7636211, "tags": {"name": "\u1233\u122a\u1235 / Saris", "name:am": "\u1233\u122a\u1235", "name:en": "Saris", "name:fr": "Saris", "place": "suburb"}}, {"type": "node", "id": 622357000, "lat": 8.9835747, "lon": 38.6971482, "tags": {"name": "\u12a0\u12e8\u122d\u1324\u1293", "name:en": "Ayertena", "name:fr": "Ayertena", "place": "suburb"}}, {"type": "node", "id": 622357003, "lat": 8.9871126, "lon": 38.707801, "tags": {"name": "\u12d8\u1290\u1260\u12c8\u122d\u1245", "name:en": "Zenebework", "name:fr": "Zenebework", "place": "suburb"}}, {"type": "node", "id": 622357004, "lat": 8.9719137, "lon": 38.7305307, "tags": {"name": "\u1218\u12ab\u1292\u1233", "name:en": "Mekanisa", "name:fr": "Mekanisa", "place": "suburb"}}, {"type": "node", "id": 622357005, "lat": 8.9827291, "lon": 38.7342148, "tags": {"name": "\u1218\u12ab\u1292\u1233 \u12a3\u1266", "name:en": "Mekanisa Abo", "name:fr": "Mekanisa Abo", "place": "suburb", "tourism": "attraction"}}, {"type": "node", "id": 622357006, "lat": 8.9820782, "lon": 38.7584682, "tags": {"name": "\u130e\u1270\u122b", "name:en": "Gotera", "name:fr": "Gotera", "place": "suburb"}}, {"type": "node", "id": 622357008, "lat": 8.9847803, "lon": 38.7502416, "tags": {"name": "\u1244\u122b", "name:en": "Kera", "name:fr": "Kera", "place": "suburb"}}, {"type": "node", "id": 622357025, "lat": 8.9918958, "lon": 38.7264037, "tags": {"name": "\u1265\u1235\u122b\u1270 \u1308\u1265\u122d\u12a4\u120d", "name:en": "Besrat Gebriel", "name:fr": "Besrat Gebriel", "place": "suburb"}}, {"type": "node", "id": 622357026, "lat": 8.9927294, "lon": 38.7171514, "tags": {"name": "\u1236\u1235\u1275 \u1241\u1325\u122d", "name:en": "Soste Kuter Mazoria (Total)", "name:fr": "Soste Kuter Mazoria (Total)", "place": "suburb"}}, {"type": "node", "id": 622357027, "lat": 8.9885822, "lon": 38.7373252, "tags": {"name": "\u126b\u1272\u12ab\u1295", "name:en": "Vatican", "name:fr": "Vatican", "place": "suburb"}}, {"type": "node", "id": 622357028, "lat": 8.9943201, "lon": 38.7377689, "tags": {"name": "\u1233\u122d \u1264\u1275", "name:en": "Sarbet", "name:fr": "Sarbet", "place": "suburb"}}, {"type": "node", "id": 622357032, "lat": 8.9969513, "lon": 38.733979, "tags": {"name": "\u1218\u127b\u122c \u121c\u12f3 \u12a0\u12ab\u1263\u1262", "name:en": "Mechare Meda", "name:fr": "Mechare Meda", "place": "suburb"}}, {"type": "node", "id": 622357034, "lat": 9.0059158, "lon": 38.7171957, "tags": {"name": "\u12a0\u1309\u1235\u1273", "name:en": "Agusta", "name:fr": "Agusta", "place": "suburb"}}, {"type": "node", "id": 622357035, "lat": 9.0016374, "lon": 38.7187643, "tags": {"name": "\u121e\u1262\u120d", "name:en": "Mobil", "name:fr": "Mobil", "place": "suburb"}}, {"type": "node", "id": 622357036, "lat": 8.989616, "lon": 38.7597577, "tags": {"name": "\u120b\u1295\u127b", "name:en": "Lancha", "name:fr": "Lancha", "place": "suburb"}}, {"type": "node", "id": 622357037, "lat": 8.9944519, "lon": 38.7479297, "tags": {"name": "\u1261\u120d\u130b\u122a\u12eb", "name:en": "Bulgariya Mazoriya", "name:fr": "Bulgariya Mazoriya", "place": "suburb"}}, {"type": "node", "id": 622357038, "lat": 8.9977138, "lon": 38.7478578, "tags": {"name": "\u1260\u130d \u1270\u122b", "name:en": "Beg Tera", "name:fr": "Beg Tera", "place": "suburb"}}, {"type": "node", "id": 622357039, "lat": 8.9982814, "lon": 38.7582132, "tags": {"name": "\u1260\u1245\u120e \u1264\u1275", "name:en": "Bekelo Bet", "name:fr": "Bekelo Bet", "place": "suburb"}}, {"type": "node", "id": 622357041, "lat": 9.0076487, "lon": 38.7587009, "tags": {"name": "\u1218\u123f\u1208\u12aa\u12eb / Meshuwalekiya", "name:am": "\u1218\u123f\u1208\u12aa\u12eb", "name:en": "Meshuwalekiya", "name:fr": "Meshuwalekiya", "place": "suburb"}}, {"type": "node", "id": 622357042, "lat": 9.0027652, "lon": 38.7604314, "tags": {"name": "\u122a\u127c Riche", "name:am": "\u122a\u127c", "name:en": "Riche", "name:fr": "Riche", "place": "suburb"}}, {"type": "node", "id": 622357045, "lat": 9.0115277, "lon": 38.7199391, "tags": {"name": "\u1240\u1320\u1293 \u1201\u1208\u1275", "name:en": "Ketena Hulet", "name:fr": "Ketena Hulet", "place": "suburb"}}, {"type": "node", "id": 622357049, "lat": 9.0110809, "lon": 38.7366684, "tags": {"name": "\u120d\u12f0\u1273 Lideta", "name:am": "\u120d\u12f0\u1273", "name:en": "Lideta", "name:fr": "Lideta", "place": "suburb"}}, {"type": "node", "id": 622357051, "lat": 9.0141665, "lon": 38.7342329, "tags": {"name": "\u12f3\u122d\u121b\u122d", "name:en": "Darmar", "name:fr": "Darmar", "place": "suburb"}}, {"type": "node", "id": 622357052, "lat": 9.0114846, "lon": 38.7241029, "tags": {"name": "\u1326\u122d \u1203\u12ed\u120e\u127d", "name:en": "Tor Hiylloch", "name:fr": "Tor Hiylloch", "place": "suburb"}}, {"type": "node", "id": 622357074, "lat": 9.0116448, "lon": 38.753104, "tags": {"name": "\u1208\u1308\u1210\u122d \u12a0\u12ab\u1263\u1262 / Legahar", "name:am": "\u1208\u1308\u1210\u122d \u12a0\u12ab\u1263\u1262", "name:en": "Legahar", "name:fr": "La Gare", "place": "suburb"}}, {"type": "node", "id": 622357080, "lat": 9.0103877, "lon": 38.744549, "tags": {"name": "\u121c\u12ad\u1232\u12ae", "name:en": "Mexico", "name:fr": "Mexico", "place": "suburb"}}, {"type": "node", "id": 622357184, "lat": 8.9880118, "lon": 38.7642638, "tags": {"name": "\u1218\u1235\u1240\u120d \u134d\u120b\u12c8\u122d", "name:en": "Meskel Flower", "name:fr": "Meskel Flower", "place": "suburb"}}, {"type": "node", "id": 627616122, "lat": 8.9611369, "lon": 38.7254213, "tags": {"name": "\u1208\u1261", "name:en": "Lebu", "name:fr": "Lebu", "place": "suburb"}}, {"type": "node", "id": 627616132, "lat": 8.9470577, "lon": 38.7443279, "tags": {"name": "\u120b\u134d\u1276", "name:en": "Lafto", "name:fr": "Lafto", "place": "suburb"}}, {"type": "node", "id": 838787581, "lat": 8.9781236, "lon": 38.6839695, "tags": {"name": "\u1228\u1332", "name:en": "Repi", "name:fr": "Repi", "place": "suburb"}}, {"type": "node", "id": 1104351850, "lat": 8.8390369, "lon": 38.3796431, "tags": {"name": "Teji", "place": "town"}}, {"type": "node", "id": 1150880962, "lat": 8.7070737, "lon": 38.611621, "tags": {"name": "\u1218\u120d\u12ab \u12a0\u12cb\u123d\u1293 / Melka Awash", "name:am": "\u1218\u120d\u12ab \u12a0\u12cb\u123d\u1293", "name:en": "Melka Awash", "name:fr": "Awash Melka", "note": "Translation source: http://translator.abyssinica.com/.", "place": "town", "source": "GeoDatabase"}}, {"type": "node", "id": 1150880963, "lat": 8.83333, "lon": 38.68333, "tags": {"is_in:country": "Ethiopia", "is_in:country_code": "ET", "name": "Yamiwajo", "place": "locality", "source": "GeoDatabase"}}, {"type": "node", "id": 1150881279, "lat": 8.85, "lon": 38.58333, "tags": {"is_in:country": "Ethiopia", "is_in:country_code": "ET", "name": "Dima Shet'", "place": "locality", "source": "GeoDatabase"}}, {"type": "node", "id": 1150881364, "lat": 8.98333, "lon": 38.71667, "tags": {"name": "\u1308\u1265\u1228 \u12ad\u122d\u1235\u1276\u1235 \u1264\u1270 \u12ad\u122d\u1235\u1272\u12eb\u1295", "name:en": "Gebre Kristos Bete Kristiyan", "name:fr": "Gebre Kristos Bete Kristiyan", "place": "suburb", "source": "GeoDatabase"}}, {"type": "node", "id": 1150882383, "lat": 8.65, "lon": 38.73333, "tags": {"is_in:country": "Ethiopia", "is_in:country_code": "ET", "name": "Medalo", "place": "locality", "source": "GeoDatabase"}}, {"type": "node", "id": 1150882386, "lat": 8.76667, "lon": 38.38333, "tags": {"is_in:country": "Ethiopia", "is_in:country_code": "ET", "name": "Nado", "place": "locality", "source": "GeoDatabase"}}, {"type": "node", "id": 1150882747, "lat": 8.9599646, "lon": 38.7114803, "tags": {"name": "\u1300\u121e", "name:en": "Jemo", "name:fr": "Jemo", "note": "Translation source: http://translator.abyssinica.com/.", "place": "suburb", "source": "GeoDatabase"}}, {"type": "node", "id": 1150883101, "lat": 8.71667, "lon": 38.58333, "tags": {"is_in:country": "Ethiopia", "is_in:country_code": "ET", "name": "At'Ebela Shet'", "place": "locality", "source": "GeoDatabase"}}, {"type": "node", "id": 1150883115, "lat": 8.95, "lon": 38.76667, "tags": {"name": "\u12a0\u12f2\u1235 / Adiss", "name:am": "\u12a0\u12f2\u1235", "name:en": "Adiss", "name:fr": "Adiss", "name:ru": "\u0410\u0434\u0438\u0441", "note": "Translation source: http://translator.abyssinica.com/.", "place": "suburb", "source": "GeoDatabase"}}, {"type": "node", "id": 1150883254, "lat": 8.91667, "lon": 38.56666, "tags": {"is_in:country": "Ethiopia", "is_in:country_code": "ET", "name": "Fulaso", "place": "locality", "source": "GeoDatabase"}}, {"type": "node", "id": 1150885071, "lat": 8.95, "lon": 38.7, "tags": {"fixme": "Written with Abyssinica Translator. Correct name?", "name": "\u122d\u1271 \u1266\u1273", "name:en": "Irtu Bota", "name:fr": "Irtu Bota", "place": "suburb", "source": "GeoDatabase"}}, {"type": "node", "id": 1150885464, "lat": 8.86667, "lon": 38.66667, "tags": {"is_in:country": "Ethiopia", "is_in:country_code": "ET", "name": "Geja Giyorgis Bete Kristiyan", "place": "locality", "source": "GeoDatabase"}}, {"type": "node", "id": 1150886475, "lat": 8.95, "lon": 38.73333, "tags": {"fixme": "Correct name? Correct place classification?", "name": "\u1200\u122d\u1261 \u1238\u1275", "name:en": "Harbu Shet'", "name:fr": "Harbu Shet", "note": "Translation source: http://translator.abyssinica.com/.", "place": "suburb", "source": "GeoDatabase"}}, {"type": "node", "id": 1150887427, "lat": 8.85, "lon": 38.53333, "tags": {"is_in:country": "Ethiopia", "is_in:country_code": "ET", "name": "Mina", "place": "locality", "source": "GeoDatabase"}}, {"type": "node", "id": 1150888683, "lat": 8.86667, "lon": 38.7, "tags": {"is_in:country": "Ethiopia", "is_in:country_code": "ET", "name": "Yuyu", "place": "locality", "source": "GeoDatabase"}}, {"type": "node", "id": 1150890108, "lat": 8.98333, "lon": 38.51667, "tags": {"is_in:country": "Ethiopia", "is_in:country_code": "ET", "name": "Geresu", "place": "locality", "source": "GeoDatabase"}}, {"type": "node", "id": 1150890283, "lat": 8.73333, "lon": 38.46667, "tags": {"is_in:country": "Ethiopia", "is_in:country_code": "ET", "name": "Belo Sianur", "place": "locality", "source": "GeoDatabase"}}, {"type": "node", "id": 1150890406, "lat": 8.8, "lon": 38.46667, "tags": {"is_in:country": "Ethiopia", "is_in:country_code": "ET", "name": "Debel Terara", "place": "locality", "source": "GeoDatabase"}}, {"type": "node", "id": 1150891330, "lat": 8.93333, "lon": 38.41667, "tags": {"is_in:country": "Ethiopia", "is_in:country_code": "ET", "name": "Belo", "place": "locality", "source": "GeoDatabase"}}, {"type": "node", "id": 1150892057, "lat": 8.75, "lon": 38.55, "tags": {"is_in:country": "Ethiopia", "is_in:country_code": "ET", "name": "Kolecha", "place": "locality", "source": "GeoDatabase"}}, {"type": "node", "id": 1150892187, "lat": 8.73333, "lon": 38.71667, "tags": {"is_in:country": "Ethiopia", "is_in:country_code": "ET", "name": "Dibe", "place": "locality", "source": "GeoDatabase"}}, {"type": "node", "id": 1150892256, "lat": 8.78333, "lon": 38.63333, "tags": {"is_in:country": "Ethiopia", "is_in:country_code": "ET", "name": "Kembolcha", "place": "locality", "source": "GeoDatabase"}}, {"type": "node", "id": 1150892964, "lat": 8.8, "lon": 38.51667, "tags": {"is_in:country": "Ethiopia", "is_in:country_code": "ET", "name": "Indode", "place": "locality", "source": "GeoDatabase"}}, {"type": "node", "id": 1150893869, "lat": 8.91667, "lon": 38.61667, "tags": {"is_in:country": "Ethiopia", "is_in:country_code": "ET", "name": "Sebeta Gebri'El Bete Kristiyan", "place": "locality", "source": "GeoDatabase"}}, {"type": "node", "id": 1150894479, "lat": 8.81667, "lon": 38.71667, "tags": {"is_in:country": "Ethiopia", "is_in:country_code": "ET", "name": "Ak'Ak'I Hayk'", "place": "locality", "source": "GeoDatabase"}}, {"type": "node", "id": 1150894549, "lat": 8.85, "lon": 38.56666, "tags": {"is_in:country": "Ethiopia", "is_in:country_code": "ET", "name": "Gura", "place": "locality", "source": "GeoDatabase"}}, {"type": "node", "id": 1150894908, "lat": 8.7, "lon": 38.7, "tags": {"is_in:country": "Ethiopia", "is_in:country_code": "ET", "name": "Hamus Gebeya", "place": "locality", "source": "GeoDatabase"}}, {"type": "node", "id": 1150895066, "lat": 8.98333, "lon": 38.53333, "tags": {"is_in:country": "Ethiopia", "is_in:country_code": "ET", "name": "Suba Bota", "place": "locality", "source": "GeoDatabase"}}, {"type": "node", "id": 1150895445, "lat": 8.8, "lon": 38.71667, "tags": {"is_in:country": "Ethiopia", "is_in:country_code": "ET", "name": "Gewera T'Ina", "place": "locality", "source": "GeoDatabase"}}, {"type": "node", "id": 1150896822, "lat": 9.0, "lon": 38.48333, "tags": {"is_in:country": "Ethiopia", "is_in:country_code": "ET", "name": "Bobe", "place": "locality", "source": "GeoDatabase"}}, {"type": "node", "id": 1150896992, "lat": 8.86667, "lon": 38.38333, "tags": {"is_in:country": "Ethiopia", "is_in:country_code": "ET", "name": "K'Elina Shet'", "place": "locality", "source": "GeoDatabase"}}, {"type": "node", "id": 1150898063, "lat": 8.8992549, "lon": 38.587963, "tags": {"name": "\u12f2\u121b / Dima", "name:am": "\u12f2\u121b", "name:en": "Dima", "name:fr": "Dima", "place": "town", "source": "GPS, photo."}}, {"type": "node", "id": 1150898166, "lat": 8.78333, "lon": 38.76667, "tags": {"is_in:country": "Ethiopia", "is_in:country_code": "ET", "name": "Bilbilo Bota", "place": "locality", "source": "GeoDatabase"}}, {"type": "node", "id": 1150898870, "lat": 8.66667, "lon": 38.63333, "tags": {"is_in:country": "Ethiopia", "is_in:country_code": "ET", "name": "K'Ersa Shet'", "place": "locality", "source": "GeoDatabase"}}, {"type": "node", "id": 1150899172, "lat": 8.85, "lon": 38.6, "tags": {"is_in:country": "Ethiopia", "is_in:country_code": "ET", "name": "K'Ak'E Shet'", "place": "locality", "source": "GeoDatabase"}}, {"type": "node", "id": 1150899550, "lat": 8.91667, "lon": 38.68333, "tags": {"is_in:country": "Ethiopia", "is_in:country_code": "ET", "name": "Harbu Bota", "place": "locality", "source": "GeoDatabase"}}, {"type": "node", "id": 1150901313, "lat": 8.71667, "lon": 38.4, "tags": {"is_in:country": "Ethiopia", "is_in:country_code": "ET", "name": "Besi", "place": "locality", "source": "GeoDatabase"}}, {"type": "node", "id": 1150902381, "lat": 8.73333, "lon": 38.58333, "tags": {"is_in:country": "Ethiopia", "is_in:country_code": "ET", "name": "Kembolcha Shet'", "place": "locality", "source": "GeoDatabase"}}, {"type": "node", "id": 1150902583, "lat": 8.86667, "lon": 38.58333, "tags": {"is_in:country": "Ethiopia", "is_in:country_code": "ET", "name": "Sebeta Shet'", "place": "locality", "source": "GeoDatabase"}}, {"type": "node", "id": 1150907340, "lat": 8.95, "lon": 38.71667, "tags": {"name": "\u1218\u1292\u1233", "name:en": "Menisa", "name:fr": "Menisa", "note": "Translation source: http://translator.abyssinica.com/.", "place": "suburb", "source": "GeoDatabase"}}, {"type": "node", "id": 1150908132, "lat": 8.9, "lon": 38.65, "tags": {"is_in:country": "Ethiopia", "is_in:country_code": "ET", "name": "Shulufi", "place": "locality", "source": "GeoDatabase"}}, {"type": "node", "id": 1150910138, "lat": 8.66667, "lon": 38.38333, "tags": {"is_in:country": "Ethiopia", "is_in:country_code": "ET", "name": "Tulu", "place": "locality", "source": "GeoDatabase"}}, {"type": "node", "id": 1150910646, "lat": 8.96667, "lon": 38.73333, "tags": {"fixme": "Locality?", "name": "\u130d\u122c\u1275 \u12a0\u12ab\u127a", "name:en": "Great Acachi", "name:fr": "Great Acachi", "place": "suburb", "source": "GeoDatabase"}}, {"type": "node", "id": 1150911701, "lat": 8.73226, "lon": 38.5665053, "tags": {"is_in:country": "Ethiopia", "is_in:country_code": "ET", "name": "Buro Mika'El Bete Kristiyan", "place": "locality", "source": "GeoDatabase"}}, {"type": "node", "id": 1150911749, "lat": 8.95, "lon": 38.75, "tags": {"is_in:country": "Ethiopia", "is_in:country_code": "ET", "name": "Lafto", "place": "locality", "source": "GeoDatabase"}}, {"type": "node", "id": 1150912650, "lat": 8.78333, "lon": 38.55, "tags": {"is_in:country": "Ethiopia", "is_in:country_code": "ET", "name": "Dobi", "place": "locality", "source": "GeoDatabase"}}, {"type": "node", "id": 1150919294, "lat": 8.76667, "lon": 38.46667, "tags": {"is_in:country": "Ethiopia", "is_in:country_code": "ET", "name": "Bore Shet'", "place": "locality", "source": "GeoDatabase"}}, {"type": "node", "id": 1150921507, "lat": 8.98333, "lon": 38.58333, "tags": {"is_in:country": "Ethiopia", "is_in:country_code": "ET", "name": "Damota Terara", "place": "locality", "source": "GeoDatabase"}}, {"type": "node", "id": 1150921767, "lat": 8.76667, "lon": 38.55, "tags": {"is_in:country": "Ethiopia", "is_in:country_code": "ET", "name": "Becho Bota", "place": "locality", "source": "GeoDatabase"}}, {"type": "node", "id": 1150922171, "lat": 8.75, "lon": 38.71667, "tags": {"is_in:country": "Ethiopia", "is_in:country_code": "ET", "name": "Aba Samu'El", "place": "locality", "source": "GeoDatabase"}}, {"type": "node", "id": 1150922402, "lat": 8.83333, "lon": 38.63333, "tags": {"is_in:country": "Ethiopia", "is_in:country_code": "ET", "name": "K'Ajima Giyorgis Bete Kristiyan", "place": "locality", "source": "GeoDatabase"}}, {"type": "node", "id": 1150923537, "lat": 8.8, "lon": 38.53333, "tags": {"is_in:country": "Ethiopia", "is_in:country_code": "ET", "name": "Seriti", "place": "locality", "source": "GeoDatabase"}}, {"type": "node", "id": 1150924685, "lat": 8.88333, "lon": 38.63333, "tags": {"is_in:country": "Ethiopia", "is_in:country_code": "ET", "name": "Dalita", "place": "locality", "source": "GeoDatabase"}}, {"type": "node", "id": 1150925482, "lat": 8.83333, "lon": 38.71667, "tags": {"is_in:country": "Ethiopia", "is_in:country_code": "ET", "name": "Little Akaki", "place": "locality", "source": "GeoDatabase"}}, {"type": "node", "id": 1150925634, "lat": 8.8, "lon": 38.58333, "tags": {"is_in:country": "Ethiopia", "is_in:country_code": "ET", "name": "Boneya Shet'", "place": "locality", "source": "GeoDatabase"}}, {"type": "node", "id": 1150926378, "lat": 8.98333, "lon": 38.55, "tags": {"is_in:country": "Ethiopia", "is_in:country_code": "ET", "name": "Baburoto", "place": "locality", "source": "GeoDatabase"}}, {"type": "node", "id": 1150927640, "lat": 9.0, "lon": 38.5, "tags": {"is_in:country": "Ethiopia", "is_in:country_code": "ET", "name": "Bobi Shet'", "place": "locality", "source": "GeoDatabase"}}, {"type": "node", "id": 1150927910, "lat": 8.88333, "lon": 38.38333, "tags": {"is_in:country": "Ethiopia", "is_in:country_code": "ET", "name": "Ualata", "place": "locality", "source": "GeoDatabase"}}, {"type": "node", "id": 1150932863, "lat": 8.7, "lon": 38.55, "tags": {"is_in:country": "Ethiopia", "is_in:country_code": "ET", "name": "Dembi", "place": "locality", "source": "GeoDatabase"}}, {"type": "node", "id": 1150933982, "lat": 8.71667, "lon": 38.63333, "tags": {"is_in:country": "Ethiopia", "is_in:country_code": "ET", "name": "Rebto Gebri'El Bete Kristiyan", "place": "locality", "source": "GeoDatabase"}}, {"type": "node", "id": 1150937229, "lat": 8.91667, "lon": 38.51667, "tags": {"is_in:country": "Ethiopia", "is_in:country_code": "ET", "name": "Meta Jira Timhirt Bet", "place": "locality", "source": "GeoDatabase"}}, {"type": "node", "id": 1150937864, "lat": 8.96667, "lon": 38.43333, "tags": {"is_in:country": "Ethiopia", "is_in:country_code": "ET", "name": "Gelgel", "place": "locality", "source": "GeoDatabase"}}, {"type": "node", "id": 1150938386, "lat": 8.78333, "lon": 38.7, "tags": {"is_in:country": "Ethiopia", "is_in:country_code": "ET", "name": "Aba Samu'El Yewiha Gidib", "place": "locality", "source": "GeoDatabase"}}, {"type": "node", "id": 1150941085, "lat": 8.75, "lon": 38.58333, "tags": {"is_in:country": "Ethiopia", "is_in:country_code": "ET", "name": "At'Ebela", "place": "locality", "source": "GeoDatabase"}}, {"type": "node", "id": 1150941137, "lat": 8.98333, "lon": 38.76667, "tags": {"fixme": "Name written with Abyssinica Translator. Name correct?", "name": "\u1263\u1295\u1275\u12ea\u12a8\u1271", "name:en": "Bantyiketu", "name:fr": "Bantyiketu", "place": "suburb", "source": "GeoDatabase"}}, {"type": "node", "id": 1150941735, "lat": 8.88333, "lon": 38.58333, "tags": {"is_in:country": "Ethiopia", "is_in:country_code": "ET", "name": "Sima", "place": "locality", "source": "GeoDatabase"}}, {"type": "node", "id": 1150950077, "lat": 8.68333, "lon": 38.7, "tags": {"is_in:country": "Ethiopia", "is_in:country_code": "ET", "name": "Agindo", "place": "locality", "source": "GeoDatabase"}}, {"type": "node", "id": 1150950235, "lat": 8.68333, "lon": 38.71667, "tags": {"is_in:country": "Ethiopia", "is_in:country_code": "ET", "name": "Oda Ch'Eba", "place": "locality", "source": "GeoDatabase"}}, {"type": "node", "id": 1150950238, "lat": 8.7, "lon": 38.38333, "tags": {"is_in:country": "Ethiopia", "is_in:country_code": "ET", "name": "Soddo", "place": "locality", "source": "GeoDatabase"}}, {"type": "node", "id": 1150950977, "lat": 8.93333, "lon": 38.5, "tags": {"is_in:country": "Ethiopia", "is_in:country_code": "ET", "name": "Roge", "place": "locality", "source": "GeoDatabase"}}, {"type": "node", "id": 1150951654, "lat": 9.0, "lon": 38.7, "tags": {"fixme": "Name written with Abyssinica Translator. Name correct?", "name": "\u12a9\u122d\u1271\u121c \u121d\u1295\u132d", "name:en": "Kurtume Stream", "name:fr": "Kurtume Stream", "place": "suburb", "source": "GeoDatabase"}}, {"type": "node", "id": 1150954010, "lat": 8.75, "lon": 38.56666, "tags": {"is_in:country": "Ethiopia", "is_in:country_code": "ET", "name": "Buro", "place": "locality", "source": "GeoDatabase"}}, {"type": "node", "id": 1150954042, "lat": 8.96667, "lon": 38.75, "tags": {"fixme": "Correct name? Correct place classification?", "name": "\u1309\u1208\u120c \u1263\u1273", "name:en": "Gulele Bota", "name:fr": "Gulele Bota", "note": "Translation source: http://translator.abyssinica.com/.", "place": "suburb", "source": "GeoDatabase"}}, {"type": "node", "id": 1150954713, "lat": 8.88333, "lon": 38.56666, "tags": {"is_in:country": "Ethiopia", "is_in:country_code": "ET", "name": "Kakisa", "place": "locality", "source": "GeoDatabase"}}, {"type": "node", "id": 1150956395, "lat": 8.88333, "lon": 38.51667, "tags": {"is_in:country": "Ethiopia", "is_in:country_code": "ET", "name": "Jumbul", "place": "locality", "source": "GeoDatabase"}}, {"type": "node", "id": 1150961585, "lat": 8.8, "lon": 38.43333, "tags": {"is_in:country": "Ethiopia", "is_in:country_code": "ET", "name": "Weserbi Shet'", "place": "locality", "source": "GeoDatabase"}}, {"type": "node", "id": 1150962473, "lat": 8.9346018, "lon": 38.7444022, "tags": {"name": "\u1210\u1293", "name:en": "Hana", "name:fr": "Hana", "note": "Translation source: http://translator.abyssinica.com/.", "place": "suburb", "source": "GeoDatabase"}}, {"type": "node", "id": 1150963712, "lat": 8.7, "lon": 38.56666, "tags": {"is_in:country": "Ethiopia", "is_in:country_code": "ET", "name": "Dilelecha Shet'", "place": "locality", "source": "GeoDatabase"}}, {"type": "node", "id": 1150966007, "lat": 8.73333, "lon": 38.73333, "tags": {"is_in:country": "Ethiopia", "is_in:country_code": "ET", "name": "Dufa", "place": "locality", "source": "GeoDatabase"}}, {"type": "node", "id": 1150966518, "lat": 8.85, "lon": 38.63333, "tags": {"is_in:country": "Ethiopia", "is_in:country_code": "ET", "name": "K'Ajima Bota", "place": "locality", "source": "GeoDatabase"}}, {"type": "node", "id": 1150967791, "lat": 8.81667, "lon": 38.53333, "tags": {"is_in:country": "Ethiopia", "is_in:country_code": "ET", "name": "Boro Bota", "place": "locality", "source": "GeoDatabase"}}, {"type": "node", "id": 1150969104, "lat": 8.81667, "lon": 38.65, "tags": {"is_in:country": "Ethiopia", "is_in:country_code": "ET", "name": "Boneya", "place": "locality", "source": "GeoDatabase"}}, {"type": "node", "id": 1150969122, "lat": 8.9169031, "lon": 38.7182206, "tags": {"is_in:country": "Ethiopia", "is_in:country_code": "ET", "name": "Ula Silase Bete Kristiyan", "place": "locality", "source": "GeoDatabase"}}, {"type": "node", "id": 1150969842, "lat": 8.81667, "lon": 38.73333, "tags": {"is_in:country": "Ethiopia", "is_in:country_code": "ET", "name": "Andode (1)", "place": "locality", "source": "GeoDatabase"}}, {"type": "node", "id": 1150969953, "lat": 8.81667, "lon": 38.58333, "tags": {"is_in:country": "Ethiopia", "is_in:country_code": "ET", "name": "At'Ebela (2)", "place": "locality", "source": "GeoDatabase"}}, {"type": "node", "id": 1150972584, "lat": 8.71667, "lon": 38.43333, "tags": {"is_in:country": "Ethiopia", "is_in:country_code": "ET", "name": "Kusaye", "place": "locality", "source": "GeoDatabase"}}, {"type": "node", "id": 1150972615, "lat": 8.86667, "lon": 38.73333, "tags": {"is_in:country": "Ethiopia", "is_in:country_code": "ET", "name": "Bole Shet'", "place": "locality", "source": "GeoDatabase"}}, {"type": "node", "id": 1150972687, "lat": 8.96667, "lon": 38.63333, "tags": {"is_in:country": "Ethiopia", "is_in:country_code": "ET", "name": "K'Orke", "place": "locality", "source": "GeoDatabase"}}, {"type": "node", "id": 1150972692, "lat": 8.8, "lon": 38.45, "tags": {"is_in:country": "Ethiopia", "is_in:country_code": "ET", "name": "K'Alo Medhane `Alem Bete Kristiyan", "place": "locality", "source": "GeoDatabase"}}, {"type": "node", "id": 1150973486, "lat": 8.85, "lon": 38.76667, "tags": {"is_in:country": "Ethiopia", "is_in:country_code": "ET", "name": "Andode (2)", "place": "locality", "source": "GeoDatabase"}}, {"type": "node", "id": 1150973630, "lat": 8.95, "lon": 38.4, "tags": {"is_in:country": "Ethiopia", "is_in:country_code": "ET", "name": "Melca Giarsa", "place": "locality", "source": "GeoDatabase"}}, {"type": "node", "id": 1150975398, "lat": 8.76667, "lon": 38.53333, "tags": {"is_in:country": "Ethiopia", "is_in:country_code": "ET", "name": "Ch'Eleba", "place": "locality", "source": "GeoDatabase"}}, {"type": "node", "id": 1150976839, "lat": 8.76667, "lon": 38.65, "tags": {"is_in:country": "Ethiopia", "is_in:country_code": "ET", "name": "Geja Dera", "place": "locality", "source": "GeoDatabase"}}, {"type": "node", "id": 1150978509, "lat": 8.78333, "lon": 38.51667, "tags": {"is_in:country": "Ethiopia", "is_in:country_code": "ET", "name": "Gelma", "place": "locality", "source": "GeoDatabase"}}, {"type": "node", "id": 1150981073, "lat": 8.9, "lon": 38.55, "tags": {"is_in:country": "Ethiopia", "is_in:country_code": "ET", "name": "Gobeya", "place": "locality", "source": "GeoDatabase"}}, {"type": "node", "id": 1150981647, "lat": 8.96667, "lon": 38.53333, "tags": {"is_in:country": "Ethiopia", "is_in:country_code": "ET", "name": "Suba", "place": "locality", "source": "GeoDatabase"}}, {"type": "node", "id": 1150982030, "lat": 8.78333, "lon": 38.71667, "tags": {"is_in:country": "Ethiopia", "is_in:country_code": "ET", "name": "Shashemene", "place": "locality", "source": "GeoDatabase"}}, {"type": "node", "id": 1151002551, "lat": 8.81667, "lon": 38.41667, "tags": {"is_in:country": "Ethiopia", "is_in:country_code": "ET", "name": "Teji Shet'", "place": "locality", "source": "GeoDatabase"}}, {"type": "node", "id": 1151003271, "lat": 8.75, "lon": 38.6, "tags": {"is_in:country": "Ethiopia", "is_in:country_code": "ET", "name": "Lemmen", "place": "locality", "source": "GeoDatabase"}}, {"type": "node", "id": 1151003394, "lat": 8.9666364, "lon": 38.6667929, "tags": {"name": "\u12ae\u123a\u121d", "name:en": "Koshim", "name:fr": "Koshim", "place": "suburb", "source": "GeoDatabase"}}, {"type": "node", "id": 1151003731, "lat": 8.86667, "lon": 38.6, "tags": {"is_in:country": "Ethiopia", "is_in:country_code": "ET", "name": "Ada", "place": "locality", "source": "GeoDatabase"}}, {"type": "node", "id": 1151003903, "lat": 8.8, "lon": 38.75, "tags": {"is_in:country": "Ethiopia", "is_in:country_code": "ET", "name": "Dawera Gudo", "place": "locality", "source": "GeoDatabase"}}, {"type": "node", "id": 1415829690, "lat": 8.8479134, "lon": 38.4992999, "tags": {"name": "Tefki", "place": "town"}}, {"type": "node", "id": 1721650203, "lat": 8.9721093, "lon": 38.7322962, "tags": {"fixme": "Hamlet? Or suburb? Or neighbourhood?", "name": "\u12a4\u12a4\u1232\u12a4\u121d\u12cb\u12ed \u1218\u1296\u122a\u12eb \u1264\u1275", "name:en": "EECMY Residential Area", "name:fr": "EECMY Residential Area", "place": "neighbourhood", "source": "local knowledge"}}, {"type": "node", "id": 2079189190, "lat": 8.8684702, "lon": 38.6067298, "tags": {"place": "village"}}, {"type": "node", "id": 2080965977, "lat": 8.912246, "lon": 38.624019, "tags": {"name": "\u1230\u1260\u1273 / Sebeta", "name:am": "\u1230\u1260\u1273", "name:en": "Sebeta", "name:fr": "Sebeta", "note": "Translation source: http://translator.abyssinica.com/.", "place": "town", "wikidata": "Q3476942", "wikipedia": "en:Sebeta"}}, {"type": "node", "id": 2081029861, "lat": 8.6920466, "lon": 38.6918619, "tags": {"place": "village"}}, {"type": "node", "id": 2081029988, "lat": 8.7845909, "lon": 38.698267, "tags": {"place": "village"}}, {"type": "node", "id": 2081056783, "lat": 8.7416884, "lon": 38.3759747, "tags": {"place": "village"}}, {"type": "node", "id": 2081056813, "lat": 8.6735709, "lon": 38.4086977, "tags": {"place": "village"}}, {"type": "node", "id": 3370797698, "lat": 8.6578814, "lon": 38.5936849, "tags": {"place": "village"}}, {"type": "node", "id": 3370797700, "lat": 8.7793992, "lon": 38.6508416, "tags": {"place": "village"}}, {"type": "node", "id": 3370797702, "lat": 8.8189257, "lon": 38.6489932, "tags": {"name": "Boneya", "place": "village"}}, {"type": "node", "id": 4492239892, "lat": 8.9372283, "lon": 38.7345511, "tags": {"name": "Haile Garment Square", "place": "square"}}, {"type": "node", "id": 4492240390, "lat": 8.9482611, "lon": 38.733709, "tags": {"name": "Lebu Mebrathayil", "name:am": "\u1208\u1261 \u1218\u1265\u122b\u1275 \u1200\u12ed\u120d", "name:en": "Lebu Mebrathayil", "place": "suburb", "tourism": "viewpoint"}}, {"type": "node", "id": 6171686807, "lat": 8.9407469, "lon": 38.6560564, "tags": {"name": "Got 13", "place": "farm"}}, {"type": "node", "id": 6206220262, "lat": 8.9355248, "lon": 38.6612727, "tags": {"name": "\u12a0\u12f2\u1235 \u1230\u1348\u122d", "name:en": "Alem Gena", "name:fr": "Alem Gena", "place": "village"}}, {"type": "node", "id": 6206221911, "lat": 8.9339131, "lon": 38.6579738, "tags": {"name": "Addis Sefer", "place": "village"}}, {"type": "node", "id": 6206225084, "lat": 8.9358608, "lon": 38.6551596, "tags": {"name": "Meda chaf", "place": "village"}}, {"type": "node", "id": 9205257846, "lat": 8.9643363, "lon": 38.5419625}, {"type": "node", "id": 9205257847, "lat": 8.9642912, "lon": 38.541662}, {"type": "node", "id": 9205257848, "lat": 8.9634383, "lon": 38.5416239}, {"type": "node", "id": 9205257849, "lat": 8.9633368, "lon": 38.5417533}, {"type": "node", "id": 9205257850, "lat": 8.9634608, "lon": 38.5424608}, {"type": "node", "id": 9205257851, "lat": 8.9635472, "lon": 38.5429324}, {"type": "node", "id": 9205257852, "lat": 8.9639305, "lon": 38.5434193}, {"type": "node", "id": 9205257853, "lat": 8.9643889, "lon": 38.5429248}, {"type": "node", "id": 9205257854, "lat": 8.9641334, "lon": 38.5426852}, {"type": "way", "id": 996936379, "nodes": [9205257846, 9205257847, 9205257848, 9205257849, 9205257850, 9205257851, 9205257852, 9205257853, 9205257854, 9205257846], "tags": {"place": "isolated_dwelling"}}]}