{"version": 0.6, "generator": "Overpass API 0.7.62.1 084b4234", "osm3s": {"timestamp_osm_base": "2024-09-30T21:11:22Z", "copyright": "The data included in this document is from www.openstreetmap.org. The data is made available under ODbL."}, "elements": [{"type": "node", "id": 36155827, "lat": 1.7148358, "lon": 44.7699326, "tags": {"alt_name": "\u0645\u0631\u0643\u0629", "alt_name:ar": "\u0645\u0631\u0643\u0629", "name": "Marka \u0645\u0631\u0643\u0627", "name:ar": "\u0645\u0631\u0643\u0627", "name:ca": "Marka", "name:da": "Merca", "name:de": "Merka", "name:en": "Merca", "name:eo": "Merka", "name:es": "Merca", "name:fa": "\u0645\u0631\u06a9\u0647", "name:fi": "Merka", "name:fr": "Merka", "name:id": "Marka", "name:it": "Merca", "name:ja": "\u30de\u30eb\u30ab", "name:ka": "\u10db\u10d0\u10e0\u10d9\u10d0", "name:kk": "\u041c\u0430\u0440\u043a\u0430", "name:ko": "\ub9c8\ub974\uce74", "name:lt": "Merka", "name:ml": "\u0d2e\u0d46\u0d7c\u0d15\u0d4d\u0d15", "name:nb": "Marka", "name:nl": "Marka", "name:pl": "Marka", "name:pt": "Merca", "name:ro": "Merca", "name:ru": "\u041c\u0430\u0440\u043a\u0430", "name:so": "Marka", "name:sv": "Merca", "name:sw": "Merka", "name:tr": "Merka", "name:uk": "\u041c\u0430\u0440\u043a\u0430", "name:ur": "\u0645\u0631\u06a9\u06c1", "name:zh": "\u9a6c\u5c14\u5361", "name:zu": "Merca", "place": "city", "wikidata": "Q657428", "wikipedia": "ar:\u0645\u0631\u0643\u0629 (\u0627\u0644\u0635\u0648\u0645\u0627\u0644)"}}, {"type": "node", "id": 36161073, "lat": 1.789663, "lon": 44.530629, "tags": {"alt_name": "Qoryoley", "name": "Qoryooley \u0642\u0648\u0631\u064a\u0648\u0644\u064a", "name:ar": "\u0642\u0648\u0631\u064a\u0648\u0644\u064a", "name:de": "Qoryooley", "name:en": "Qoryooley", "name:es": "Qoryooley", "name:fr": "Qoryooley", "place": "city", "wikidata": "Q2054709"}}, {"type": "node", "id": 1406050228, "lat": 1.4400001, "lon": 44.1500015}, {"type": "node", "id": 1406050246, "lat": 1.5, "lon": 44.4300003}, {"type": "node", "id": 1406050273, "lat": 1.53, "lon": 44.3800011}, {"type": "node", "id": 1406050285, "lat": 1.5599999, "lon": 44.4199982}, {"type": "node", "id": 1406050320, "lat": 1.63, "lon": 44.4700012}, {"type": "node", "id": 1406050349, "lat": 1.67, "lon": 44.5099983}, {"type": "node", "id": 1406050389, "lat": 1.761779, "lon": 43.5844498}, {"type": "node", "id": 1406050444, "lat": 1.88, "lon": 43.8800011}, {"type": "node", "id": 1406050455, "lat": 1.889044, "lon": 43.9004784}, {"type": "node", "id": 1406050490, "lat": 1.92, "lon": 44.8400002}, {"type": "node", "id": 1406054431, "lat": 2.02, "lon": 44.7900009}, {"type": "node", "id": 1406055671, "lat": 2.1300001, "lon": 44.7299995}, {"type": "node", "id": 1406055674, "lat": 2.134676, "lon": 44.4567719}, {"type": "node", "id": 1406055726, "lat": 2.22, "lon": 44.6500015}, {"type": "node", "id": 1406055733, "lat": 2.233403, "lon": 44.6484604}, {"type": "node", "id": 1406055746, "lat": 2.24, "lon": 44.6599998}, {"type": "node", "id": 1406152692, "lat": 1.5105712, "lon": 44.4935721}, {"type": "node", "id": 1699640055, "lat": 1.4692169, "lon": 44.7742761}, {"type": "node", "id": 1699640058, "lat": 1.7142782, "lon": 45.1586965}, {"type": "node", "id": 1994053679, "lat": 1.7430576, "lon": 45.2091149}, {"type": "node", "id": 2000614198, "lat": 1.9200203, "lon": 45.1116506}, {"type": "node", "id": 3134138928, "lat": 1.3857399, "lon": 44.661028}, {"type": "node", "id": 3134140529, "lat": 1.4111644, "lon": 44.6932479}, {"type": "node", "id": 3134140530, "lat": 1.4229616, "lon": 44.710185}, {"type": "node", "id": 3134140531, "lat": 1.4311974, "lon": 44.72543}, {"type": "node", "id": 3134140532, "lat": 1.440204, "lon": 44.7389545}, {"type": "node", "id": 3134140533, "lat": 1.4875444, "lon": 44.8052683}, {"type": "node", "id": 3134140534, "lat": 1.5016899, "lon": 44.8234343}, {"type": "node", "id": 3134140535, "lat": 1.5201202, "lon": 44.8543652}, {"type": "node", "id": 3134140536, "lat": 1.5394269, "lon": 44.8799743}, {"type": "node", "id": 3134140537, "lat": 1.5481899, "lon": 44.8887858}, {"type": "node", "id": 3134140538, "lat": 1.5679379, "lon": 44.9183218}, {"type": "node", "id": 3134140539, "lat": 1.594241, "lon": 44.9617702}, {"type": "node", "id": 3134140540, "lat": 1.6124538, "lon": 44.9878644}, {"type": "node", "id": 3134140541, "lat": 1.6360766, "lon": 45.0308857}, {"type": "node", "id": 3134140542, "lat": 1.6727982, "lon": 45.0915262}, {"type": "node", "id": 3134140543, "lat": 1.675841, "lon": 45.0991504}, {"type": "node", "id": 3134140544, "lat": 1.684487, "lon": 45.1144865}, {"type": "node", "id": 3134140545, "lat": 1.6957003, "lon": 45.1310623}, {"type": "node", "id": 3134140546, "lat": 1.7104838, "lon": 45.1499669}, {"type": "node", "id": 3134140547, "lat": 1.7346361, "lon": 45.1927398}, {"type": "node", "id": 3134140548, "lat": 1.7498655, "lon": 45.2295837}, {"type": "node", "id": 6494980932, "lat": 1.61101, "lon": 44.330299, "tags": {"name": "Kurtunwaarey", "place": "village", "postal_code": "NA-3810-K19-002", "wikidata": "Q18576123", "wikipedia": "nl:Kurtunwaarey"}}, {"type": "node", "id": 8151627729, "lat": 1.517384, "lon": 44.4010683}, {"type": "node", "id": 8151627730, "lat": 1.5010994, "lon": 44.428168}, {"type": "node", "id": 8151627739, "lat": 1.505568, "lon": 44.4634843}, {"type": "way", "id": 126925005, "nodes": [3134140548, 2000614198, 1406050490]}, {"type": "way", "id": 126925024, "nodes": [1406055746, 1406055733]}, {"type": "way", "id": 126925058, "nodes": [1406050228, 1406050389]}, {"type": "way", "id": 126925079, "nodes": [1406050490, 1406050349], "tags": {"admin_level": "6", "boundary": "administrative"}}, {"type": "way", "id": 126925084, "nodes": [1406050349, 1406050455]}, {"type": "way", "id": 126925095, "nodes": [1406050273, 1406050228], "tags": {"boundary": "administrative"}}, {"type": "way", "id": 126925227, "nodes": [3134138928, 1406152692, 8151627739, 1406050246, 8151627730, 8151627729, 1406050273], "tags": {"boundary": "administrative"}}, {"type": "way", "id": 126925237, "nodes": [1406050455, 1406050444, 1406050389], "tags": {"admin_level": "4", "boundary": "administrative"}}, {"type": "way", "id": 126925311, "nodes": [1406050490, 1406054431, 1406055671, 1406055746], "tags": {"admin_level": "6", "boundary": "administrative"}}, {"type": "way", "id": 126925313, "nodes": [1406050273, 1406050285, 1406050320, 1406050349], "tags": {"boundary": "administrative"}}, {"type": "way", "id": 126925320, "nodes": [1406055733, 1406055726, 1406055674, 1406050455], "tags": {"admin_level": "4", "boundary": "administrative"}}, {"type": "way", "id": 188777403, "nodes": [3134140548, 1994053679, 3134140547, 1699640058, 3134140546, 3134140545, 3134140544, 3134140543, 3134140542, 3134140541, 3134140540, 3134140539, 3134140538, 3134140537, 3134140536, 3134140535, 3134140534, 3134140533, 1699640055, 3134140532, 3134140531, 3134140530, 3134140529, 3134138928], "tags": {"admin_level": "2", "border_type": "territorial", "boundary": "administrative", "maritime": "yes", "source": "12 nm measured from coastline"}}, {"type": "relation", "id": 1720119, "members": [{"type": "way", "ref": 126925237, "role": "outer"}, {"type": "way", "ref": 126925084, "role": "outer"}, {"type": "way", "ref": 126925313, "role": "outer"}, {"type": "way", "ref": 126925095, "role": "outer"}, {"type": "way", "ref": 126925058, "role": "outer"}, {"type": "node", "ref": 6494980932, "role": "admin_centre"}], "tags": {"admin_level": "6", "boundary": "administrative", "name": "Kurtunwaarey", "name:en": "Kurtunwarey District", "name:fr": "Kurtunwarey", "source": "UN OCHA COD", "type": "boundary", "wikidata": "Q17067784"}}, {"type": "relation", "id": 1720124, "members": [{"type": "way", "ref": 188777403, "role": "outer"}, {"type": "way", "ref": 126925227, "role": "outer"}, {"type": "way", "ref": 126925313, "role": "outer"}, {"type": "way", "ref": 126925079, "role": "outer"}, {"type": "way", "ref": 126925005, "role": "outer"}, {"type": "node", "ref": 36155827, "role": "admin_centre"}], "tags": {"admin_level": "6", "boundary": "administrative", "name": "Marka", "name:ar": "\u0645\u0631\u0643\u0629", "name:en": "Merca District", "name:fr": "Merca", "type": "boundary", "wikidata": "Q17076015"}}, {"type": "relation", "id": 1720130, "members": [{"type": "way", "ref": 126925024, "role": "outer"}, {"type": "way", "ref": 126925311, "role": "outer"}, {"type": "way", "ref": 126925079, "role": "outer"}, {"type": "way", "ref": 126925084, "role": "outer"}, {"type": "way", "ref": 126925320, "role": "outer"}, {"type": "node", "ref": 36161073, "role": "admin_centre"}], "tags": {"admin_level": "6", "boundary": "administrative", "name": "Qoryooley \u0642\u0648\u0631\u064a\u0648\u0644\u064a", "name:ar": "\u0642\u0648\u0631\u064a\u0648\u0644\u064a", "name:en": "Qoriyoley District", "name:fr": "Qoriyoley", "type": "boundary", "wikidata": "Q7268118"}}]}