{"version": 0.6, "generator": "Overpass API 0.7.62.1 084b4234", "osm3s": {"timestamp_osm_base": "2024-09-30T21:23:43Z", "copyright": "The data included in this document is from www.openstreetmap.org. The data is made available under ODbL."}, "elements": [{"type": "node", "id": 27565076, "lat": 9.0358287, "lon": 38.7524127, "tags": {"admin_level": "2", "capital": "yes", "capital_ISO3166-1": "yes", "ele": "2355", "is_capital": "country", "name": "\u12a0\u12f2\u1235 \u12a0\u1260\u1263 / Addis Ababa", "name:af": "Addis Abeba", "name:am": "\u12a0\u12f2\u1235 \u12a0\u1260\u1263", "name:an": "Addis Abeba", "name:ar": "\u0623\u062f\u064a\u0633 \u0623\u0628\u0627\u0628\u0627", "name:arz": "\u0627\u062f\u064a\u0633 \u0627\u0628\u0627\u0628\u0627", "name:az": "\u018fddis-\u018fb\u0259b\u0259", "name:bat-smg": "Adis Abeba", "name:be": "\u0410\u0434\u044b\u0441-\u0410\u0431\u0435\u0431\u0430", "name:be-tarask": "\u0410\u0434\u044b\u0441-\u0410\u0431\u044d\u0431\u0430", "name:bg": "\u0410\u0434\u0438\u0441 \u0410\u0431\u0435\u0431\u0430", "name:bn": "\u0986\u09a6\u09cd\u09a6\u09bf\u09b8 \u0986\u09ac\u09be\u09ac\u09be", "name:bo": "\u0f68\u0f0b\u0f4c\u0f72\u0f0b\u0f66\u0f72\u0f0b\u0f68\u0f0b\u0f56\u0f0b\u0f56\u0f0d", "name:br": "Addis Abeba", "name:bs": "Adis Abeba", "name:ca": "Addis Abeba", "name:ckb": "\u0626\u0627\u062f\u06cc\u0633 \u0626\u0627\u0628\u0627\u0628\u0627", "name:cs": "Addis Abeba", "name:de": "Addis Abeba", "name:el": "\u0391\u03bd\u03c4\u03af\u03c2 \u0391\u03bc\u03c0\u03ad\u03bc\u03c0\u03b1", "name:en": "Addis Ababa", "name:eo": "Adis-Abebo", "name:es": "Ad\u00eds Abeba", "name:et": "Addis Abeba", "name:eu": "Addis Abeba", "name:fa": "\u0622\u062f\u06cc\u0633 \u0622\u0628\u0627\u0628\u0627", "name:fi": "Addis Abeba", "name:fr": "Addis-Abeba", "name:fy": "Addis Abeba", "name:ga": "Adas Ababa", "name:gl": "Ad\u00eds Abeba - \u12a0\u12f2\u1235 \u12a0\u1260\u1263", "name:he": "\u05d0\u05d3\u05d9\u05e1 \u05d0\u05d1\u05d1\u05d4", "name:hi": "\u0905\u0926\u0940\u0938 \u0905\u092c\u093e\u092c\u093e", "name:hr": "Adis Abeba", "name:ht": "Adis-Abeba", "name:hu": "Addisz-Abeba", "name:hy": "\u0531\u0564\u056b\u057d \u0531\u0562\u0565\u0562\u0561", "name:ie": "Addis Abeba", "name:it": "Addis Abeba", "name:ja": "\u30a2\u30c7\u30a3\u30b9\u30a2\u30d9\u30d0", "name:ka": "\u10d0\u10d3\u10d8\u10e1-\u10d0\u10d1\u10d4\u10d1\u10d0", "name:kab": "Addis Abeba", "name:kn": "\u0c85\u0ca1\u0cbf\u0cb8\u0ccd \u0c85\u0cac\u0cbe\u0cac", "name:ko": "\uc544\ub514\uc2a4\uc544\ubc14\ubc14", "name:ku": "Add\u00ees Ababa", "name:ky": "\u0410\u0434\u0434\u0438\u0441-\u0410\u0431\u0435\u0431\u0430", "name:la": "Neanthopolis", "name:lb": "Addis Abeba", "name:lt": "Adis Abeba", "name:lv": "Adisabeba", "name:mg": "Addis Abeba", "name:mk": "\u0410\u0434\u0438\u0441 \u0410\u0431\u0435\u0431\u0430", "name:ml": "\u0d05\u0d21\u0d3f\u0d38\u0d4d \u0d05\u0d2c\u0d46\u0d2c", "name:mn": "\u0410\u0434\u0434\u0438\u0441-\u0410\u0431\u0435\u0431\u0430", "name:mr": "\u0905\u0926\u093f\u0938 \u0905\u092c\u093e\u092c\u093e", "name:mrj": "\u0410\u0434\u0434\u0438\u0441-\u0410\u0431\u0435\u0431\u0430", "name:my": "\u1021\u102c\u1012\u1005\u103a \u1021\u102c\u1018\u102c\u1018\u102c\u1019\u103c\u102d\u102f\u1037", "name:nah": "Adis Abeba", "name:new": "\u0905\u0926\u093f\u0938 \u0905\u092c\u093e\u092c\u093e", "name:nl": "Addis Abeba", "name:nn": "Addis Abeba", "name:no": "Addis Abeba", "name:nov": "Adis Ababa", "name:oc": "Addis Abeba", "name:om": "Finfinne", "name:os": "\u0410\u0434\u0434\u0438\u0441-\u0410\u0431\u0435\u0431\u00e6", "name:pa": "\u0a06\u0a26\u0a3f\u0a38 \u0a06\u0a2c\u0a2c\u0a3e", "name:pl": "Addis Abeba", "name:pnb": "\u0627\u062f\u06cc\u0633 \u0627\u0628\u0627\u0628\u0627", "name:pt": "Adis Abeba", "name:qu": "Adis Ababa", "name:rm": "Addis Abeba", "name:ro": "Addis Abeba", "name:ru": "\u0410\u0434\u0434\u0438\u0441-\u0410\u0431\u0435\u0431\u0430", "name:sh": "Adis Abeba", "name:sk": "Addis Abeba", "name:sl": "Adis Abeba", "name:so": "Addis Abeba", "name:sq": "Addis Abeba", "name:sr": "\u0410\u0434\u0438\u0441 \u0410\u0431\u0435\u0431\u0430", "name:sv": "Addis Abeba", "name:ta": "\u0b85\u0b9f\u0bbf\u0bb8\u0bcd \u0b85\u0baa\u0bbe\u0baa\u0bbe", "name:tg": "\u0410\u0434\u0434\u0438\u0441-\u0410\u0431\u0435\u0431\u0430", "name:th": "\u0e41\u0e2d\u0e14\u0e14\u0e34\u0e2a\u0e2d\u0e32\u0e1a\u0e32\u0e1a\u0e32", "name:tl": "Adis Abeba", "name:tr": "Addis Ababa", "name:udm": "\u0410\u0434\u0434\u0438\u0441-\u0410\u0431\u0435\u0431\u0430", "name:uk": "\u0410\u0434\u0434\u0438\u0441-\u0410\u0431\u0435\u0431\u0430", "name:ur": "\u0627\u062f\u06cc\u0633 \u0627\u0628\u0627\u0628\u0627", "name:wo": "Addis-Abeba", "name:zh": "\u4e9e\u7684\u65af\u4e9e\u8c9d\u5df4/\u4e9a\u7684\u65af\u4e9a\u8d1d\u5df4", "place": "city", "population": "3500000", "wikidata": "Q3624", "wikipedia": "de:Addis Abeba"}}, {"type": "node", "id": 262956893, "lat": 9.0471413, "lon": 38.7657775}, {"type": "node", "id": 262957030, "lat": 9.0485938, "lon": 38.7655346}, {"type": "node", "id": 269468966, "lat": 9.0329476, "lon": 38.7633823, "tags": {"name": "\u12a0\u122b\u1275 \u12aa\u120e / Arat Kilo", "name:am": "\u12a0\u122b\u1275 \u12aa\u120e", "name:en": "Arat Kilo", "name:fr": "Arat Kilo", "place": "suburb"}}, {"type": "node", "id": 272454141, "lat": 9.037716, "lon": 38.7626764, "tags": {"name": "Amist Kilo", "place": "neighbourhood"}}, {"type": "node", "id": 281214538, "lat": 9.0499765, "lon": 38.8339605, "tags": {"name": "\u12e8\u12ab", "name:en": "Yeka", "name:fr": "Yeka", "place": "suburb"}}, {"type": "node", "id": 281214551, "lat": 8.9013695, "lon": 38.8003557, "tags": {"name": "\u12a0\u1243\u1242 \u1243\u120a\u1272 / Akaki Kaliti Factory", "name:am": "\u12a0\u1243\u1242 \u1243\u120a\u1272", "name:en": "Akaki-Kaliti", "name:fr": "Akaki-Kaliti", "place": "suburb", "source": "Addis Ababa City Administration"}}, {"type": "node", "id": 281214573, "lat": 8.9577358, "lon": 38.7274968, "tags": {"name": "\u1295\u134b\u1235 \u1235\u120d\u12ad \u120b\u134d\u1276", "name:en": "Nefas Silk-Lafto", "name:fr": "Nefas Silk-Lafto", "place": "suburb"}}, {"type": "node", "id": 281214575, "lat": 9.0049643, "lon": 38.6874854, "tags": {"name": "\u12ae\u120d\u134c \u1240\u122b\u1292\u12ce", "name:en": "Kolfe Keranyo", "name:fr": "Kolfe Keranyo", "place": "suburb"}}, {"type": "node", "id": 281214578, "lat": 9.0195026, "lon": 38.7304012, "tags": {"name": "\u120d\u12f0\u1273 \u12ad\u134d\u1208 \u12a8\u1270\u121b Lideta", "name:am": "\u120d\u12f0\u1273 \u12ad\u134d\u1208 \u12a8\u1270\u121b", "name:en": "Lideta", "name:fr": "Lideta", "place": "suburb"}}, {"type": "node", "id": 281214854, "lat": 9.0023309, "lon": 38.7564134, "tags": {"name": "\u1242\u122d\u1246\u1235 \u12ad\u134d\u1208 \u12a8\u1270\u121b Kirkos", "name:am": "\u1242\u122d\u1246\u1235 \u12ad\u134d\u1208 \u12a8\u1270\u121b", "name:en": "Kirkos", "name:fr": "Kirkos", "place": "suburb"}}, {"type": "node", "id": 281214880, "lat": 9.0386175, "lon": 38.7289821, "tags": {"name": "\u12a0\u12f2\u1235 \u12a8\u1270\u121b \u12ad\u134d\u1208 \u12a8\u1270\u121b", "name:en": "Addis Ketema", "name:fr": "Addis Ketema", "place": "neighbourhood"}}, {"type": "node", "id": 299163678, "lat": 8.9867182, "lon": 38.7933956, "tags": {"name": "\u1266\u120c", "name:en": "Bole", "name:fr": "Bole", "name:zh": "\u535a\u83b1", "name:zh-Hans": "\u535a\u83b1", "name:zh-Hant": "\u535a\u840a", "note": "Translation source: http://translator.abyssinica.com/.", "place": "suburb"}}, {"type": "node", "id": 321732075, "lat": 9.0, "lon": 38.75, "tags": {"description": "A astedader akababiwach (chartered city), admimistratively at the same level as a Kilil (state)", "gns:dsg": "ADM1", "gns:uni": "9094740", "is_in:country": "Ethiopia", "is_in:country_code": "ET", "name": "\u12a3\u12f2\u1235 \u12a3\u1260\u1263 / Addis Ababa", "name:am": "\u12a3\u12f2\u1235 \u12a3\u1260\u1263", "name:de": "Addis Abeba", "name:en": "Addis Ababa", "name:fi": "Addis Abeba", "name:fr": "Addis-Abeba", "name:lt": "Adis Abeba", "name:ru": "\u0410\u0434\u0434\u0438\u0441-\u0410\u0431\u0435\u0431\u0430", "name:uk": "\u0410\u0434\u0434\u0438\u0441-\u0410\u0431\u0435\u0431\u0430", "place": "state", "population": "3147000", "source": "GNS;GeoDatabase", "wikidata": "Q3624", "wikipedia": "en:Addis Ababa"}}, {"type": "node", "id": 443709684, "lat": 9.063156, "lon": 38.7201776, "tags": {"name": "\u1238\u130e\u120c", "name:en": "Shegole", "name:fr": "Shegole", "place": "neighbourhood"}}, {"type": "node", "id": 559981773, "lat": 9.0437687, "lon": 38.7588095}, {"type": "node", "id": 559981774, "lat": 9.0439404, "lon": 38.7593909}, {"type": "node", "id": 622356995, "lat": 8.944979, "lon": 38.768078, "tags": {"name": "\u1233\u122a\u1235 \u12a0\u1266 \u12a0\u12ab\u1263\u1262 / Saris Abo Area", "name:am": "\u1233\u122a\u1235 \u12a0\u1266 \u12a0\u12ab\u1263\u1262", "name:en": "Saris Abo Area", "name:fr": "Saris Abo Area", "place": "suburb"}}, {"type": "node", "id": 622356997, "lat": 8.9532491, "lon": 38.7636211, "tags": {"name": "\u1233\u122a\u1235 / Saris", "name:am": "\u1233\u122a\u1235", "name:en": "Saris", "name:fr": "Saris", "place": "suburb"}}, {"type": "node", "id": 622356999, "lat": 8.9568711, "lon": 38.7715494, "tags": {"name": "\u12a0\u12f2\u1235 \u1230\u1348\u122d \u12a0\u12ab\u1263\u1262 / Saris Addisu Seffer", "name:am": "\u12a0\u12f2\u1235 \u1230\u1348\u122d \u12a0\u12ab\u1263\u1262", "name:en": "Addis Sefer", "name:fr": "Addis Sefer", "place": "suburb"}}, {"type": "node", "id": 622357000, "lat": 8.9835747, "lon": 38.6971482, "tags": {"name": "\u12a0\u12e8\u122d\u1324\u1293", "name:en": "Ayertena", "name:fr": "Ayertena", "place": "suburb"}}, {"type": "node", "id": 622357003, "lat": 8.9871126, "lon": 38.707801, "tags": {"name": "\u12d8\u1290\u1260\u12c8\u122d\u1245", "name:en": "Zenebework", "name:fr": "Zenebework", "place": "suburb"}}, {"type": "node", "id": 622357004, "lat": 8.9719137, "lon": 38.7305307, "tags": {"name": "\u1218\u12ab\u1292\u1233", "name:en": "Mekanisa", "name:fr": "Mekanisa", "place": "suburb"}}, {"type": "node", "id": 622357005, "lat": 8.9827291, "lon": 38.7342148, "tags": {"name": "\u1218\u12ab\u1292\u1233 \u12a3\u1266", "name:en": "Mekanisa Abo", "name:fr": "Mekanisa Abo", "place": "suburb", "tourism": "attraction"}}, {"type": "node", "id": 622357006, "lat": 8.9820782, "lon": 38.7584682, "tags": {"name": "\u130e\u1270\u122b", "name:en": "Gotera", "name:fr": "Gotera", "place": "suburb"}}, {"type": "node", "id": 622357008, "lat": 8.9847803, "lon": 38.7502416, "tags": {"name": "\u1244\u122b", "name:en": "Kera", "name:fr": "Kera", "place": "suburb"}}, {"type": "node", "id": 622357025, "lat": 8.9918958, "lon": 38.7264037, "tags": {"name": "\u1265\u1235\u122b\u1270 \u1308\u1265\u122d\u12a4\u120d", "name:en": "Besrat Gebriel", "name:fr": "Besrat Gebriel", "place": "suburb"}}, {"type": "node", "id": 622357026, "lat": 8.9927294, "lon": 38.7171514, "tags": {"name": "\u1236\u1235\u1275 \u1241\u1325\u122d", "name:en": "Soste Kuter Mazoria (Total)", "name:fr": "Soste Kuter Mazoria (Total)", "place": "suburb"}}, {"type": "node", "id": 622357027, "lat": 8.9885822, "lon": 38.7373252, "tags": {"name": "\u126b\u1272\u12ab\u1295", "name:en": "Vatican", "name:fr": "Vatican", "place": "suburb"}}, {"type": "node", "id": 622357028, "lat": 8.9943201, "lon": 38.7377689, "tags": {"name": "\u1233\u122d \u1264\u1275", "name:en": "Sarbet", "name:fr": "Sarbet", "place": "suburb"}}, {"type": "node", "id": 622357032, "lat": 8.9969513, "lon": 38.733979, "tags": {"name": "\u1218\u127b\u122c \u121c\u12f3 \u12a0\u12ab\u1263\u1262", "name:en": "Mechare Meda", "name:fr": "Mechare Meda", "place": "suburb"}}, {"type": "node", "id": 622357034, "lat": 9.0059158, "lon": 38.7171957, "tags": {"name": "\u12a0\u1309\u1235\u1273", "name:en": "Agusta", "name:fr": "Agusta", "place": "suburb"}}, {"type": "node", "id": 622357035, "lat": 9.0016374, "lon": 38.7187643, "tags": {"name": "\u121e\u1262\u120d", "name:en": "Mobil", "name:fr": "Mobil", "place": "suburb"}}, {"type": "node", "id": 622357036, "lat": 8.989616, "lon": 38.7597577, "tags": {"name": "\u120b\u1295\u127b", "name:en": "Lancha", "name:fr": "Lancha", "place": "suburb"}}, {"type": "node", "id": 622357037, "lat": 8.9944519, "lon": 38.7479297, "tags": {"name": "\u1261\u120d\u130b\u122a\u12eb", "name:en": "Bulgariya Mazoriya", "name:fr": "Bulgariya Mazoriya", "place": "suburb"}}, {"type": "node", "id": 622357038, "lat": 8.9977138, "lon": 38.7478578, "tags": {"name": "\u1260\u130d \u1270\u122b", "name:en": "Beg Tera", "name:fr": "Beg Tera", "place": "suburb"}}, {"type": "node", "id": 622357039, "lat": 8.9982814, "lon": 38.7582132, "tags": {"name": "\u1260\u1245\u120e \u1264\u1275", "name:en": "Bekelo Bet", "name:fr": "Bekelo Bet", "place": "suburb"}}, {"type": "node", "id": 622357041, "lat": 9.0076487, "lon": 38.7587009, "tags": {"name": "\u1218\u123f\u1208\u12aa\u12eb / Meshuwalekiya", "name:am": "\u1218\u123f\u1208\u12aa\u12eb", "name:en": "Meshuwalekiya", "name:fr": "Meshuwalekiya", "place": "suburb"}}, {"type": "node", "id": 622357042, "lat": 9.0027652, "lon": 38.7604314, "tags": {"name": "\u122a\u127c Riche", "name:am": "\u122a\u127c", "name:en": "Riche", "name:fr": "Riche", "place": "suburb"}}, {"type": "node", "id": 622357043, "lat": 9.0408902, "lon": 38.714103, "tags": {"name": "\u12a0\u1320\u1293 \u1270\u122b \u12a0\u12ab\u1263\u1262", "name:en": "Atena Tera", "name:fr": "Atena Tera", "place": "neighbourhood"}}, {"type": "node", "id": 622357044, "lat": 9.0336525, "lon": 38.7145127, "tags": {"name": "\u12a0\u1235\u122b\u1235\u121d\u1295\u1275", "name:en": "Aserasement", "name:fr": "Aserasement", "place": "neighbourhood"}}, {"type": "node", "id": 622357045, "lat": 9.0115277, "lon": 38.7199391, "tags": {"name": "\u1240\u1320\u1293 \u1201\u1208\u1275", "name:en": "Ketena Hulet", "name:fr": "Ketena Hulet", "place": "suburb"}}, {"type": "node", "id": 622357046, "lat": 9.0164338, "lon": 38.7171956, "tags": {"name": "\u12ae\u120d\u134c \u1240\u122b\u1292\u12ee", "name:en": "Kolfe Keranio", "name:fr": "Kolfe Keranio", "place": "suburb"}}, {"type": "node", "id": 622357047, "lat": 9.0165367, "lon": 38.729965, "tags": {"name": "\u12ae\u12ab \u12ae\u120b", "name:en": "Coca", "name:fr": "Coca", "place": "suburb"}}, {"type": "node", "id": 622357048, "lat": 9.0190785, "lon": 38.7349582, "tags": {"name": "\u1306\u1235 \u1203\u1295\u1230\u1295", "name:en": "Jos Hanssen", "name:fr": "Jos Hanssen", "place": "suburb"}}, {"type": "node", "id": 622357049, "lat": 9.0110809, "lon": 38.7366684, "tags": {"name": "\u120d\u12f0\u1273 Lideta", "name:am": "\u120d\u12f0\u1273", "name:en": "Lideta", "name:fr": "Lideta", "place": "suburb"}}, {"type": "node", "id": 622357051, "lat": 9.0141665, "lon": 38.7342329, "tags": {"name": "\u12f3\u122d\u121b\u122d", "name:en": "Darmar", "name:fr": "Darmar", "place": "suburb"}}, {"type": "node", "id": 622357052, "lat": 9.0114846, "lon": 38.7241029, "tags": {"name": "\u1326\u122d \u1203\u12ed\u120e\u127d", "name:en": "Tor Hiylloch", "name:fr": "Tor Hiylloch", "place": "suburb"}}, {"type": "node", "id": 622357054, "lat": 9.0260469, "lon": 38.7371227, "tags": {"name": "\u12ae\u122d\u127b \u1270\u122b", "name:en": "Korech Tera", "name:fr": "Korech Tera", "place": "suburb"}}, {"type": "node", "id": 622357056, "lat": 9.0257602, "lon": 38.7369512, "tags": {"name": "\u121d\u1293\u1208\u123d \u1270\u122b", "name:en": "Minalesh Tera", "name:fr": "Minalesh Tera", "place": "suburb"}}, {"type": "node", "id": 622357058, "lat": 9.0277642, "lon": 38.7368036, "tags": {"name": "\u1218\u1236\u1265 \u1270\u122b", "name:en": "Mesob Tera", "name:fr": "Mesob Tera", "place": "suburb"}}, {"type": "node", "id": 622357059, "lat": 9.0272063, "lon": 38.7361886, "tags": {"name": "\u12f6\u122e \u1270\u122b", "name:en": "Doro Tera", "name:fr": "Doro Tera", "place": "suburb"}}, {"type": "node", "id": 622357060, "lat": 9.0283706, "lon": 38.736632, "tags": {"name": "\u1238\u121b \u1270\u122b", "name:en": "Shema Tera", "name:fr": "Shema Tera", "place": "suburb"}}, {"type": "node", "id": 622357061, "lat": 9.0291731, "lon": 38.7329364, "tags": {"name": "\u1230\u1263\u1270\u129b", "name:en": "Sebategna", "name:fr": "Sebategna", "place": "suburb"}}, {"type": "node", "id": 622357062, "lat": 9.0203363, "lon": 38.733281, "tags": {"name": "Abnet Square", "name:am": "\u12a0\u1265\u1290\u1275 \u12a0\u12f0\u1263\u1263\u12ed", "place": "suburb"}}, {"type": "node", "id": 622357065, "lat": 9.0227308, "lon": 38.7355249, "tags": {"name": "\u120d\u12f0\u1273 \u12ad\u134d\u1208 \u12a8\u1270\u121b Molla Maru", "name:am": "\u121e\u120b \u121b\u1229", "name:en": "Molla Maru", "name:fr": "Molla Maru", "place": "suburb"}}, {"type": "node", "id": 622357067, "lat": 9.0247142, "lon": 38.7375003, "tags": {"name": "\u132d\u12f5 \u1270\u122b", "name:en": "Ched Tera", "name:fr": "Ched Tera", "place": "suburb"}}, {"type": "node", "id": 622357068, "lat": 9.0236913, "lon": 38.7337122, "tags": {"name": "\u12a0\u12f2\u1235 \u12a8\u1270\u121b \u12a0\u12ab\u1263\u1262", "name:en": "Addis Ketema", "name:fr": "Addis Ketema", "place": "suburb"}}, {"type": "node", "id": 622357070, "lat": 9.0279524, "lon": 38.7230932, "tags": {"name": "\u12a0\u121b\u1291\u12a4\u120d \u12a0\u12ab\u1263\u1262", "name:en": "Amanuel Area", "name:fr": "Amanuel Area", "place": "suburb"}}, {"type": "node", "id": 622357071, "lat": 9.0183054, "lon": 38.7540338, "tags": {"name": "\u12a0\u121d\u1263\u1233\u12f0\u122d", "name:en": "Ambassador", "name:fr": "Ambassador", "place": "neighbourhood"}}, {"type": "node", "id": 622357073, "lat": 9.0173623, "lon": 38.7383996, "tags": {"name": "\u130c\u1303 \u1230\u1348\u122d", "name:en": "Geja Seffer", "name:fr": "Geja Seffer", "place": "suburb"}}, {"type": "node", "id": 622357074, "lat": 9.0116448, "lon": 38.753104, "tags": {"name": "\u1208\u1308\u1210\u122d \u12a0\u12ab\u1263\u1262 / Legahar", "name:am": "\u1208\u1308\u1210\u122d \u12a0\u12ab\u1263\u1262", "name:en": "Legahar", "name:fr": "La Gare", "place": "suburb"}}, {"type": "node", "id": 622357080, "lat": 9.0103877, "lon": 38.744549, "tags": {"name": "\u121c\u12ad\u1232\u12ae", "name:en": "Mexico", "name:fr": "Mexico", "place": "suburb"}}, {"type": "node", "id": 622357082, "lat": 9.0149097, "lon": 38.7469587, "tags": {"name": "\u1230\u1295\u130b \u1270\u122b Sengatera", "name:am": "\u1230\u1295\u130b \u1270\u122b", "name:en": "Sengatera", "name:fr": "Sengatera", "place": "suburb"}}, {"type": "node", "id": 622357084, "lat": 9.0166053, "lon": 38.7462864, "tags": {"name": "\u130e\u121b \u1241\u1320\u1263 Goma Kuteba", "name:am": "\u130e\u121b \u1241\u1320\u1263", "name:en": "Goma Kuteba", "name:fr": "Goma Kuteba", "place": "suburb"}}, {"type": "node", "id": 622357087, "lat": 9.0165434, "lon": 38.7523203, "tags": {"name": "\u1265\u1214\u122b\u12ca", "name:en": "Beherawi", "name:fr": "Beherawi", "place": "suburb"}}, {"type": "node", "id": 622357090, "lat": 9.0257509, "lon": 38.7379213, "tags": {"name": "\u1238\u12ad\u120b \u1270\u122b", "name:en": "Shekela Tera", "name:fr": "Shekela Tera", "place": "suburb"}}, {"type": "node", "id": 622357091, "lat": 9.0276802, "lon": 38.7404567, "tags": {"name": "\u130e\u121b \u1270\u122b / Goma Tera", "name:am": "\u130e\u121b \u1270\u122b", "name:en": "Goma Tera", "name:fr": "Goma Tera", "place": "neighbourhood"}}, {"type": "node", "id": 622357092, "lat": 9.029303, "lon": 38.7396551, "tags": {"name": "\u1266\u121d\u1265 \u1270\u122b", "name:en": "Bomb Tera", "name:fr": "Bomb Tera", "place": "neighbourhood"}}, {"type": "node", "id": 622357095, "lat": 9.021564, "lon": 38.7530961, "tags": {"name": "\u1356\u1235\u1273 \u1264\u1275", "name:en": "Posta Bet", "name:fr": "Posta Bet", "place": "neighbourhood"}}, {"type": "node", "id": 622357097, "lat": 9.0279243, "lon": 38.7391692, "tags": {"name": "\u1203\u12f0\u122c \u1230\u1348\u122d / Hadere Sefer", "name:am": "\u1203\u12f0\u122c \u1230\u1348\u122d", "name:en": "Hadere Sefer", "name:fr": "Hadere Sefer", "place": "neighbourhood"}}, {"type": "node", "id": 622357101, "lat": 9.0305658, "lon": 38.7453494, "tags": {"name": "\u1236\u121b\u120c \u1270\u122b", "name:en": "Somale Tera", "name:fr": "Somale Tera", "place": "suburb"}}, {"type": "node", "id": 622357103, "lat": 9.025922, "lon": 38.7478132, "tags": {"name": "\u130e\u120b \u121a\u12ab\u12a4\u120d \u12a0\u12ab\u1263\u1262", "name:en": "Golla Mikael", "name:fr": "Golla Mikael", "place": "neighbourhood"}}, {"type": "node", "id": 622357105, "lat": 9.0264074, "lon": 38.7547127, "tags": {"name": "\u12a0\u122e\u130c \u1244\u122b \u12a0\u12ab\u1263\u1262 Aroge Kera", "name:am": "\u12a0\u122e\u130c \u1244\u122b \u12a0\u12ab\u1263\u1262", "name:en": "Aroge Kera", "name:fr": "Aroge Kera", "place": "neighbourhood"}}, {"type": "node", "id": 622357107, "lat": 9.0285367, "lon": 38.7434123, "tags": {"name": "\u1270\u12ad\u1208\u1203\u12ed\u121b\u1296\u1275", "name:en": "Tekelehaymanot", "name:fr": "Tekelehaymanot", "place": "suburb"}}, {"type": "node", "id": 622357110, "lat": 9.0262767, "lon": 38.7405066, "tags": {"name": "\u1260\u122d\u1260\u122c \u1270\u122b", "name:en": "Berberee Berenda", "name:fr": "Berberee Berenda", "place": "suburb"}}, {"type": "node", "id": 622357111, "lat": 9.0307658, "lon": 38.7359022, "tags": {"name": "\u1238\u122b \u1270\u122b / Shera Tera", "name:am": "\u1238\u122b \u1270\u122b", "name:en": "Shera Tera", "name:fr": "Shera Tera", "place": "neighbourhood"}}, {"type": "node", "id": 622357113, "lat": 9.0338161, "lon": 38.7249623, "tags": {"name": "\u1218\u1233\u1208\u121a\u12eb", "name:en": "Mesalemiya", "name:fr": "Mesalemiya", "place": "neighbourhood"}}, {"type": "node", "id": 622357116, "lat": 9.0322322, "lon": 38.737013, "tags": {"name": "\u12c8\u122d\u1245 \u1270\u122b / Worik Tera", "name:am": "\u12c8\u122d\u1245 \u1270\u122b", "name:en": "Worik Tera", "name:fr": "Worik Tera", "place": "neighbourhood"}}, {"type": "node", "id": 622357120, "lat": 9.0320302, "lon": 38.7349734, "tags": {"name": "\u1233\u1325\u1295 \u1270\u122b / Satin Tera", "name:am": "\u1233\u1325\u1295 \u1270\u122b", "name:en": "Satin Tera", "name:fr": "Satin Tera", "place": "neighbourhood"}}, {"type": "node", "id": 622357123, "lat": 9.0314166, "lon": 38.7354943, "tags": {"name": "\u1230\u1203\u1295 \u1270\u122b / Sehan Tera", "name:am": "\u1230\u1203\u1295 \u1270\u122b", "name:en": "Sehan Tera", "name:fr": "Sehan Tera", "place": "neighbourhood"}}, {"type": "node", "id": 622357125, "lat": 9.0375307, "lon": 38.7213287, "tags": {"name": "\u132d\u12f5 \u1270\u122b \u12a0\u12ab\u1263\u1262", "name:en": "Chid Tera", "name:fr": "Chid Tera", "place": "neighbourhood"}}, {"type": "node", "id": 622357127, "lat": 9.0339819, "lon": 38.7322364, "tags": {"name": "\u12a0\u12cd\u1276\u1265\u1235 \u1270\u122b / Autobus Tera", "name:am": "\u12a0\u12cd\u1276\u1265\u1235 \u1270\u122b", "name:en": "Autobus Tera", "name:fr": "Autobus Tera", "place": "neighbourhood"}}, {"type": "node", "id": 622357129, "lat": 9.0378545, "lon": 38.727372, "tags": {"name": "Quasmeda", "name:am": "\u12b3\u1235 \u121c\u12f3", "place": "neighbourhood"}}, {"type": "node", "id": 622357131, "lat": 9.0518019, "lon": 38.7215543, "tags": {"name": "\u1218\u12f5\u1203\u1292\u12d3\u1208\u121d", "name:en": "Medhanialem", "name:fr": "Medhanialem", "place": "neighbourhood"}}, {"type": "node", "id": 622357133, "lat": 9.0463648, "lon": 38.7318682, "tags": {"name": "\u1353\u1235\u1270\u122d", "name:en": "Paster", "name:fr": "Paster", "place": "neighbourhood"}}, {"type": "node", "id": 622357138, "lat": 9.0443597, "lon": 38.718311, "tags": {"name": "\u12ae\u120d\u134c \u1273\u12ed\u12cb\u1295 \u12a0\u12ab\u1263\u1262", "name:en": "Kolfe Tiwan", "name:fr": "Kolfe Tiwan", "place": "neighbourhood"}}, {"type": "node", "id": 622357140, "lat": 9.0317311, "lon": 38.7405611, "tags": {"name": "\u121d\u1295\u1323\u134d \u1270\u122b", "name:en": "Mentaf Tera", "name:fr": "Mentaf Tera", "place": "neighbourhood"}}, {"type": "node", "id": 622357142, "lat": 9.0309941, "lon": 38.7406051, "tags": {"name": "\u134d\u122b\u123d \u1270\u122b", "name:en": "Ferash Tera", "name:fr": "Ferash Tera", "place": "neighbourhood"}}, {"type": "node", "id": 622357143, "lat": 9.031123, "lon": 38.7393048, "tags": {"name": "\u123b\u1295\u1323 \u1270\u122b", "name:en": "Shanta Tera", "name:fr": "Shanta Tera", "place": "neighbourhood"}}, {"type": "node", "id": 622357144, "lat": 9.0313013, "lon": 38.738233, "tags": {"name": "\u12f1\u1263\u12ed \u1270\u122b / Dubai Tera", "name:am": "\u12f1\u1263\u12ed \u1270\u122b", "name:en": "Dubai Tera", "name:fr": "Dubai Tera", "place": "neighbourhood"}}, {"type": "node", "id": 622357145, "lat": 9.0344589, "lon": 38.7480673, "tags": {"name": "\u12a0\u1275\u12ad\u120d\u1275 \u1270\u122b", "name:en": "Atekelet Tera", "name:fr": "Atekelet Tera", "place": "neighbourhood"}}, {"type": "node", "id": 622357146, "lat": 9.0317475, "lon": 38.7387652, "tags": {"name": "Military Tera", "name:am": "\u121a\u120a\u1270\u122a \u1270\u122b", "place": "neighbourhood"}}, {"type": "node", "id": 622357147, "lat": 9.0349351, "lon": 38.7399116, "tags": {"name": "\u130e\u1303\u121d \u1260\u1228\u1295\u12f3 / Gojjam Berenda", "name:am": "\u130e\u1303\u121d \u1260\u1228\u1295\u12f3", "name:en": "Gojjam Berenda", "name:fr": "Gojjam Berenda", "place": "neighbourhood"}}, {"type": "node", "id": 622357148, "lat": 9.0348581, "lon": 38.7460543, "tags": {"name": "\u1262\u1235 \u1218\u1265\u122b\u1275 / Biss Meberat", "name:en": "Biss Meberat", "name:fr": "Biss Meberat", "place": "neighbourhood"}}, {"type": "node", "id": 622357150, "lat": 9.0340299, "lon": 38.7435406, "tags": {"name": "\u1203\u1265\u1270\u130a\u12ee\u122d\u130a\u1235 \u12f5\u120d\u12f5\u12ed", "name:en": "Habete Giorgis", "name:fr": "Habete Giorgis", "place": "neighbourhood"}}, {"type": "node", "id": 622357151, "lat": 9.0323031, "lon": 38.7423939, "tags": {"name": "\u12a0\u121c\u122a\u12ab\u1295 \u130a\u1262", "name:en": "American Gibi", "name:fr": "American Gibi", "place": "suburb"}}, {"type": "node", "id": 622357152, "lat": 9.0404672, "lon": 38.7399483, "tags": {"name": "\u12a0\u1263\u12ae\u122b\u1295 \u1230\u1348\u122d", "name:en": "Abacoran Sefer", "name:fr": "Abacoran Sefer", "place": "neighbourhood"}}, {"type": "node", "id": 622357153, "lat": 9.0362835, "lon": 38.7474715, "tags": {"name": "\u1323\u120a\u12eb\u1295 \u1230\u1348\u122d", "name:en": "Taliyan Sefer", "name:fr": "Taliyan Sefer", "place": "neighbourhood"}}, {"type": "node", "id": 622357154, "lat": 9.0386891, "lon": 38.7480778, "tags": {"name": "\u1230\u1263\u122b \u1263\u1261\u122d", "name:en": "Sebara Babur", "name:fr": "Sebara Babur", "place": "neighbourhood"}}, {"type": "node", "id": 622357155, "lat": 9.0369688, "lon": 38.73822, "tags": {"name": "\u1328\u12cd \u1260\u1228\u1295\u12f3", "name:en": "Chew Berenda", "name:fr": "Chew Berenda", "place": "neighbourhood"}}, {"type": "node", "id": 622357158, "lat": 9.0345839, "lon": 38.7518245, "tags": {"name": "\u12f6\u122e \u121b\u1290\u1242\u12eb", "name:en": "Doro Manekiya", "name:fr": "Doro Manekiya", "place": "neighbourhood"}}, {"type": "node", "id": 622357159, "lat": 9.0320404, "lon": 38.755874, "tags": {"name": "\u1230\u122b\u1270\u129b \u1230\u1348\u122d", "name:en": "Serategna Sefer", "name:fr": "Serategna Sefer", "place": "neighbourhood"}}, {"type": "node", "id": 622357165, "lat": 9.0336984, "lon": 38.7547538, "tags": {"name": "\u1352\u12eb\u1233 \u12a0\u12ab\u1263\u1262", "name:en": "Piassa (piazza)", "name:fr": "Piassa (piazza)", "place": "suburb"}}, {"type": "node", "id": 622357167, "lat": 9.0410344, "lon": 38.7540035, "tags": {"name": "\u12cd\u1264 \u1260\u1228\u1203", "name:en": "Webe Berha", "name:fr": "Webe Berha", "place": "neighbourhood"}}, {"type": "node", "id": 622357169, "lat": 9.0396701, "lon": 38.7563453, "tags": {"name": "\u122b\u1235 \u1218\u12ae\u1295\u1295 \u12f5\u120d\u12f5\u12ed", "name:en": "Ras Mekonnen Deldey", "name:fr": "Ras Mekonnen Deldey", "place": "neighbourhood"}}, {"type": "node", "id": 622357174, "lat": 9.0359666, "lon": 38.7523813, "tags": {"name": "\u130a\u12ee\u122d\u130a\u1235", "name:en": "Giorgis", "name:fr": "Giorgis", "place": "suburb"}}, {"type": "node", "id": 622357176, "lat": 9.0389427, "lon": 38.7502818, "tags": {"name": "\u1308\u12f3\u121d \u1230\u1348\u122d", "name:en": "Gedam Seffer", "name:fr": "Gedam Seffer", "place": "neighbourhood"}}, {"type": "node", "id": 622357178, "lat": 9.0428641, "lon": 38.7456878, "tags": {"name": "\u12ee\u1203\u1295\u1235", "name:en": "Yohannes", "name:fr": "Yohannes", "place": "neighbourhood"}}, {"type": "node", "id": 622357179, "lat": 9.0434883, "lon": 38.7473538, "tags": {"name": "\u12f3\u1275\u1230\u1295 \u1230\u1348\u122d", "name:en": "Datsun Sefer", "name:fr": "Datsun Sefer", "place": "neighbourhood"}}, {"type": "node", "id": 622357181, "lat": 9.0488952, "lon": 38.7378125, "tags": {"name": "\u12a5\u1295\u1241\u120b\u120d \u134b\u1265\u122a\u12ab / Enqulal Faberika", "name:en": "Enqulal Faberika", "name:fr": "Enqulal Faberika", "place": "neighbourhood"}}, {"type": "node", "id": 622357182, "lat": 9.0482558, "lon": 38.7463508, "tags": {"name": "\u123e\u120b", "name:en": "Shola", "name:fr": "Shola", "place": "neighbourhood"}}, {"type": "node", "id": 622357184, "lat": 8.9880118, "lon": 38.7642638, "tags": {"name": "\u1218\u1235\u1240\u120d \u134d\u120b\u12c8\u122d", "name:en": "Meskel Flower", "name:fr": "Meskel Flower", "place": "suburb"}}, {"type": "node", "id": 622357186, "lat": 8.9807969, "lon": 38.7747557, "tags": {"name": "\u1266\u120c \u121a\u12ab\u12a4\u120d \u12a0\u12ab\u1263\u1262", "name:en": "Bole Mikael", "name:fr": "Bole Mikael", "place": "suburb"}}, {"type": "node", "id": 622357189, "lat": 8.9917947, "lon": 38.7793214, "tags": {"name": "\u1229\u12cb\u1295\u12f3 / Rwanda", "name:en": "Rwanda", "name:fr": "Rwanda", "place": "suburb"}}, {"type": "node", "id": 622357191, "lat": 8.9934694, "lon": 38.774558, "tags": {"name": "\u12c8\u120e \u1230\u1348\u122d \u12a0\u12ab\u1263\u1262", "name:en": "Wello Sefer", "name:fr": "Wello Sefer", "place": "suburb"}}, {"type": "node", "id": 622357193, "lat": 9.0039145, "lon": 38.7681189, "tags": {"name": "\u12a6\u120e\u121d\u1352\u12eb", "name:en": "Olympia", "name:fr": "Olympia", "place": "suburb", "source": "local knowledge"}}, {"type": "node", "id": 622357195, "lat": 9.0270604, "lon": 38.7754628, "tags": {"name": "\u12a0\u12cb\u122c Aware", "name:am": "\u12a0\u12cb\u122c", "name:en": "Aware", "name:fr": "Aware", "place": "neighbourhood"}}, {"type": "node", "id": 622357197, "lat": 9.0175028, "lon": 38.7763783, "tags": {"name": "\u12a5\u1295\u12f0\u122b\u1234 Enderase", "name:am": "\u12a5\u1295\u12f0\u122b\u1234", "name:en": "Enderase", "name:fr": "Enderase", "place": "neighbourhood"}}, {"type": "node", "id": 622357198, "lat": 9.0289421, "lon": 38.7601833, "tags": {"name": "\u12a5\u122a \u1260\u12a8\u1295\u1271 \u12a0\u12ab\u1263\u1262", "name:en": "Eri Bekentu", "name:fr": "Eri Bekentu", "place": "neighbourhood"}}, {"type": "node", "id": 622357199, "lat": 9.0196149, "lon": 38.8016732, "tags": {"name": "\u1218\u1308\u1293\u129b", "name:am": "\u1218\u1308\u1293\u129b", "name:en": "Megenagna", "name:fr": "Megenagna", "place": "suburb"}}, {"type": "node", "id": 622357214, "lat": 9.0631738, "lon": 38.6991197, "tags": {"name": "\u12a0\u1235\u12ae \u1265\u122d\u132d\u1246 \u134b\u1265\u122a\u12ab \u12a0\u12ab\u1263\u1262 / Asko Bercheko Faberika Area", "name:en": "Asko Bercheko Faberika Area", "name:fr": "Asko Bercheko Faberika Area", "place": "neighbourhood"}}, {"type": "node", "id": 622357216, "lat": 9.0535999, "lon": 38.7346257, "tags": {"name": "\u12a0\u1263\u12f2\u1293 \u12a0\u12ab\u1263\u1262", "name:en": "Abadina Area", "name:fr": "Abadina Area", "place": "neighbourhood"}}, {"type": "node", "id": 622357217, "lat": 9.0587005, "lon": 38.7273977, "tags": {"name": "\u1229\u134b\u12a4\u120d \u12a0\u12ab\u1263\u1262", "name:en": "Rufael", "name:fr": "Rufael", "place": "neighbourhood"}}, {"type": "node", "id": 622357219, "lat": 9.0568107, "lon": 38.7133909, "tags": {"name": "\u12ca\u1295\u130c\u1275", "name:en": "Winget", "name:fr": "Winget", "place": "neighbourhood"}}, {"type": "node", "id": 622357222, "lat": 9.0533673, "lon": 38.7423862, "tags": {"name": "Semien Mezegaja | \u1230\u121c\u1295 \u1218\u12d8\u130b\u1303", "name:en": "Semien Mezegaja", "name:fr": "Semien Mezegaja", "place": "neighbourhood"}}, {"type": "node", "id": 622357226, "lat": 9.06591, "lon": 38.6934573, "tags": {"name": "\u12a0\u1235\u12ae \u12a0\u12ab\u1263\u1262", "name:en": "Asko Area", "name:fr": "Asko Area", "place": "neighbourhood"}}, {"type": "node", "id": 627616122, "lat": 8.9611369, "lon": 38.7254213, "tags": {"name": "\u1208\u1261", "name:en": "Lebu", "name:fr": "Lebu", "place": "suburb"}}, {"type": "node", "id": 627616132, "lat": 8.9470577, "lon": 38.7443279, "tags": {"name": "\u120b\u134d\u1276", "name:en": "Lafto", "name:fr": "Lafto", "place": "suburb"}}, {"type": "node", "id": 627616279, "lat": 8.9953787, "lon": 38.8094849, "tags": {"name": "\u1308\u122d\u1302 \u12a0\u12ab\u1263\u1262", "name:en": "Gerji", "name:fr": "Gerji", "place": "suburb"}}, {"type": "node", "id": 627616288, "lat": 9.0243483, "lon": 38.7988485, "tags": {"name": "\u12e8\u12ab", "name:en": "Yeka", "name:fr": "Yeka", "place": "suburb"}}, {"type": "node", "id": 627616291, "lat": 9.0345734, "lon": 38.8460555, "tags": {"name": "\u12a0\u12eb\u1275", "name:en": "Ayat", "name:fr": "Ayat", "place": "suburb"}}, {"type": "node", "id": 627616292, "lat": 9.0371282, "lon": 38.8398518, "tags": {"name": "\u12ae\u1270\u1264", "name:en": "Kotebe", "name:fr": "Kotebe", "place": "suburb"}}, {"type": "node", "id": 627616298, "lat": 9.0392915, "lon": 38.8513369, "tags": {"name": "\u12ab\u122b \u12a0\u120e", "name:en": "Kara Alo", "name:fr": "Kara Alo", "place": "suburb"}}, {"type": "node", "id": 627616300, "lat": 9.0384153, "lon": 38.8623947, "tags": {"name": "\u1266\u120c \u12a0\u12eb\u1275", "name:en": "Bole Ayat", "name:fr": "Bole Ayat", "place": "suburb"}}, {"type": "node", "id": 627616302, "lat": 9.0419211, "lon": 38.8609587, "tags": {"name": "\u12ab\u122b - Kara", "name:en": "Kara", "name:fr": "Kara", "place": "suburb"}}, {"type": "node", "id": 704330178, "lat": 9.0109373, "lon": 38.7750119, "tags": {"name": "\u12a1\u122b\u12a4\u120d Urael", "name:am": "\u12a1\u122b\u12a4\u120d", "name:en": "Urael", "name:fr": "Urael", "place": "suburb"}}, {"type": "node", "id": 768273810, "lat": 9.0209489, "lon": 38.8516481, "tags": {"railway": "level_crossing"}}, {"type": "node", "id": 768273812, "lat": 9.0204487, "lon": 38.8527667}, {"type": "node", "id": 768273820, "lat": 9.0214143, "lon": 38.8527265}, {"type": "node", "id": 775683816, "lat": 9.0456667, "lon": 38.755575}, {"type": "node", "id": 775683826, "lat": 9.0514054, "lon": 38.7588113, "tags": {"name": "\u1218\u1290\u1295", "name:en": "Mennen", "name:fr": "Mennen", "place": "neighbourhood"}}, {"type": "node", "id": 775683843, "lat": 9.0159277, "lon": 38.7712221, "tags": {"name": "\u12ab\u12db\u1295\u127a\u1235", "name:en": "Kazanchis", "name:fr": "Kazanchis", "place": "suburb"}}, {"type": "node", "id": 775683856, "lat": 9.0202903, "lon": 38.7677037, "tags": {"name": "\u1218\u1293\u1203\u122a\u12eb \u12ab\u12db\u1295\u127a\u1235 Menahereya Kazanchis", "name:am": "\u1218\u1293\u1203\u122a\u12eb \u12ab\u12db\u1295\u127a\u1235", "name:en": "Menahereya Kazanchis", "name:fr": "Menahereya Kazanchis", "place": "suburb"}}, {"type": "node", "id": 775683858, "lat": 9.0605328, "lon": 38.7613693, "tags": {"name": "Shiromeda-\u123d\u122e\u121c\u12f3", "name:en": "Shiromeda", "name:fr": "Shiromeda", "place": "neighbourhood"}}, {"type": "node", "id": 837433823, "lat": 9.0333773, "lon": 38.708354, "tags": {"name": "\u120d\u12b3\u1295\u12f3", "name:en": "Lekwuanda", "name:fr": "Lekwuanda", "place": "neighbourhood"}}, {"type": "node", "id": 838787581, "lat": 8.9781236, "lon": 38.6839695, "tags": {"name": "\u1228\u1332", "name:en": "Repi", "name:fr": "Repi", "place": "suburb"}}, {"type": "node", "id": 912018454, "lat": 9.031922, "lon": 38.8511537, "tags": {"name": "\u1235\u1295\u123b\u12ed\u1295 \u122a\u120d \u1235\u1274\u1275", "name:en": "Sunshine Real state", "name:fr": "Sunshine Real state", "place": "suburb"}}, {"type": "node", "id": 912018470, "lat": 8.9969391, "lon": 38.8079029, "tags": {"name": "Wereda 11 Administration Office", "name:am": "\u12e8\u12c8\u1228\u12f3 11 \u12a0\u1235\u1270\u12f3\u12f0\u122d \u133d/\u1264\u1275", "place": "locality"}}, {"type": "node", "id": 1079310520, "lat": 8.9230622, "lon": 38.8506714}, {"type": "node", "id": 1079310611, "lat": 8.9366476, "lon": 38.8466017}, {"type": "node", "id": 1079310698, "lat": 8.911343, "lon": 38.8830155}, {"type": "node", "id": 1079310758, "lat": 8.8965402, "lon": 38.8482569}, {"type": "node", "id": 1079310866, "lat": 8.9155272, "lon": 38.8831106}, {"type": "node", "id": 1079311013, "lat": 8.9000625, "lon": 38.8471577}, {"type": "node", "id": 1079311285, "lat": 8.8902001, "lon": 38.8446323}, {"type": "node", "id": 1079311357, "lat": 8.9282402, "lon": 38.8496812}, {"type": "node", "id": 1079311415, "lat": 8.9267403, "lon": 38.8455356}, {"type": "node", "id": 1079311429, "lat": 8.9377511, "lon": 38.8469582}, {"type": "node", "id": 1079311486, "lat": 8.9246143, "lon": 38.8499321}, {"type": "node", "id": 1079311512, "lat": 8.8929886, "lon": 38.8501286}, {"type": "node", "id": 1079311551, "lat": 8.9379155, "lon": 38.8438921}, {"type": "node", "id": 1079311617, "lat": 8.9133569, "lon": 38.8803539}, {"type": "node", "id": 1079311701, "lat": 8.91199, "lon": 38.8845259}, {"type": "node", "id": 1079311747, "lat": 8.8986243, "lon": 38.8401759}, {"type": "node", "id": 1079311924, "lat": 8.9241187, "lon": 38.8472255}, {"type": "node", "id": 1079311994, "lat": 8.9378685, "lon": 38.852401}, {"type": "node", "id": 1079312008, "lat": 8.8902882, "lon": 38.8458801}, {"type": "node", "id": 1079312126, "lat": 8.9366476, "lon": 38.8489309}, {"type": "node", "id": 1079312173, "lat": 8.8957477, "lon": 38.8493562}, {"type": "node", "id": 1079312255, "lat": 8.8909926, "lon": 38.8477816}, {"type": "node", "id": 1079312369, "lat": 8.89927, "lon": 38.8489105}, {"type": "node", "id": 1079312477, "lat": 8.9227883, "lon": 38.849536}, {"type": "node", "id": 1079312541, "lat": 8.8929005, "lon": 38.8402353}, {"type": "node", "id": 1079312599, "lat": 8.9271837, "lon": 38.850579}, {"type": "node", "id": 1079312647, "lat": 8.9405921, "lon": 38.8452944}, {"type": "node", "id": 1079312684, "lat": 8.9236622, "lon": 38.850579}, {"type": "node", "id": 1079312736, "lat": 8.9361311, "lon": 38.8447715}, {"type": "node", "id": 1079312774, "lat": 8.9119691, "lon": 38.8812199}, {"type": "node", "id": 1079312787, "lat": 8.9399112, "lon": 38.8484318}, {"type": "node", "id": 1079312810, "lat": 8.914536, "lon": 38.8810193}, {"type": "node", "id": 1079312841, "lat": 8.9144003, "lon": 38.8845153}, {"type": "node", "id": 1079312952, "lat": 8.896687, "lon": 38.8415722}, {"type": "node", "id": 1079313038, "lat": 8.9252925, "lon": 38.8464334}, {"type": "node", "id": 1079313105, "lat": 8.9403103, "lon": 38.8529714}, {"type": "node", "id": 1079313213, "lat": 8.9286706, "lon": 38.8481629}, {"type": "node", "id": 1079313330, "lat": 8.9381737, "lon": 38.8481466}, {"type": "node", "id": 1079313351, "lat": 8.9256708, "lon": 38.8500641}, {"type": "node", "id": 1079313407, "lat": 8.8941921, "lon": 38.8493562}, {"type": "node", "id": 1079313480, "lat": 8.941226, "lon": 38.8522109}, {"type": "node", "id": 1079313738, "lat": 8.8983307, "lon": 38.8388092}, {"type": "node", "id": 1079313930, "lat": 8.922684, "lon": 38.8484666}, {"type": "node", "id": 1079313976, "lat": 8.896188, "lon": 38.8386904}, {"type": "node", "id": 1079313993, "lat": 8.9367415, "lon": 38.8505946}, {"type": "node", "id": 1079314068, "lat": 8.9404982, "lon": 38.8438208}, {"type": "node", "id": 1104338571, "lat": 8.9375368, "lon": 38.8481369, "tags": {"name": "Endorro", "place": "village"}}, {"type": "node", "id": 1104341275, "lat": 8.9676337, "lon": 38.8610179, "tags": {"fixme": "Name written with Abyssinica Translator. Name correct?", "name": "\u1266\u120c \u1208\u121a \u12a2\u1295\u12f3\u1235\u1275\u122a\u12eb\u120d \u1353\u122d\u12ad", "name:en": "Bole Lemi Industrial Park", "name:fr": "Bole Lemi Industrial Park", "place": "village"}}, {"type": "node", "id": 1150881364, "lat": 8.98333, "lon": 38.71667, "tags": {"name": "\u1308\u1265\u1228 \u12ad\u122d\u1235\u1276\u1235 \u1264\u1270 \u12ad\u122d\u1235\u1272\u12eb\u1295", "name:en": "Gebre Kristos Bete Kristiyan", "name:fr": "Gebre Kristos Bete Kristiyan", "place": "suburb", "source": "GeoDatabase"}}, {"type": "node", "id": 1150881862, "lat": 8.95, "lon": 38.83333, "tags": {"is_in:country": "Ethiopia", "is_in:country_code": "ET", "name": "Kotabe", "place": "locality", "source": "GeoDatabase"}}, {"type": "node", "id": 1150882594, "lat": 9.01667, "lon": 38.7, "tags": {"fixme": "Name written with Abyssinica Translator. Name correct? Name with apostrophe?", "name": "\u120a\u12f0\u1273 \u1308\u1265\u122c\u120d \u1260\u1270 \u12ad\u122a\u1235\u1272\u12eb\u1295", "name:en": "Lideta Gebri'El Bete Kristiyan", "name:fr": "Lideta Gebri'El Bete Kristiyan", "place": "suburb", "source": "GeoDatabase"}}, {"type": "node", "id": 1150882747, "lat": 8.9599646, "lon": 38.7114803, "tags": {"name": "\u1300\u121e", "name:en": "Jemo", "name:fr": "Jemo", "note": "Translation source: http://translator.abyssinica.com/.", "place": "suburb", "source": "GeoDatabase"}}, {"type": "node", "id": 1150883115, "lat": 8.95, "lon": 38.76667, "tags": {"name": "\u12a0\u12f2\u1235 / Adiss", "name:am": "\u12a0\u12f2\u1235", "name:en": "Adiss", "name:fr": "Adiss", "name:ru": "\u0410\u0434\u0438\u0441", "note": "Translation source: http://translator.abyssinica.com/.", "place": "suburb", "source": "GeoDatabase"}}, {"type": "node", "id": 1150885071, "lat": 8.95, "lon": 38.7, "tags": {"fixme": "Written with Abyssinica Translator. Correct name?", "name": "\u122d\u1271 \u1266\u1273", "name:en": "Irtu Bota", "name:fr": "Irtu Bota", "place": "suburb", "source": "GeoDatabase"}}, {"type": "node", "id": 1150885464, "lat": 8.86667, "lon": 38.66667, "tags": {"is_in:country": "Ethiopia", "is_in:country_code": "ET", "name": "Geja Giyorgis Bete Kristiyan", "place": "locality", "source": "GeoDatabase"}}, {"type": "node", "id": 1150886475, "lat": 8.95, "lon": 38.73333, "tags": {"fixme": "Correct name? Correct place classification?", "name": "\u1200\u122d\u1261 \u1238\u1275", "name:en": "Harbu Shet'", "name:fr": "Harbu Shet", "note": "Translation source: http://translator.abyssinica.com/.", "place": "suburb", "source": "GeoDatabase"}}, {"type": "node", "id": 1150887973, "lat": 9.01667, "lon": 38.9, "tags": {"fixme": "Hamlet? Or suburb? Or neighbourhood? Name written with Abyssinica Translator. Name correct?", "name": "\u1308\u12cb\u1233", "name:en": "Gewasa", "name:fr": "Gewasa", "place": "neighbourhood", "source": "GeoDatabase"}}, {"type": "node", "id": 1150888683, "lat": 8.86667, "lon": 38.7, "tags": {"is_in:country": "Ethiopia", "is_in:country_code": "ET", "name": "Yuyu", "place": "locality", "source": "GeoDatabase"}}, {"type": "node", "id": 1150889342, "lat": 8.91667, "lon": 38.8, "tags": {"is_in:country": "Ethiopia", "is_in:country_code": "ET", "name": "Ak'Ak'I Bota", "place": "locality", "source": "GeoDatabase"}}, {"type": "node", "id": 1150893880, "lat": 8.93333, "lon": 38.88333, "tags": {"is_in:country": "Ethiopia", "is_in:country_code": "ET", "name": "Menole", "place": "locality", "source": "GeoDatabase"}}, {"type": "node", "id": 1150893910, "lat": 9.02709, "lon": 38.85435, "tags": {"name": "\u12f5\u1303\u12dd\u121b\u127d \u12a0\u1209\u120b \u12a5\u122d\u123b", "name:en": "Yedejazmach Alula Irsha", "name:fr": "Yedejazmach Alula Irsha", "place": "suburb", "source": "GeoDatabase"}}, {"type": "node", "id": 1150897640, "lat": 9.0, "lon": 38.78333, "tags": {"name": "\u130d\u1202\u120a\u134d\u134b\u1208\u130d\u1295 \u121d\u1295\u132d", "name:en": "Ghiliffalegn Stream", "name:fr": "Ghiliffalegn Stream", "note": "Name done with Abyssinica Translator. Name correct?", "place": "suburb", "source": "GeoDatabase"}}, {"type": "node", "id": 1150897728, "lat": 9.05114, "lon": 38.66922, "tags": {"is_in:country": "Ethiopia", "is_in:country_code": "ET", "name": "Guje Shet'", "place": "locality", "source": "GeoDatabase"}}, {"type": "node", "id": 1150899138, "lat": 9.0547781, "lon": 38.6460045, "tags": {"fixme": "Name done with Abyssinica Translator. Name correct? Name with apostrophe?", "name": "\u1308\u1348\u122d\u1233 \u1238\u1275", "name:en": "Gefersa Shet'", "name:fr": "Gefersa Shet'", "place": "suburb", "source": "GeoDatabase"}}, {"type": "node", "id": 1150899550, "lat": 8.91667, "lon": 38.68333, "tags": {"is_in:country": "Ethiopia", "is_in:country_code": "ET", "name": "Harbu Bota", "place": "locality", "source": "GeoDatabase"}}, {"type": "node", "id": 1150899922, "lat": 8.96667, "lon": 38.83333, "tags": {"is_in:country": "Ethiopia", "is_in:country_code": "ET", "name": "Kotebe Shet'", "place": "locality", "source": "GeoDatabase"}}, {"type": "node", "id": 1150902387, "lat": 8.93333, "lon": 38.78333, "tags": {"is_in:country": "Ethiopia", "is_in:country_code": "ET", "name": "Tug Cabana", "place": "locality", "source": "GeoDatabase"}}, {"type": "node", "id": 1150903245, "lat": 8.8999034, "lon": 38.7667399, "tags": {"name": "\u1243\u1260\u1293", "name:en": "Cabana", "name:fr": "Cabana", "note": "Translation source: http://translator.abyssinica.com/.", "place": "suburb", "source": "GeoDatabase"}}, {"type": "node", "id": 1150907340, "lat": 8.95, "lon": 38.71667, "tags": {"name": "\u1218\u1292\u1233", "name:en": "Menisa", "name:fr": "Menisa", "note": "Translation source: http://translator.abyssinica.com/.", "place": "suburb", "source": "GeoDatabase"}}, {"type": "node", "id": 1150908132, "lat": 8.9, "lon": 38.65, "tags": {"is_in:country": "Ethiopia", "is_in:country_code": "ET", "name": "Shulufi", "place": "locality", "source": "GeoDatabase"}}, {"type": "node", "id": 1150910646, "lat": 8.96667, "lon": 38.73333, "tags": {"fixme": "Locality?", "name": "\u130d\u122c\u1275 \u12a0\u12ab\u127a", "name:en": "Great Acachi", "name:fr": "Great Acachi", "place": "suburb", "source": "GeoDatabase"}}, {"type": "node", "id": 1150911749, "lat": 8.95, "lon": 38.75, "tags": {"is_in:country": "Ethiopia", "is_in:country_code": "ET", "name": "Lafto", "place": "locality", "source": "GeoDatabase"}}, {"type": "node", "id": 1150914584, "lat": 9.00974, "lon": 38.90567, "tags": {"is_in:country": "Ethiopia", "is_in:country_code": "ET", "name": "T'Afo Shet'", "place": "locality", "source": "GeoDatabase"}}, {"type": "node", "id": 1150920489, "lat": 8.86667, "lon": 38.85, "tags": {"is_in:country": "Ethiopia", "is_in:country_code": "ET", "name": "Deka Seden", "place": "locality", "source": "GeoDatabase"}}, {"type": "node", "id": 1150924691, "lat": 8.95, "lon": 38.9, "tags": {"is_in:country": "Ethiopia", "is_in:country_code": "ET", "name": "Ulan Ula Shet'", "place": "locality", "source": "GeoDatabase"}}, {"type": "node", "id": 1150924711, "lat": 9.08333, "lon": 38.83333, "tags": {"is_in:country": "Ethiopia", "is_in:country_code": "ET", "name": "Medero", "place": "locality", "source": "GeoDatabase"}}, {"type": "node", "id": 1150926133, "lat": 8.88333, "lon": 38.9, "tags": {"is_in:country": "Ethiopia", "is_in:country_code": "ET", "name": "Weyu", "place": "locality", "source": "GeoDatabase"}}, {"type": "node", "id": 1150935999, "lat": 8.86667, "lon": 38.86667, "tags": {"is_in:country": "Ethiopia", "is_in:country_code": "ET", "name": "Wedeso", "place": "locality", "source": "GeoDatabase"}}, {"type": "node", "id": 1150938656, "lat": 9.06667, "lon": 38.73333, "tags": {"name": "\u12ae\u120e\u1266", "name:en": "Kolobo", "name:fr": "Kolobo", "note": "Name done with Abyssinica Translator. Is there an apostrophe in the name?", "place": "neighbourhood", "source": "GeoDatabase"}}, {"type": "node", "id": 1150941137, "lat": 8.98333, "lon": 38.76667, "tags": {"fixme": "Name written with Abyssinica Translator. Name correct?", "name": "\u1263\u1295\u1275\u12ea\u12a8\u1271", "name:en": "Bantyiketu", "name:fr": "Bantyiketu", "place": "suburb", "source": "GeoDatabase"}}, {"type": "node", "id": 1150951654, "lat": 9.0, "lon": 38.7, "tags": {"fixme": "Name written with Abyssinica Translator. Name correct?", "name": "\u12a9\u122d\u1271\u121c \u121d\u1295\u132d", "name:en": "Kurtume Stream", "name:fr": "Kurtume Stream", "place": "suburb", "source": "GeoDatabase"}}, {"type": "node", "id": 1150952504, "lat": 8.91667, "lon": 38.85, "tags": {"is_in:country": "Ethiopia", "is_in:country_code": "ET", "name": "Gelan Bota", "place": "locality", "source": "GeoDatabase"}}, {"type": "node", "id": 1150954042, "lat": 8.96667, "lon": 38.75, "tags": {"fixme": "Correct name? Correct place classification?", "name": "\u1309\u1208\u120c \u1263\u1273", "name:en": "Gulele Bota", "name:fr": "Gulele Bota", "note": "Translation source: http://translator.abyssinica.com/.", "place": "suburb", "source": "GeoDatabase"}}, {"type": "node", "id": 1150957732, "lat": 9.0664568, "lon": 38.8882223, "tags": {"fixme": "Name done with Abyssinica Translator. Name correct? Name with apostrophe?", "name": "\u1208\u1308 \u1323\u134e", "name:en": "Lege Tafo", "name:fr": "Lege Tafo", "place": "suburb", "source": "GeoDatabase"}}, {"type": "node", "id": 1150962473, "lat": 8.9346018, "lon": 38.7444022, "tags": {"name": "\u1210\u1293", "name:en": "Hana", "name:fr": "Hana", "note": "Translation source: http://translator.abyssinica.com/.", "place": "suburb", "source": "GeoDatabase"}}, {"type": "node", "id": 1150969105, "lat": 8.96667, "lon": 38.9, "tags": {"is_in:country": "Ethiopia", "is_in:country_code": "ET", "name": "Bole", "place": "locality", "source": "GeoDatabase"}}, {"type": "node", "id": 1150969122, "lat": 8.9169031, "lon": 38.7182206, "tags": {"is_in:country": "Ethiopia", "is_in:country_code": "ET", "name": "Ula Silase Bete Kristiyan", "place": "locality", "source": "GeoDatabase"}}, {"type": "node", "id": 1150969441, "lat": 8.85, "lon": 38.81666, "tags": {"is_in:country": "Ethiopia", "is_in:country_code": "ET", "name": "Tulu Dimtu", "place": "locality", "source": "GeoDatabase"}}, {"type": "node", "id": 1150970536, "lat": 8.91667, "lon": 38.88333, "tags": {"is_in:country": "Ethiopia", "is_in:country_code": "ET", "name": "Bolo Doyo", "place": "locality", "source": "GeoDatabase"}}, {"type": "node", "id": 1150970899, "lat": 8.9, "lon": 38.78333, "tags": {"is_in:country": "Ethiopia", "is_in:country_code": "ET", "name": "Selbane", "place": "locality", "source": "GeoDatabase"}}, {"type": "node", "id": 1150972615, "lat": 8.86667, "lon": 38.73333, "tags": {"is_in:country": "Ethiopia", "is_in:country_code": "ET", "name": "Bole Shet'", "place": "locality", "source": "GeoDatabase"}}, {"type": "node", "id": 1150973486, "lat": 8.85, "lon": 38.76667, "tags": {"is_in:country": "Ethiopia", "is_in:country_code": "ET", "name": "Andode (2)", "place": "locality", "source": "GeoDatabase"}}, {"type": "node", "id": 1150980092, "lat": 9.0, "lon": 38.85, "tags": {"name": "\u12e8\u12ab \u1266\u120c \u1266\u1273", "name:en": "Yeka Bole Bota", "name:fr": "Yeka Bole Bota", "place": "suburb", "source": "GeoDatabase"}}, {"type": "node", "id": 1151003394, "lat": 8.9666364, "lon": 38.6667929, "tags": {"name": "\u12ae\u123a\u121d", "name:en": "Koshim", "name:fr": "Koshim", "place": "suburb", "source": "GeoDatabase"}}, {"type": "node", "id": 1721650203, "lat": 8.9721093, "lon": 38.7322962, "tags": {"fixme": "Hamlet? Or suburb? Or neighbourhood?", "name": "\u12a4\u12a4\u1232\u12a4\u121d\u12cb\u12ed \u1218\u1296\u122a\u12eb \u1264\u1275", "name:en": "EECMY Residential Area", "name:fr": "EECMY Residential Area", "place": "neighbourhood", "source": "local knowledge"}}, {"type": "node", "id": 1766513451, "lat": 9.0506417, "lon": 38.8064258, "tags": {"fixme": "Name written with Abyssinica Translator. Name correct?", "name": "Beg Tera", "name:am": "\u1260\u130d \u1270\u122b", "name:en": "\u1260\u130d \u1270\u122b Beg Tera", "place": "village"}}, {"type": "node", "id": 1985649537, "lat": 8.9227333, "lon": 38.8489722}, {"type": "node", "id": 1985665571, "lat": 8.9258324, "lon": 38.8482922, "tags": {"place": "village"}}, {"type": "node", "id": 1991882552, "lat": 8.905022, "lon": 38.8609677, "tags": {"place": "village"}}, {"type": "node", "id": 1991883122, "lat": 8.9465061, "lon": 38.8640147, "tags": {"place": "village"}}, {"type": "node", "id": 2104347167, "lat": 9.0436022, "lon": 38.7613092}, {"type": "node", "id": 2874006650, "lat": 9.0202889, "lon": 38.8524896}, {"type": "node", "id": 2874006651, "lat": 9.0215616, "lon": 38.8522471}, {"type": "node", "id": 3502590025, "lat": 9.0729368, "lon": 38.8944426, "tags": {"addr:city": "Addis Ababa", "addr:street": "Legetafo road", "name": "CCD", "place": "neighbourhood", "population": "2000"}}, {"type": "node", "id": 4214999944, "lat": 9.0735203, "lon": 38.7957515}, {"type": "node", "id": 4214999945, "lat": 9.0734938, "lon": 38.7957971}, {"type": "node", "id": 4214999946, "lat": 9.0736051, "lon": 38.7958641}, {"type": "node", "id": 4214999947, "lat": 9.0736289, "lon": 38.7958105}, {"type": "node", "id": 4492239892, "lat": 8.9372283, "lon": 38.7345511, "tags": {"name": "Haile Garment Square", "place": "square"}}, {"type": "node", "id": 4492240390, "lat": 8.9482611, "lon": 38.733709, "tags": {"name": "Lebu Mebrathayil", "name:am": "\u1208\u1261 \u1218\u1265\u122b\u1275 \u1200\u12ed\u120d", "name:en": "Lebu Mebrathayil", "place": "suburb", "tourism": "viewpoint"}}, {"type": "node", "id": 4534413516, "lat": 9.029666, "lon": 38.7214597, "tags": {"name": "\u12c8\u1228\u12f3 \u136b", "name:en": "District 3", "name:fr": "District 3", "place": "suburb", "source": "Sources: http://www.openstreetmap.org/note/695280, http://translator.abyssinica.com/, http://www.geez.org/Numerals/."}}, {"type": "node", "id": 4534864796, "lat": 9.0150671, "lon": 38.7485259, "tags": {"fixme": "Suburb, or something else?", "name": "\u12a0\u1308\u1293\u129d\u12f0\u1242\u1245 \u1355\u122e\u1300\u12ad\u1275 Microlink Project", "name:am": "\u12a0\u1308\u1293\u129d\u12f0\u1242\u1245 \u1355\u122e\u1300\u12ad\u1275", "name:en": "Microlink Project", "name:fr": "Microlink Project", "note": "Translation source: http://translator.abyssinica.com/.", "place": "suburb", "source": "See here: http://www.openstreetmap.org/note/673420."}}, {"type": "node", "id": 4938997251, "lat": 9.0348997, "lon": 38.7786041, "tags": {"name": "\u1240\u1260\u1293", "name:en": "Kebena", "name:fr": "Kebena", "place": "neighbourhood"}}, {"type": "node", "id": 5380995125, "lat": 9.0359732, "lon": 38.6607628, "tags": {"name": "Burayu", "place": "town"}}, {"type": "node", "id": 5428840325, "lat": 9.0232558, "lon": 38.7839346, "tags": {"name": "Signal", "name:en": "Signal", "place": "locality"}}, {"type": "node", "id": 5526993571, "lat": 9.0215268, "lon": 38.8520857}, {"type": "node", "id": 6171686807, "lat": 8.9407469, "lon": 38.6560564, "tags": {"name": "Got 13", "place": "farm"}}, {"type": "node", "id": 6206220262, "lat": 8.9355248, "lon": 38.6612727, "tags": {"name": "\u12a0\u12f2\u1235 \u1230\u1348\u122d", "name:en": "Alem Gena", "name:fr": "Alem Gena", "place": "village"}}, {"type": "node", "id": 6206221911, "lat": 8.9339131, "lon": 38.6579738, "tags": {"name": "Addis Sefer", "place": "village"}}, {"type": "node", "id": 6206225084, "lat": 8.9358608, "lon": 38.6551596, "tags": {"name": "Meda chaf", "place": "village"}}, {"type": "node", "id": 6307585346, "lat": 9.0657694, "lon": 38.6916948, "tags": {"name": "\u1295\u134d\u122e \u1230\u1348\u122d", "name:en": "Nefro neighborhood", "name:fr": "Nefro", "place": "neighbourhood"}}, {"type": "node", "id": 7037183513, "lat": 9.0201901, "lon": 38.8526027, "tags": {"bus": "yes", "name": "Yetebaberut", "name:am": "\u12e8\u1270\u1263\u1260\u1229\u1275", "name:en": "Yetebaberut (CMC Square )", "network": "Addis Ababa Public Transport", "operator": "Addis Ababa Bus Service Enterprise", "public_transport": "platform", "public_transport:version": "2", "ref:AB": "AB022", "ref:SH": "SH005"}}, {"type": "node", "id": 8222991202, "lat": 9.0436364, "lon": 38.7611838}, {"type": "node", "id": 8222991203, "lat": 9.0437508, "lon": 38.7610365}, {"type": "node", "id": 8222991204, "lat": 9.0439567, "lon": 38.7608165}, {"type": "node", "id": 8222991205, "lat": 9.044143, "lon": 38.7602291}, {"type": "node", "id": 8222991206, "lat": 9.0441597, "lon": 38.7599987}, {"type": "node", "id": 8222991207, "lat": 9.0440396, "lon": 38.7597157}, {"type": "node", "id": 8222991210, "lat": 9.0437652, "lon": 38.7583003}, {"type": "node", "id": 8222991211, "lat": 9.0441321, "lon": 38.7574537}, {"type": "node", "id": 8222991212, "lat": 9.044894, "lon": 38.7566666}, {"type": "node", "id": 8222991213, "lat": 9.0470792, "lon": 38.756221}, {"type": "node", "id": 8222991214, "lat": 9.0477985, "lon": 38.7564656}, {"type": "node", "id": 8222991215, "lat": 9.0488004, "lon": 38.7579948}, {"type": "node", "id": 8222991216, "lat": 9.0493014, "lon": 38.7586812}, {"type": "node", "id": 8222999517, "lat": 9.0515209, "lon": 38.7588724}, {"type": "node", "id": 8222999518, "lat": 9.0512109, "lon": 38.7650529}, {"type": "node", "id": 8222999521, "lat": 9.0440963, "lon": 38.7625071}, {"type": "node", "id": 8278999675, "lat": 8.8992827, "lon": 38.8458673}, {"type": "node", "id": 8420938721, "lat": 9.0242197, "lon": 38.7603761}, {"type": "node", "id": 8420938728, "lat": 9.0251218, "lon": 38.7601767}, {"type": "node", "id": 8420938739, "lat": 9.0253756, "lon": 38.7598982}, {"type": "node", "id": 8420938741, "lat": 9.0252211, "lon": 38.7599792}, {"type": "node", "id": 8420938781, "lat": 9.0246105, "lon": 38.7602796}, {"type": "node", "id": 8420938796, "lat": 9.024545, "lon": 38.7602742}, {"type": "node", "id": 8420938799, "lat": 9.0240233, "lon": 38.7588469}, {"type": "node", "id": 8420938800, "lat": 9.0240781, "lon": 38.75879}, {"type": "node", "id": 8420938803, "lat": 9.0240895, "lon": 38.7587936}, {"type": "node", "id": 8420938805, "lat": 9.0241749, "lon": 38.7586785}, {"type": "node", "id": 8420938809, "lat": 9.0241285, "lon": 38.7587856}, {"type": "node", "id": 8420938814, "lat": 9.0243314, "lon": 38.7586942}, {"type": "node", "id": 8420938815, "lat": 9.0240991, "lon": 38.7587765}, {"type": "node", "id": 8420940617, "lat": 9.0242924, "lon": 38.758701}, {"type": "node", "id": 8420940618, "lat": 9.0240783, "lon": 38.7588106}, {"type": "node", "id": 8420940619, "lat": 9.0240441, "lon": 38.7588015}, {"type": "node", "id": 8420940629, "lat": 9.0247972, "lon": 38.7586233}, {"type": "node", "id": 8420940633, "lat": 9.0246388, "lon": 38.7586804}, {"type": "node", "id": 8420940634, "lat": 9.0245177, "lon": 38.7586813}, {"type": "node", "id": 8420940636, "lat": 9.0244302, "lon": 38.7586603}, {"type": "node", "id": 8420940638, "lat": 9.024297, "lon": 38.7586197}, {"type": "node", "id": 8420940641, "lat": 9.0242936, "lon": 38.7585974}, {"type": "node", "id": 8420940643, "lat": 9.024595, "lon": 38.7593515}, {"type": "node", "id": 8420940646, "lat": 9.0251888, "lon": 38.7595526}, {"type": "node", "id": 8420940647, "lat": 9.0244411, "lon": 38.7593602}, {"type": "node", "id": 8420940648, "lat": 9.0251406, "lon": 38.7595297}, {"type": "node", "id": 8420940650, "lat": 9.0240865, "lon": 38.7594602}, {"type": "node", "id": 8420940652, "lat": 9.0254403, "lon": 38.7599266}, {"type": "node", "id": 8420940653, "lat": 9.0252153, "lon": 38.7595401}, {"type": "node", "id": 8420940662, "lat": 9.0249649, "lon": 38.7594322}, {"type": "node", "id": 8420940669, "lat": 9.0242676, "lon": 38.7593912}, {"type": "node", "id": 8420940670, "lat": 9.0247822, "lon": 38.7593885}, {"type": "node", "id": 8420940761, "lat": 9.0251731, "lon": 38.7600853}, {"type": "node", "id": 8420940769, "lat": 9.0250605, "lon": 38.7602447}, {"type": "node", "id": 8420940789, "lat": 9.0244578, "lon": 38.7602964}, {"type": "node", "id": 8420940809, "lat": 9.0239522, "lon": 38.7589111}, {"type": "node", "id": 8420940811, "lat": 9.0240027, "lon": 38.7589626}, {"type": "node", "id": 8420940813, "lat": 9.0239896, "lon": 38.758928}, {"type": "node", "id": 8420940815, "lat": 9.0239783, "lon": 38.7589493}, {"type": "node", "id": 8420940824, "lat": 9.0241458, "lon": 38.760291}, {"type": "node", "id": 8420940839, "lat": 9.0250236, "lon": 38.7588159}, {"type": "node", "id": 8420940846, "lat": 9.0249788, "lon": 38.7602729}, {"type": "node", "id": 8420940847, "lat": 9.0242302, "lon": 38.7603295}, {"type": "node", "id": 8420940860, "lat": 9.021715, "lon": 38.7563188}, {"type": "node", "id": 8420940861, "lat": 9.0218032, "lon": 38.7562745}, {"type": "node", "id": 8420940872, "lat": 9.025104, "lon": 38.7601312}, {"type": "node", "id": 8420940876, "lat": 9.0247865, "lon": 38.7604256}, {"type": "node", "id": 8420940877, "lat": 9.0243462, "lon": 38.7586778}, {"type": "node", "id": 8420940880, "lat": 9.0243772, "lon": 38.7586829}, {"type": "node", "id": 8420940883, "lat": 9.0243687, "lon": 38.7587015}, {"type": "node", "id": 8420940886, "lat": 9.0243832, "lon": 38.7587258}, {"type": "node", "id": 8420940889, "lat": 9.0245485, "lon": 38.7587483}, {"type": "node", "id": 8420940895, "lat": 9.024695, "lon": 38.7603127}, {"type": "node", "id": 8420940922, "lat": 9.0250926, "lon": 38.759015}, {"type": "node", "id": 8420940925, "lat": 9.0251013, "lon": 38.7589726}, {"type": "node", "id": 8420940926, "lat": 9.0251225, "lon": 38.7589609}, {"type": "node", "id": 8420940933, "lat": 9.0241357, "lon": 38.7590554}, {"type": "node", "id": 8420940939, "lat": 9.0250865, "lon": 38.7589961}, {"type": "node", "id": 8420940946, "lat": 9.0240124, "lon": 38.758989}, {"type": "node", "id": 8420940951, "lat": 9.0249045, "lon": 38.7590777}, {"type": "node", "id": 8420940952, "lat": 9.0251077, "lon": 38.7589862}, {"type": "node", "id": 8420940953, "lat": 9.0251144, "lon": 38.7589389}, {"type": "node", "id": 8420940954, "lat": 9.0239978, "lon": 38.758979}, {"type": "node", "id": 8420940959, "lat": 9.0243531, "lon": 38.7591092}, {"type": "node", "id": 8420940966, "lat": 9.0245847, "lon": 38.7591212}, {"type": "node", "id": 8420940973, "lat": 9.0239989, "lon": 38.7590102}, {"type": "node", "id": 8420940996, "lat": 9.025185, "lon": 38.7588334}, {"type": "node", "id": 8420941000, "lat": 9.0250359, "lon": 38.7588467}, {"type": "node", "id": 8420941003, "lat": 9.0251474, "lon": 38.7588482}, {"type": "node", "id": 8420941006, "lat": 9.0251376, "lon": 38.7588296}, {"type": "node", "id": 8420941008, "lat": 9.0250689, "lon": 38.7588304}, {"type": "node", "id": 8420941012, "lat": 9.0249822, "lon": 38.7587947}, {"type": "node", "id": 8420941020, "lat": 9.0250787, "lon": 38.7588506}, {"type": "node", "id": 8420941022, "lat": 9.0250114, "lon": 38.7587851}, {"type": "node", "id": 8420941025, "lat": 9.0246283, "lon": 38.7587535}, {"type": "node", "id": 8420941045, "lat": 9.0247611, "lon": 38.7586905}, {"type": "node", "id": 8420941048, "lat": 9.0247452, "lon": 38.7587274}, {"type": "node", "id": 8420941049, "lat": 9.024734, "lon": 38.7586983}, {"type": "node", "id": 8420941054, "lat": 9.0247343, "lon": 38.7587406}, {"type": "node", "id": 8420941055, "lat": 9.0243495, "lon": 38.7604308}, {"type": "node", "id": 8420941059, "lat": 9.0252342, "lon": 38.7600108}, {"type": "node", "id": 8420941169, "lat": 9.0247996, "lon": 38.7587166}, {"type": "node", "id": 8420941170, "lat": 9.0249428, "lon": 38.7586827}, {"type": "node", "id": 8420941171, "lat": 9.0247744, "lon": 38.7587105}, {"type": "node", "id": 8420941172, "lat": 9.0249074, "lon": 38.7586983}, {"type": "node", "id": 8420941180, "lat": 9.0248372, "lon": 38.7587206}, {"type": "node", "id": 8420941190, "lat": 9.0247437, "lon": 38.760354}, {"type": "node", "id": 8420941202, "lat": 9.0217724, "lon": 38.7564775}, {"type": "node", "id": 8420941206, "lat": 9.0217348, "lon": 38.7564482}, {"type": "node", "id": 8420941209, "lat": 9.0217747, "lon": 38.7565511}, {"type": "node", "id": 8420941214, "lat": 9.0216243, "lon": 38.7563698}, {"type": "node", "id": 8420941216, "lat": 9.0237537, "lon": 38.75989}, {"type": "node", "id": 8420941217, "lat": 9.0237278, "lon": 38.7598838}, {"type": "node", "id": 8420941218, "lat": 9.0236798, "lon": 38.759906}, {"type": "node", "id": 8420941219, "lat": 9.0217017, "lon": 38.7563946}, {"type": "node", "id": 8420941221, "lat": 9.0238939, "lon": 38.7599607}, {"type": "node", "id": 8420941224, "lat": 9.0239236, "lon": 38.7595489}, {"type": "node", "id": 8420941225, "lat": 9.0239007, "lon": 38.7595428}, {"type": "node", "id": 8420941282, "lat": 9.0239464, "lon": 38.7600692}, {"type": "node", "id": 8420941293, "lat": 9.0251629, "lon": 38.7600595}, {"type": "node", "id": 8420941298, "lat": 9.023878, "lon": 38.7599977}, {"type": "node", "id": 8420941321, "lat": 9.0239596, "lon": 38.7600296}, {"type": "node", "id": 8420941326, "lat": 9.0251931, "lon": 38.7588453}, {"type": "node", "id": 8420941334, "lat": 9.0251718, "lon": 38.7588636}, {"type": "node", "id": 8420941336, "lat": 9.0251799, "lon": 38.7588871}, {"type": "node", "id": 8420941338, "lat": 9.025144, "lon": 38.7589052}, {"type": "node", "id": 8420941341, "lat": 9.0251537, "lon": 38.7589206}, {"type": "node", "id": 8420941361, "lat": 9.0240089, "lon": 38.7601457}, {"type": "node", "id": 8420941363, "lat": 9.0240247, "lon": 38.7601064}, {"type": "node", "id": 8420941364, "lat": 9.0240735, "lon": 38.7602159}, {"type": "node", "id": 8420941366, "lat": 9.0241588, "lon": 38.7602412}, {"type": "node", "id": 8420941374, "lat": 9.0240866, "lon": 38.7601768}, {"type": "node", "id": 8420941376, "lat": 9.0239553, "lon": 38.7588896}, {"type": "node", "id": 8420941378, "lat": 9.0249884, "lon": 38.7603205}, {"type": "node", "id": 8420941379, "lat": 9.0239597, "lon": 38.7588344}, {"type": "node", "id": 8420941380, "lat": 9.0239237, "lon": 38.7588239}, {"type": "node", "id": 8420941383, "lat": 9.0239305, "lon": 38.7588542}, {"type": "node", "id": 8420941384, "lat": 9.0239141, "lon": 38.7588389}, {"type": "node", "id": 8420941397, "lat": 9.0239209, "lon": 38.7588709}, {"type": "node", "id": 8420941398, "lat": 9.023971, "lon": 38.7588195}, {"type": "node", "id": 8420941402, "lat": 9.0247973, "lon": 38.7585922}, {"type": "node", "id": 8420941404, "lat": 9.0244265, "lon": 38.758531}, {"type": "node", "id": 8420941405, "lat": 9.0245359, "lon": 38.7585119}, {"type": "node", "id": 8420941410, "lat": 9.0246484, "lon": 38.7585209}, {"type": "node", "id": 8420941411, "lat": 9.0249091, "lon": 38.7603539}, {"type": "node", "id": 8420941413, "lat": 9.0218254, "lon": 38.7564822}, {"type": "node", "id": 8420941415, "lat": 9.0219289, "lon": 38.7563487}, {"type": "node", "id": 8420941419, "lat": 9.0219024, "lon": 38.7562748}, {"type": "node", "id": 8420941422, "lat": 9.0218583, "lon": 38.7562613}, {"type": "node", "id": 8420941424, "lat": 9.02192, "lon": 38.7562905}, {"type": "node", "id": 8420941425, "lat": 9.0218981, "lon": 38.7564023}, {"type": "node", "id": 8420941440, "lat": 9.0249166, "lon": 38.7603899}, {"type": "node", "id": 8420941461, "lat": 9.0253409, "lon": 38.7599044}, {"type": "node", "id": 8420941462, "lat": 9.0243981, "lon": 38.7603514}, {"type": "node", "id": 8420941471, "lat": 9.0250449, "lon": 38.7602109}, {"type": "node", "id": 8420989474, "lat": 9.0247491, "lon": 38.758694}, {"type": "node", "id": 8420989475, "lat": 9.024729, "lon": 38.7586479}, {"type": "node", "id": 8420989476, "lat": 9.024359, "lon": 38.7586799}, {"type": "node", "id": 8420989477, "lat": 9.0243715, "lon": 38.7586424}, {"type": "node", "id": 8420989483, "lat": 9.0242298, "lon": 38.7590787}, {"type": "node", "id": 9239272281, "lat": 8.8689168, "lon": 38.7908792, "tags": {"name": "Akaki Beseka", "place": "village"}}, {"type": "node", "id": 10092084674, "lat": 9.0210458, "lon": 38.8529508}, {"type": "node", "id": 10092084675, "lat": 9.0212128, "lon": 38.8517209}, {"type": "node", "id": 10092084676, "lat": 9.0215546, "lon": 38.8524182}, {"type": "node", "id": 10092084677, "lat": 9.0215044, "lon": 38.8525816}, {"type": "node", "id": 10092084678, "lat": 9.0212489, "lon": 38.8528704}, {"type": "node", "id": 10092084679, "lat": 9.02083, "lon": 38.8529591}, {"type": "node", "id": 10092084680, "lat": 9.0206234, "lon": 38.8528954}, {"type": "node", "id": 10092084681, "lat": 9.0203519, "lon": 38.8526381}, {"type": "node", "id": 10092084682, "lat": 9.0203032, "lon": 38.852078}, {"type": "node", "id": 10092084683, "lat": 9.0204042, "lon": 38.8518962}, {"type": "node", "id": 10092084684, "lat": 9.0205562, "lon": 38.8517554}, {"type": "node", "id": 10092084685, "lat": 9.020744, "lon": 38.8516699}, {"type": "node", "id": 10092084686, "lat": 9.0210847, "lon": 38.8516703}, {"type": "node", "id": 10092084687, "lat": 9.0213468, "lon": 38.8518144}, {"type": "node", "id": 10092084688, "lat": 9.0214537, "lon": 38.8519385}, {"type": "node", "id": 10768956005, "lat": 8.8994535, "lon": 38.8149908, "tags": {"name": "Koye Adebabay", "place": "square"}}, {"type": "node", "id": 11032103639, "lat": 8.9521753, "lon": 38.7863688, "tags": {"name": "Mariam Mazoria", "place": "square"}}, {"type": "way", "id": 93108022, "nodes": [1079313105, 1079313480, 1079312787, 1079313330, 1079311429, 1079312647, 1079314068, 1079311551, 1079312736, 1079310611, 1079312126, 1079313993, 1079311994, 1079313105], "tags": {"landuse": "residential", "name": "Endorro", "place": "village"}}, {"type": "way", "id": 93108078, "nodes": [1079311415, 1079313213, 1079311357, 1079312599, 1079313351, 1079311486, 1079312684, 1079310520, 1079312477, 1985649537, 1079313930, 1079311924, 1079313038, 1079311415], "tags": {"landuse": "residential", "name": "Endorro", "place": "village"}}, {"type": "way", "id": 93108088, "nodes": [1079312008, 1079311285, 1079312541, 1079313976, 1079313738, 1079311747, 1079312952, 8278999675, 1079311013, 1079312369, 1079310758, 1079312173, 1079313407, 1079311512, 1079312255, 1079312008], "tags": {"landuse": "residential", "name": "Koye", "place": "village"}}, {"type": "way", "id": 93108097, "nodes": [1079312810, 1079311617, 1079312774, 1079310698, 1079311701, 1079312841, 1079310866, 1079312810], "tags": {"landuse": "residential", "name": "Jerer", "place": "village"}}, {"type": "way", "id": 421753441, "nodes": [4214999944, 4214999945, 4214999946, 4214999947, 4214999944], "tags": {"place": "farm"}}, {"type": "way", "id": 884203328, "nodes": [262956893, 8222999521, 2104347167, 8222991202, 8222991203, 8222991204, 8222991205, 8222991206, 8222991207, 559981774, 559981773, 8222991210, 8222991211, 8222991212, 775683816, 8222991213, 8222991214, 8222991215, 8222991216]}, {"type": "way", "id": 906864445, "nodes": [8420940652, 8420940653, 8420940646, 8420940648, 8420940662, 8420940670, 8420940643, 8420940647, 8420940669, 8420940650, 8420941224, 8420941225, 8420941218, 8420941217, 8420941216, 8420941221, 8420941298, 8420941321, 8420941282, 8420941363, 8420941361, 8420941374, 8420941364, 8420941366, 8420940824, 8420940847, 8420938721, 8420941055, 8420941462, 8420940789, 8420938796, 8420938781, 8420940895, 8420941190, 8420940876, 8420941440, 8420941411, 8420941378, 8420940846, 8420940769, 8420941471, 8420938728, 8420940872, 8420940761, 8420941293, 8420941059, 8420938741, 8420941461, 8420938739, 8420940652], "tags": {"highway": "pedestrian", "place": "square"}}, {"type": "way", "id": 906864455, "nodes": [8420940939, 8420940952, 8420940925, 8420940926, 8420940953, 8420941341, 8420941338, 8420941336, 8420941334, 8420941326, 8420940996, 8420941003, 8420941006, 8420941020, 8420941008, 8420941000, 8420940839, 8420941022, 8420941012, 8420941170, 8420941172, 8420941180, 8420941169, 8420941171, 8420941045, 8420989474, 8420941049, 8420941048, 8420941054, 8420941025, 8420940889, 8420940886, 8420940883, 8420940880, 8420989476, 8420940877, 8420938814, 8420940617, 8420938805, 8420938809, 8420938815, 8420938803, 8420938800, 8420940618, 8420940619, 8420938799, 8420941398, 8420941379, 8420941380, 8420941384, 8420941383, 8420941397, 8420941376, 8420940809, 8420940813, 8420940815, 8420940811, 8420940954, 8420940946, 8420940973, 8420940933, 8420989483, 8420940959, 8420940966, 8420940951, 8420940922, 8420940939], "tags": {"area": "yes", "highway": "pedestrian", "place": "square"}}, {"type": "way", "id": 906864499, "nodes": [8420941214, 8420941219, 8420941206, 8420941202, 8420941209, 8420941413, 8420941425, 8420941415, 8420941424, 8420941419, 8420941422, 8420940861, 8420940860, 8420941214], "tags": {"highway": "pedestrian", "place": "square"}}, {"type": "way", "id": 906864500, "nodes": [8420941402, 8420941410, 8420941405, 8420941404, 8420940641, 8420940638, 8420989477, 8420940636, 8420940634, 8420940633, 8420989475, 8420940629, 8420941402], "tags": {"highway": "pedestrian", "place": "square"}}, {"type": "way", "id": 1102870699, "nodes": [2874006651, 10092084676, 10092084677, 768273820, 10092084678, 10092084674, 10092084679, 10092084680, 768273812, 10092084681, 2874006650, 7037183513, 10092084682, 10092084683, 10092084684, 10092084685, 768273810, 10092084686, 10092084675, 10092084687, 10092084688, 5526993571, 2874006651], "tags": {"name": "CMC square", "place": "square"}}, {"type": "way", "id": 1202277930, "nodes": [8222991216, 8222999517, 8222999518, 262957030, 262956893]}, {"type": "relation", "id": 16244975, "members": [{"type": "way", "ref": 884203328, "role": "outer"}, {"type": "way", "ref": 1202277930, "role": "outer"}], "tags": {"name": "Sidist Kilo", "name:am": "\u1235\u12f5\u1235\u1275 \u12aa\u120e", "place": "suburb", "type": "multipolygon"}}]}